<?xml version="1.0" encoding="UTF-8"?>
<gpx xmlns="http://www.topografix.com/GPX/1/1" version="1.1" creator="VitaBandet">
  <metadata>
    <name>Kvikkjokk→Sälka · Paolo Peralta's Band (padjelanta)</name>
  </metadata>
  <wpt lat="66.92535" lon="17.71893">
    <name>Kvikkjokk</name>
  </wpt>
  <wpt lat="67.94636" lon="18.28189">
    <name>Sälka</name>
  </wpt>
  <trk>
    <name>Kvikkjokk→Sälka · Paolo Peralta's Band (padjelanta)</name>
    <trkseg>
      <trkpt lat="66.92535" lon="17.71893">
        <time>2021-04-13T18:47:00Z</time>
      </trkpt>
      <trkpt lat="66.95667" lon="17.37713">
        <time>2021-04-15T19:04:00Z</time>
      </trkpt>
      <trkpt lat="67.13357" lon="17.1297">
        <time>2021-04-16T19:45:00Z</time>
      </trkpt>
      <trkpt lat="67.34257" lon="17.21502">
        <time>2021-04-17T18:20:00Z</time>
      </trkpt>
      <trkpt lat="67.52497" lon="17.21764">
        <time>2021-04-18T19:27:00Z</time>
      </trkpt>
      <trkpt lat="67.7222" lon="17.46938">
        <time>2021-04-19T17:21:00Z</time>
      </trkpt>
      <trkpt lat="67.72223" lon="17.46961">
        <time>2021-04-20T15:47:00Z</time>
      </trkpt>
      <trkpt lat="67.72217" lon="17.46964">
        <time>2021-04-21T19:01:00Z</time>
      </trkpt>
      <trkpt lat="67.87533" lon="17.79358">
        <time>2021-04-22T17:49:00Z</time>
      </trkpt>
      <trkpt lat="67.94636" lon="18.28189">
        <time>2021-04-23T19:01:00Z</time>
      </trkpt>
    </trkseg>
  </trk>
</gpx>
