<?xml version="1.0" encoding="UTF-8"?>
<gpx xmlns="http://www.topografix.com/GPX/1/1" version="1.1" creator="VitaBandet">
  <metadata>
    <name>Kvikkjokk→Sälka · Evelina Silokangas (padjelanta)</name>
  </metadata>
  <wpt lat="66.95005" lon="17.72406">
    <name>Kvikkjokk</name>
  </wpt>
  <wpt lat="67.94615" lon="18.28279">
    <name>Sälka</name>
  </wpt>
  <trk>
    <name>Kvikkjokk→Sälka · Evelina Silokangas (padjelanta)</name>
    <trkseg>
      <trkpt lat="66.95005" lon="17.72406">
        <time>2020-03-28T14:11:00Z</time>
      </trkpt>
      <trkpt lat="66.95372" lon="17.71983">
        <time>2020-03-28T14:52:00Z</time>
      </trkpt>
      <trkpt lat="66.95371" lon="17.71979">
        <time>2020-03-30T11:03:00Z</time>
      </trkpt>
      <trkpt lat="66.95937" lon="17.72264">
        <time>2020-03-30T11:17:00Z</time>
      </trkpt>
      <trkpt lat="66.97533" lon="17.75528">
        <time>2020-03-30T12:17:00Z</time>
      </trkpt>
      <trkpt lat="66.97958" lon="17.76137">
        <time>2020-03-30T12:27:00Z</time>
      </trkpt>
      <trkpt lat="66.98387" lon="17.76978">
        <time>2020-03-30T12:37:00Z</time>
      </trkpt>
      <trkpt lat="66.98692" lon="17.78324">
        <time>2020-03-30T12:47:00Z</time>
      </trkpt>
      <trkpt lat="67.00015" lon="17.79259">
        <time>2020-03-30T13:07:00Z</time>
      </trkpt>
      <trkpt lat="67.00218" lon="17.79019">
        <time>2020-03-30T13:17:00Z</time>
      </trkpt>
      <trkpt lat="67.00578" lon="17.78976">
        <time>2020-03-30T13:27:00Z</time>
      </trkpt>
      <trkpt lat="67.01325" lon="17.79101">
        <time>2020-03-30T13:37:00Z</time>
      </trkpt>
      <trkpt lat="67.02007" lon="17.79485">
        <time>2020-03-30T13:47:00Z</time>
      </trkpt>
      <trkpt lat="67.02216" lon="17.80594">
        <time>2020-03-30T13:57:00Z</time>
      </trkpt>
      <trkpt lat="67.02404" lon="17.82515">
        <time>2020-03-30T14:07:00Z</time>
      </trkpt>
      <trkpt lat="67.02582" lon="17.84499">
        <time>2020-03-30T14:17:00Z</time>
      </trkpt>
      <trkpt lat="67.02618" lon="17.84946">
        <time>2020-03-30T14:27:00Z</time>
      </trkpt>
      <trkpt lat="67.02618" lon="17.84941">
        <time>2020-03-30T14:37:00Z</time>
      </trkpt>
      <trkpt lat="67.02622" lon="17.8495">
        <time>2020-03-30T14:47:00Z</time>
      </trkpt>
      <trkpt lat="67.02669" lon="17.85714">
        <time>2020-03-30T14:57:00Z</time>
      </trkpt>
      <trkpt lat="67.0295" lon="17.86896">
        <time>2020-03-30T15:07:00Z</time>
      </trkpt>
      <trkpt lat="67.03042" lon="17.88347">
        <time>2020-03-30T15:17:00Z</time>
      </trkpt>
      <trkpt lat="67.02925" lon="17.90029">
        <time>2020-03-30T15:27:00Z</time>
      </trkpt>
      <trkpt lat="67.02986" lon="17.91059">
        <time>2020-03-30T15:37:00Z</time>
      </trkpt>
      <trkpt lat="67.03194" lon="17.92074">
        <time>2020-03-30T15:46:00Z</time>
      </trkpt>
      <trkpt lat="67.03655" lon="17.93945">
        <time>2020-03-30T15:56:00Z</time>
      </trkpt>
      <trkpt lat="67.03998" lon="17.95104">
        <time>2020-03-30T16:06:00Z</time>
      </trkpt>
      <trkpt lat="67.04328" lon="17.96177">
        <time>2020-03-30T16:16:00Z</time>
      </trkpt>
      <trkpt lat="67.0429" lon="17.99376">
        <time>2020-03-30T16:36:00Z</time>
      </trkpt>
      <trkpt lat="67.04324" lon="18.01367">
        <time>2020-03-30T16:46:00Z</time>
      </trkpt>
      <trkpt lat="67.04646" lon="18.03247">
        <time>2020-03-30T16:56:00Z</time>
      </trkpt>
      <trkpt lat="67.0475" lon="18.04389">
        <time>2020-03-30T17:06:00Z</time>
      </trkpt>
      <trkpt lat="67.0475" lon="18.0438">
        <time>2020-03-30T17:16:00Z</time>
      </trkpt>
      <trkpt lat="67.04673" lon="18.05455">
        <time>2020-03-30T17:26:00Z</time>
      </trkpt>
      <trkpt lat="67.04922" lon="18.07112">
        <time>2020-03-30T17:36:00Z</time>
      </trkpt>
      <trkpt lat="67.0507" lon="18.08965">
        <time>2020-03-30T17:46:00Z</time>
      </trkpt>
      <trkpt lat="67.05139" lon="18.1036">
        <time>2020-03-30T17:56:00Z</time>
      </trkpt>
      <trkpt lat="67.05283" lon="18.11671">
        <time>2020-03-30T18:06:00Z</time>
      </trkpt>
      <trkpt lat="67.05619" lon="18.12742">
        <time>2020-03-30T18:16:00Z</time>
      </trkpt>
      <trkpt lat="67.05611" lon="18.12806">
        <time>2020-03-31T10:21:00Z</time>
      </trkpt>
      <trkpt lat="67.05622" lon="18.12851">
        <time>2020-03-31T10:30:00Z</time>
      </trkpt>
      <trkpt lat="67.05611" lon="18.12806">
        <time>2020-03-31T10:30:00Z</time>
      </trkpt>
      <trkpt lat="67.05631" lon="18.13405">
        <time>2020-03-31T10:40:00Z</time>
      </trkpt>
      <trkpt lat="67.05692" lon="18.16276">
        <time>2020-03-31T11:00:00Z</time>
      </trkpt>
      <trkpt lat="67.05748" lon="18.18121">
        <time>2020-03-31T11:10:00Z</time>
      </trkpt>
      <trkpt lat="67.05885" lon="18.19735">
        <time>2020-03-31T11:20:00Z</time>
      </trkpt>
      <trkpt lat="67.06276" lon="18.22104">
        <time>2020-03-31T11:39:00Z</time>
      </trkpt>
      <trkpt lat="67.0622" lon="18.23263">
        <time>2020-03-31T11:49:00Z</time>
      </trkpt>
      <trkpt lat="67.06374" lon="18.25374">
        <time>2020-03-31T11:59:00Z</time>
      </trkpt>
      <trkpt lat="67.07026" lon="18.26634">
        <time>2020-03-31T12:09:00Z</time>
      </trkpt>
      <trkpt lat="67.07474" lon="18.27335">
        <time>2020-03-31T12:20:00Z</time>
      </trkpt>
      <trkpt lat="67.07938" lon="18.27728">
        <time>2020-03-31T12:29:00Z</time>
      </trkpt>
      <trkpt lat="67.08282" lon="18.28275">
        <time>2020-03-31T12:39:00Z</time>
      </trkpt>
      <trkpt lat="67.08284" lon="18.28243">
        <time>2020-03-31T12:49:00Z</time>
      </trkpt>
      <trkpt lat="67.0828" lon="18.28286">
        <time>2020-03-31T12:59:00Z</time>
      </trkpt>
      <trkpt lat="67.08322" lon="18.2841">
        <time>2020-03-31T13:09:00Z</time>
      </trkpt>
      <trkpt lat="67.08519" lon="18.2841">
        <time>2020-03-31T13:19:00Z</time>
      </trkpt>
      <trkpt lat="67.08813" lon="18.27831">
        <time>2020-03-31T13:29:00Z</time>
      </trkpt>
      <trkpt lat="67.09063" lon="18.27507">
        <time>2020-03-31T13:39:00Z</time>
      </trkpt>
      <trkpt lat="67.09562" lon="18.27447">
        <time>2020-03-31T13:49:00Z</time>
      </trkpt>
      <trkpt lat="67.09904" lon="18.27254">
        <time>2020-03-31T13:59:00Z</time>
      </trkpt>
      <trkpt lat="67.10286" lon="18.27254">
        <time>2020-03-31T14:09:00Z</time>
      </trkpt>
      <trkpt lat="67.1092" lon="18.27824">
        <time>2020-03-31T14:19:00Z</time>
      </trkpt>
      <trkpt lat="67.11461" lon="18.28674">
        <time>2020-03-31T14:29:00Z</time>
      </trkpt>
      <trkpt lat="67.11933" lon="18.28992">
        <time>2020-03-31T14:39:00Z</time>
      </trkpt>
      <trkpt lat="67.12193" lon="18.29312">
        <time>2020-03-31T14:49:00Z</time>
      </trkpt>
      <trkpt lat="67.12701" lon="18.29947">
        <time>2020-03-31T14:59:00Z</time>
      </trkpt>
      <trkpt lat="67.13235" lon="18.30642">
        <time>2020-03-31T15:08:00Z</time>
      </trkpt>
      <trkpt lat="67.13808" lon="18.31387">
        <time>2020-03-31T15:19:00Z</time>
      </trkpt>
      <trkpt lat="67.141" lon="18.31522">
        <time>2020-03-31T15:28:00Z</time>
      </trkpt>
      <trkpt lat="67.14652" lon="18.30887">
        <time>2020-03-31T16:08:00Z</time>
      </trkpt>
      <trkpt lat="67.14695" lon="18.31393">
        <time>2020-03-31T16:18:00Z</time>
      </trkpt>
      <trkpt lat="67.14725" lon="18.31608">
        <time>2020-03-31T16:28:00Z</time>
      </trkpt>
      <trkpt lat="67.14754" lon="18.31747">
        <time>2020-03-31T16:38:00Z</time>
      </trkpt>
      <trkpt lat="67.14767" lon="18.31876">
        <time>2020-03-31T16:48:00Z</time>
      </trkpt>
      <trkpt lat="67.14812" lon="18.32032">
        <time>2020-03-31T16:58:00Z</time>
      </trkpt>
      <trkpt lat="67.14823" lon="18.32073">
        <time>2020-03-31T17:08:00Z</time>
      </trkpt>
      <trkpt lat="67.14832" lon="18.32187">
        <time>2020-03-31T17:18:00Z</time>
      </trkpt>
      <trkpt lat="67.14845" lon="18.32294">
        <time>2020-03-31T17:28:00Z</time>
      </trkpt>
      <trkpt lat="67.14841" lon="18.32393">
        <time>2020-03-31T17:38:00Z</time>
      </trkpt>
      <trkpt lat="67.14834" lon="18.32616">
        <time>2020-03-31T17:48:00Z</time>
      </trkpt>
      <trkpt lat="67.14874" lon="18.329">
        <time>2020-03-31T17:58:00Z</time>
      </trkpt>
      <trkpt lat="67.14937" lon="18.32994">
        <time>2020-03-31T18:08:00Z</time>
      </trkpt>
      <trkpt lat="67.15009" lon="18.33058">
        <time>2020-03-31T18:18:00Z</time>
      </trkpt>
      <trkpt lat="67.15172" lon="18.33174">
        <time>2020-03-31T18:28:00Z</time>
      </trkpt>
      <trkpt lat="67.15218" lon="18.33434">
        <time>2020-03-31T18:35:00Z</time>
      </trkpt>
      <trkpt lat="67.15218" lon="18.33442">
        <time>2020-04-01T10:00:00Z</time>
      </trkpt>
      <trkpt lat="67.15218" lon="18.33442">
        <time>2020-04-01T10:00:00Z</time>
      </trkpt>
      <trkpt lat="67.15289" lon="18.33419">
        <time>2020-04-01T10:09:00Z</time>
      </trkpt>
      <trkpt lat="67.15514" lon="18.33515">
        <time>2020-04-01T10:19:00Z</time>
      </trkpt>
      <trkpt lat="67.15598" lon="18.33633">
        <time>2020-04-01T10:29:00Z</time>
      </trkpt>
      <trkpt lat="67.15842" lon="18.33921">
        <time>2020-04-01T10:39:00Z</time>
      </trkpt>
      <trkpt lat="67.16082" lon="18.34275">
        <time>2020-04-01T10:49:00Z</time>
      </trkpt>
      <trkpt lat="67.16225" lon="18.34616">
        <time>2020-04-01T10:59:00Z</time>
      </trkpt>
      <trkpt lat="67.16368" lon="18.35047">
        <time>2020-04-01T11:09:00Z</time>
      </trkpt>
      <trkpt lat="67.16645" lon="18.36028">
        <time>2020-04-01T11:19:00Z</time>
      </trkpt>
      <trkpt lat="67.16743" lon="18.37684">
        <time>2020-04-01T11:29:00Z</time>
      </trkpt>
      <trkpt lat="67.16758" lon="18.39">
        <time>2020-04-01T11:38:00Z</time>
      </trkpt>
      <trkpt lat="67.17355" lon="18.41538">
        <time>2020-04-01T11:48:00Z</time>
      </trkpt>
      <trkpt lat="67.18262" lon="18.42643">
        <time>2020-04-01T11:59:00Z</time>
      </trkpt>
      <trkpt lat="67.18684" lon="18.43583">
        <time>2020-04-01T12:08:00Z</time>
      </trkpt>
      <trkpt lat="67.19338" lon="18.4362">
        <time>2020-04-01T12:18:00Z</time>
      </trkpt>
      <trkpt lat="67.19747" lon="18.43373">
        <time>2020-04-01T13:03:00Z</time>
      </trkpt>
      <trkpt lat="67.19747" lon="18.43382">
        <time>2020-04-01T13:12:00Z</time>
      </trkpt>
      <trkpt lat="67.19747" lon="18.43382">
        <time>2020-04-01T13:22:00Z</time>
      </trkpt>
      <trkpt lat="67.21283" lon="18.42667">
        <time>2020-04-01T14:09:00Z</time>
      </trkpt>
      <trkpt lat="67.21487" lon="18.42416">
        <time>2020-04-01T14:14:00Z</time>
      </trkpt>
      <trkpt lat="67.21736" lon="18.41987">
        <time>2020-04-01T14:18:00Z</time>
      </trkpt>
      <trkpt lat="67.22135" lon="18.41197">
        <time>2020-04-01T14:28:00Z</time>
      </trkpt>
      <trkpt lat="67.22565" lon="18.40397">
        <time>2020-04-01T14:38:00Z</time>
      </trkpt>
      <trkpt lat="67.23083" lon="18.39433">
        <time>2020-04-01T14:48:00Z</time>
      </trkpt>
      <trkpt lat="67.23618" lon="18.38437">
        <time>2020-04-01T14:58:00Z</time>
      </trkpt>
      <trkpt lat="67.24048" lon="18.37639">
        <time>2020-04-01T15:08:00Z</time>
      </trkpt>
      <trkpt lat="67.24898" lon="18.36039">
        <time>2020-04-01T15:28:00Z</time>
      </trkpt>
      <trkpt lat="67.25279" lon="18.35301">
        <time>2020-04-01T15:38:00Z</time>
      </trkpt>
      <trkpt lat="67.25696" lon="18.34511">
        <time>2020-04-01T15:48:00Z</time>
      </trkpt>
      <trkpt lat="67.2612" lon="18.33672">
        <time>2020-04-01T16:07:00Z</time>
      </trkpt>
      <trkpt lat="67.2612" lon="18.33672">
        <time>2020-04-01T16:17:00Z</time>
      </trkpt>
      <trkpt lat="67.26479" lon="18.32951">
        <time>2020-04-01T16:27:00Z</time>
      </trkpt>
      <trkpt lat="67.26951" lon="18.32033">
        <time>2020-04-01T16:37:00Z</time>
      </trkpt>
      <trkpt lat="67.27376" lon="18.31063">
        <time>2020-04-01T16:47:00Z</time>
      </trkpt>
      <trkpt lat="67.28292" lon="18.28273">
        <time>2020-04-01T17:17:00Z</time>
      </trkpt>
      <trkpt lat="67.28677" lon="18.26831">
        <time>2020-04-01T17:37:00Z</time>
      </trkpt>
      <trkpt lat="67.28681" lon="18.26831">
        <time>2020-04-01T17:47:00Z</time>
      </trkpt>
      <trkpt lat="67.29046" lon="18.26307">
        <time>2020-04-01T17:57:00Z</time>
      </trkpt>
      <trkpt lat="67.29691" lon="18.25582">
        <time>2020-04-01T18:07:00Z</time>
      </trkpt>
      <trkpt lat="67.2972" lon="18.25668">
        <time>2020-04-01T18:21:00Z</time>
      </trkpt>
      <trkpt lat="67.29725" lon="18.25668">
        <time>2020-04-02T09:58:00Z</time>
      </trkpt>
      <trkpt lat="67.2975" lon="18.24724">
        <time>2020-04-02T10:01:00Z</time>
      </trkpt>
      <trkpt lat="67.29995" lon="18.20742">
        <time>2020-04-02T10:31:00Z</time>
      </trkpt>
      <trkpt lat="67.30184" lon="18.19214">
        <time>2020-04-02T10:41:00Z</time>
      </trkpt>
      <trkpt lat="67.30356" lon="18.17703">
        <time>2020-04-02T10:51:00Z</time>
      </trkpt>
      <trkpt lat="67.30558" lon="18.16167">
        <time>2020-04-02T11:01:00Z</time>
      </trkpt>
      <trkpt lat="67.30956" lon="18.14394">
        <time>2020-04-02T11:21:00Z</time>
      </trkpt>
      <trkpt lat="67.31065" lon="18.13903">
        <time>2020-04-02T11:31:00Z</time>
      </trkpt>
      <trkpt lat="67.31393" lon="18.13021">
        <time>2020-04-02T11:41:00Z</time>
      </trkpt>
      <trkpt lat="67.31671" lon="18.12463">
        <time>2020-04-02T11:51:00Z</time>
      </trkpt>
      <trkpt lat="67.3207" lon="18.11922">
        <time>2020-04-02T12:01:00Z</time>
      </trkpt>
      <trkpt lat="67.3231" lon="18.11416">
        <time>2020-04-02T12:11:00Z</time>
      </trkpt>
      <trkpt lat="67.32684" lon="18.10588">
        <time>2020-04-02T12:21:00Z</time>
      </trkpt>
      <trkpt lat="67.3294" lon="18.10101">
        <time>2020-04-02T12:31:00Z</time>
      </trkpt>
      <trkpt lat="67.32935" lon="18.10118">
        <time>2020-04-02T12:41:00Z</time>
      </trkpt>
      <trkpt lat="67.3294" lon="18.10092">
        <time>2020-04-02T12:51:00Z</time>
      </trkpt>
      <trkpt lat="67.33128" lon="18.09234">
        <time>2020-04-02T13:00:00Z</time>
      </trkpt>
      <trkpt lat="67.3324" lon="18.07413">
        <time>2020-04-02T13:20:00Z</time>
      </trkpt>
      <trkpt lat="67.33223" lon="18.06872">
        <time>2020-04-02T13:30:00Z</time>
      </trkpt>
      <trkpt lat="67.33034" lon="18.06142">
        <time>2020-04-02T13:40:00Z</time>
      </trkpt>
      <trkpt lat="67.32465" lon="18.0506">
        <time>2020-04-02T14:00:00Z</time>
      </trkpt>
      <trkpt lat="67.32101" lon="18.04408">
        <time>2020-04-02T14:10:00Z</time>
      </trkpt>
      <trkpt lat="67.31792" lon="18.0361">
        <time>2020-04-02T14:20:00Z</time>
      </trkpt>
      <trkpt lat="67.31731" lon="18.03181">
        <time>2020-04-02T14:30:00Z</time>
      </trkpt>
      <trkpt lat="67.31498" lon="18.02661">
        <time>2020-04-02T14:40:00Z</time>
      </trkpt>
      <trkpt lat="67.31135" lon="18.00192">
        <time>2020-04-02T15:20:00Z</time>
      </trkpt>
      <trkpt lat="67.31088" lon="17.99651">
        <time>2020-04-02T15:30:00Z</time>
      </trkpt>
      <trkpt lat="67.31049" lon="17.98904">
        <time>2020-04-02T15:40:00Z</time>
      </trkpt>
      <trkpt lat="67.30961" lon="17.97773">
        <time>2020-04-02T16:09:00Z</time>
      </trkpt>
      <trkpt lat="67.30961" lon="17.97516">
        <time>2020-04-02T16:19:00Z</time>
      </trkpt>
      <trkpt lat="67.30947" lon="17.96469">
        <time>2020-04-02T16:29:00Z</time>
      </trkpt>
      <trkpt lat="67.30965" lon="17.95466">
        <time>2020-04-02T16:40:00Z</time>
      </trkpt>
      <trkpt lat="67.30952" lon="17.94814">
        <time>2020-04-02T16:50:00Z</time>
      </trkpt>
      <trkpt lat="67.3134" lon="17.92932">
        <time>2020-04-02T17:09:00Z</time>
      </trkpt>
      <trkpt lat="67.31708" lon="17.91673">
        <time>2020-04-02T17:19:00Z</time>
      </trkpt>
      <trkpt lat="67.32026" lon="17.90042">
        <time>2020-04-02T17:29:00Z</time>
      </trkpt>
      <trkpt lat="67.32023" lon="17.90039">
        <time>2020-04-02T17:39:00Z</time>
      </trkpt>
      <trkpt lat="67.32268" lon="17.88239">
        <time>2020-04-02T17:50:00Z</time>
      </trkpt>
      <trkpt lat="67.32559" lon="17.87044">
        <time>2020-04-02T17:59:00Z</time>
      </trkpt>
      <trkpt lat="67.32875" lon="17.85633">
        <time>2020-04-02T18:09:00Z</time>
      </trkpt>
      <trkpt lat="67.33072" lon="17.84946">
        <time>2020-04-02T18:19:00Z</time>
      </trkpt>
      <trkpt lat="67.3345" lon="17.84156">
        <time>2020-04-02T18:29:00Z</time>
      </trkpt>
      <trkpt lat="67.33926" lon="17.83658">
        <time>2020-04-02T18:39:00Z</time>
      </trkpt>
      <trkpt lat="67.33944" lon="17.83615">
        <time>2020-04-02T18:41:00Z</time>
      </trkpt>
      <trkpt lat="67.33949" lon="17.83615">
        <time>2020-04-03T09:37:00Z</time>
      </trkpt>
      <trkpt lat="67.33949" lon="17.83615">
        <time>2020-04-03T09:37:00Z</time>
      </trkpt>
      <trkpt lat="67.34335" lon="17.82931">
        <time>2020-04-03T09:54:00Z</time>
      </trkpt>
      <trkpt lat="67.34387" lon="17.81637">
        <time>2020-04-03T10:03:00Z</time>
      </trkpt>
      <trkpt lat="67.34505" lon="17.80691">
        <time>2020-04-03T10:13:00Z</time>
      </trkpt>
      <trkpt lat="67.34623" lon="17.7945">
        <time>2020-04-03T10:23:00Z</time>
      </trkpt>
      <trkpt lat="67.34761" lon="17.78609">
        <time>2020-04-03T10:33:00Z</time>
      </trkpt>
      <trkpt lat="67.34873" lon="17.78">
        <time>2020-04-03T10:43:00Z</time>
      </trkpt>
      <trkpt lat="67.35039" lon="17.77017">
        <time>2020-04-03T10:53:00Z</time>
      </trkpt>
      <trkpt lat="67.3514" lon="17.75996">
        <time>2020-04-03T11:03:00Z</time>
      </trkpt>
      <trkpt lat="67.3529" lon="17.7465">
        <time>2020-04-03T11:13:00Z</time>
      </trkpt>
      <trkpt lat="67.35329" lon="17.74307">
        <time>2020-04-03T11:23:00Z</time>
      </trkpt>
      <trkpt lat="67.35486" lon="17.72996">
        <time>2020-04-03T11:33:00Z</time>
      </trkpt>
      <trkpt lat="67.35647" lon="17.71908">
        <time>2020-04-03T11:43:00Z</time>
      </trkpt>
      <trkpt lat="67.35906" lon="17.71031">
        <time>2020-04-03T11:53:00Z</time>
      </trkpt>
      <trkpt lat="67.36176" lon="17.69992">
        <time>2020-04-03T12:03:00Z</time>
      </trkpt>
      <trkpt lat="67.36442" lon="17.68833">
        <time>2020-04-03T12:13:00Z</time>
      </trkpt>
      <trkpt lat="67.36611" lon="17.68288">
        <time>2020-04-03T12:23:00Z</time>
      </trkpt>
      <trkpt lat="67.36606" lon="17.68288">
        <time>2020-04-03T12:33:00Z</time>
      </trkpt>
      <trkpt lat="67.36608" lon="17.68288">
        <time>2020-04-03T12:43:00Z</time>
      </trkpt>
      <trkpt lat="67.36606" lon="17.68288">
        <time>2020-04-03T12:53:00Z</time>
      </trkpt>
      <trkpt lat="67.3661" lon="17.68284">
        <time>2020-04-03T13:02:00Z</time>
      </trkpt>
      <trkpt lat="67.37065" lon="17.66734">
        <time>2020-04-03T13:22:00Z</time>
      </trkpt>
      <trkpt lat="67.37275" lon="17.66288">
        <time>2020-04-03T13:32:00Z</time>
      </trkpt>
      <trkpt lat="67.37567" lon="17.65842">
        <time>2020-04-03T13:42:00Z</time>
      </trkpt>
      <trkpt lat="67.37813" lon="17.65456">
        <time>2020-04-03T13:52:00Z</time>
      </trkpt>
      <trkpt lat="67.38148" lon="17.64967">
        <time>2020-04-03T14:02:00Z</time>
      </trkpt>
      <trkpt lat="67.38534" lon="17.64443">
        <time>2020-04-03T14:12:00Z</time>
      </trkpt>
      <trkpt lat="67.38782" lon="17.64177">
        <time>2020-04-03T14:22:00Z</time>
      </trkpt>
      <trkpt lat="67.39279" lon="17.63393">
        <time>2020-04-03T14:32:00Z</time>
      </trkpt>
      <trkpt lat="67.39717" lon="17.62844">
        <time>2020-04-03T14:42:00Z</time>
      </trkpt>
      <trkpt lat="67.40133" lon="17.62132">
        <time>2020-04-03T14:52:00Z</time>
      </trkpt>
      <trkpt lat="67.40537" lon="17.61748">
        <time>2020-04-03T15:02:00Z</time>
      </trkpt>
      <trkpt lat="67.40577" lon="17.61714">
        <time>2020-04-03T15:12:00Z</time>
      </trkpt>
      <trkpt lat="67.40976" lon="17.61379">
        <time>2020-04-03T15:22:00Z</time>
      </trkpt>
      <trkpt lat="67.41779" lon="17.60495">
        <time>2020-04-03T15:42:00Z</time>
      </trkpt>
      <trkpt lat="67.42178" lon="17.60068">
        <time>2020-04-03T15:52:00Z</time>
      </trkpt>
      <trkpt lat="67.43976" lon="17.54873">
        <time>2020-04-03T17:11:00Z</time>
      </trkpt>
      <trkpt lat="67.44113" lon="17.54298">
        <time>2020-04-03T17:21:00Z</time>
      </trkpt>
      <trkpt lat="67.44328" lon="17.53311">
        <time>2020-04-03T17:31:00Z</time>
      </trkpt>
      <trkpt lat="67.44483" lon="17.52517">
        <time>2020-04-03T17:41:00Z</time>
      </trkpt>
      <trkpt lat="67.4465" lon="17.51753">
        <time>2020-04-03T17:51:00Z</time>
      </trkpt>
      <trkpt lat="67.44866" lon="17.51148">
        <time>2020-04-03T18:01:00Z</time>
      </trkpt>
      <trkpt lat="67.44867" lon="17.51139">
        <time>2020-04-04T10:06:00Z</time>
      </trkpt>
      <trkpt lat="67.44867" lon="17.51139">
        <time>2020-04-04T10:06:00Z</time>
      </trkpt>
      <trkpt lat="67.45007" lon="17.50779">
        <time>2020-04-04T10:15:00Z</time>
      </trkpt>
      <trkpt lat="67.45144" lon="17.50208">
        <time>2020-04-04T10:25:00Z</time>
      </trkpt>
      <trkpt lat="67.45242" lon="17.4958">
        <time>2020-04-04T10:35:00Z</time>
      </trkpt>
      <trkpt lat="67.45654" lon="17.49717">
        <time>2020-04-04T10:45:00Z</time>
      </trkpt>
      <trkpt lat="67.45966" lon="17.49107">
        <time>2020-04-04T10:55:00Z</time>
      </trkpt>
      <trkpt lat="67.46274" lon="17.48369">
        <time>2020-04-04T11:05:00Z</time>
      </trkpt>
      <trkpt lat="67.46368" lon="17.4818">
        <time>2020-04-04T11:15:00Z</time>
      </trkpt>
      <trkpt lat="67.46514" lon="17.47313">
        <time>2020-04-04T11:25:00Z</time>
      </trkpt>
      <trkpt lat="67.467" lon="17.46657">
        <time>2020-04-04T11:35:00Z</time>
      </trkpt>
      <trkpt lat="67.47264" lon="17.44766">
        <time>2020-04-04T12:05:00Z</time>
      </trkpt>
      <trkpt lat="67.4726" lon="17.44749">
        <time>2020-04-04T12:15:00Z</time>
      </trkpt>
      <trkpt lat="67.47269" lon="17.44783">
        <time>2020-04-04T12:25:00Z</time>
      </trkpt>
      <trkpt lat="67.47533" lon="17.44324">
        <time>2020-04-04T12:39:00Z</time>
      </trkpt>
      <trkpt lat="67.47677" lon="17.44271">
        <time>2020-04-04T12:49:00Z</time>
      </trkpt>
      <trkpt lat="67.47942" lon="17.4361">
        <time>2020-04-04T12:59:00Z</time>
      </trkpt>
      <trkpt lat="67.48183" lon="17.4308">
        <time>2020-04-04T13:09:00Z</time>
      </trkpt>
      <trkpt lat="67.48727" lon="17.422">
        <time>2020-04-04T13:29:00Z</time>
      </trkpt>
      <trkpt lat="67.49011" lon="17.41805">
        <time>2020-04-04T13:39:00Z</time>
      </trkpt>
      <trkpt lat="67.49247" lon="17.41608">
        <time>2020-04-04T13:49:00Z</time>
      </trkpt>
      <trkpt lat="67.49565" lon="17.41378">
        <time>2020-04-04T13:58:00Z</time>
      </trkpt>
      <trkpt lat="67.49782" lon="17.41273">
        <time>2020-04-04T14:09:00Z</time>
      </trkpt>
      <trkpt lat="67.50005" lon="17.41142">
        <time>2020-04-04T14:18:00Z</time>
      </trkpt>
      <trkpt lat="67.50264" lon="17.40786">
        <time>2020-04-04T14:28:00Z</time>
      </trkpt>
      <trkpt lat="67.50411" lon="17.40782">
        <time>2020-04-04T14:38:00Z</time>
      </trkpt>
      <trkpt lat="67.50489" lon="17.4091">
        <time>2020-04-04T14:49:00Z</time>
      </trkpt>
      <trkpt lat="67.50763" lon="17.4091">
        <time>2020-04-04T14:59:00Z</time>
      </trkpt>
      <trkpt lat="67.51099" lon="17.40764">
        <time>2020-04-04T15:09:00Z</time>
      </trkpt>
      <trkpt lat="67.51099" lon="17.4076">
        <time>2020-04-04T15:18:00Z</time>
      </trkpt>
      <trkpt lat="67.51099" lon="17.4076">
        <time>2020-04-04T15:28:00Z</time>
      </trkpt>
      <trkpt lat="67.51099" lon="17.4076">
        <time>2020-04-04T15:38:00Z</time>
      </trkpt>
      <trkpt lat="67.5147" lon="17.40625">
        <time>2020-04-04T15:48:00Z</time>
      </trkpt>
      <trkpt lat="67.51785" lon="17.4055">
        <time>2020-04-04T15:58:00Z</time>
      </trkpt>
      <trkpt lat="67.52108" lon="17.40415">
        <time>2020-04-04T16:08:00Z</time>
      </trkpt>
      <trkpt lat="67.52549" lon="17.39649">
        <time>2020-04-04T16:18:00Z</time>
      </trkpt>
      <trkpt lat="67.52807" lon="17.39016">
        <time>2020-04-04T16:28:00Z</time>
      </trkpt>
      <trkpt lat="67.53146" lon="17.38775">
        <time>2020-04-04T16:38:00Z</time>
      </trkpt>
      <trkpt lat="67.53389" lon="17.3829">
        <time>2020-04-04T16:48:00Z</time>
      </trkpt>
      <trkpt lat="67.53496" lon="17.37852">
        <time>2020-04-04T16:58:00Z</time>
      </trkpt>
      <trkpt lat="67.53886" lon="17.37256">
        <time>2020-04-04T17:08:00Z</time>
      </trkpt>
      <trkpt lat="67.53909" lon="17.37243">
        <time>2020-04-04T17:17:00Z</time>
      </trkpt>
      <trkpt lat="67.54143" lon="17.37074">
        <time>2020-04-04T17:27:00Z</time>
      </trkpt>
      <trkpt lat="67.5434" lon="17.36685">
        <time>2020-04-04T17:37:00Z</time>
      </trkpt>
      <trkpt lat="67.546" lon="17.36427">
        <time>2020-04-04T17:47:00Z</time>
      </trkpt>
      <trkpt lat="67.54677" lon="17.36187">
        <time>2020-04-04T17:57:00Z</time>
      </trkpt>
      <trkpt lat="67.54791" lon="17.36149">
        <time>2020-04-04T18:08:00Z</time>
      </trkpt>
      <trkpt lat="67.54704" lon="17.35859">
        <time>2020-04-05T10:04:00Z</time>
      </trkpt>
      <trkpt lat="67.54848" lon="17.35353">
        <time>2020-04-05T10:07:00Z</time>
      </trkpt>
      <trkpt lat="67.54944" lon="17.35179">
        <time>2020-04-05T10:17:00Z</time>
      </trkpt>
      <trkpt lat="67.55583" lon="17.35166">
        <time>2020-04-05T10:47:00Z</time>
      </trkpt>
      <trkpt lat="67.55768" lon="17.34926">
        <time>2020-04-05T10:57:00Z</time>
      </trkpt>
      <trkpt lat="67.55888" lon="17.34917">
        <time>2020-04-05T11:07:00Z</time>
      </trkpt>
      <trkpt lat="67.56159" lon="17.34657">
        <time>2020-04-05T11:17:00Z</time>
      </trkpt>
      <trkpt lat="67.56224" lon="17.34589">
        <time>2020-04-05T11:27:00Z</time>
      </trkpt>
      <trkpt lat="67.565" lon="17.33872">
        <time>2020-04-05T11:37:00Z</time>
      </trkpt>
      <trkpt lat="67.56674" lon="17.33284">
        <time>2020-04-05T11:48:00Z</time>
      </trkpt>
      <trkpt lat="67.5685" lon="17.32941">
        <time>2020-04-05T11:58:00Z</time>
      </trkpt>
      <trkpt lat="67.57037" lon="17.32653">
        <time>2020-04-05T13:06:00Z</time>
      </trkpt>
      <trkpt lat="67.57395" lon="17.32374">
        <time>2020-04-05T13:16:00Z</time>
      </trkpt>
      <trkpt lat="67.57732" lon="17.32407">
        <time>2020-04-05T13:26:00Z</time>
      </trkpt>
      <trkpt lat="67.58094" lon="17.32979">
        <time>2020-04-05T13:35:00Z</time>
      </trkpt>
      <trkpt lat="67.58626" lon="17.3352">
        <time>2020-04-05T13:45:00Z</time>
      </trkpt>
      <trkpt lat="67.5905" lon="17.33763">
        <time>2020-04-05T13:56:00Z</time>
      </trkpt>
      <trkpt lat="67.58967" lon="17.341">
        <time>2020-04-05T14:05:00Z</time>
      </trkpt>
      <trkpt lat="67.59331" lon="17.345">
        <time>2020-04-05T14:15:00Z</time>
      </trkpt>
      <trkpt lat="67.59802" lon="17.34543">
        <time>2020-04-05T14:25:00Z</time>
      </trkpt>
      <trkpt lat="67.60387" lon="17.34758">
        <time>2020-04-05T14:35:00Z</time>
      </trkpt>
      <trkpt lat="67.60746" lon="17.35031">
        <time>2020-04-05T14:45:00Z</time>
      </trkpt>
      <trkpt lat="67.61184" lon="17.35516">
        <time>2020-04-05T14:55:00Z</time>
      </trkpt>
      <trkpt lat="67.62671" lon="17.37174">
        <time>2020-04-05T15:54:00Z</time>
      </trkpt>
      <trkpt lat="67.62851" lon="17.36934">
        <time>2020-04-05T16:04:00Z</time>
      </trkpt>
      <trkpt lat="67.62791" lon="17.36951">
        <time>2020-04-05T16:14:00Z</time>
      </trkpt>
      <trkpt lat="67.63461" lon="17.36104">
        <time>2020-04-05T16:48:00Z</time>
      </trkpt>
      <trkpt lat="67.63466" lon="17.36074">
        <time>2020-04-06T11:09:00Z</time>
      </trkpt>
      <trkpt lat="67.63705" lon="17.3658">
        <time>2020-04-06T11:19:00Z</time>
      </trkpt>
      <trkpt lat="67.63466" lon="17.36074">
        <time>2020-04-06T11:21:00Z</time>
      </trkpt>
      <trkpt lat="67.64145" lon="17.37312">
        <time>2020-04-06T11:29:00Z</time>
      </trkpt>
      <trkpt lat="67.64613" lon="17.37484">
        <time>2020-04-06T11:39:00Z</time>
      </trkpt>
      <trkpt lat="67.64991" lon="17.37074">
        <time>2020-04-06T11:49:00Z</time>
      </trkpt>
      <trkpt lat="67.6557" lon="17.37168">
        <time>2020-04-06T11:59:00Z</time>
      </trkpt>
      <trkpt lat="67.66022" lon="17.37574">
        <time>2020-04-06T12:09:00Z</time>
      </trkpt>
      <trkpt lat="67.66025" lon="17.37582">
        <time>2020-04-06T12:18:00Z</time>
      </trkpt>
      <trkpt lat="67.66029" lon="17.37582">
        <time>2020-04-06T12:28:00Z</time>
      </trkpt>
      <trkpt lat="67.66325" lon="17.37831">
        <time>2020-04-06T12:38:00Z</time>
      </trkpt>
      <trkpt lat="67.66583" lon="17.38116">
        <time>2020-04-06T12:48:00Z</time>
      </trkpt>
      <trkpt lat="67.66833" lon="17.38411">
        <time>2020-04-06T12:58:00Z</time>
      </trkpt>
      <trkpt lat="67.67187" lon="17.38874">
        <time>2020-04-06T13:09:00Z</time>
      </trkpt>
      <trkpt lat="67.67619" lon="17.39824">
        <time>2020-04-06T13:18:00Z</time>
      </trkpt>
      <trkpt lat="67.67975" lon="17.40912">
        <time>2020-04-06T13:28:00Z</time>
      </trkpt>
      <trkpt lat="67.68394" lon="17.41852">
        <time>2020-04-06T13:38:00Z</time>
      </trkpt>
      <trkpt lat="67.69036" lon="17.42258">
        <time>2020-04-06T13:48:00Z</time>
      </trkpt>
      <trkpt lat="67.69507" lon="17.42601">
        <time>2020-04-06T13:58:00Z</time>
      </trkpt>
      <trkpt lat="67.70193" lon="17.42964">
        <time>2020-04-06T14:08:00Z</time>
      </trkpt>
      <trkpt lat="67.70713" lon="17.43159">
        <time>2020-04-06T14:18:00Z</time>
      </trkpt>
      <trkpt lat="67.71263" lon="17.43719">
        <time>2020-04-06T14:28:00Z</time>
      </trkpt>
      <trkpt lat="67.71659" lon="17.44738">
        <time>2020-04-06T14:38:00Z</time>
      </trkpt>
      <trkpt lat="67.71812" lon="17.46159">
        <time>2020-04-06T14:48:00Z</time>
      </trkpt>
      <trkpt lat="67.71957" lon="17.46457">
        <time>2020-04-06T14:57:00Z</time>
      </trkpt>
      <trkpt lat="67.72149" lon="17.46685">
        <time>2020-04-06T15:08:00Z</time>
      </trkpt>
      <trkpt lat="67.72226" lon="17.4697">
        <time>2020-04-06T16:18:00Z</time>
      </trkpt>
      <trkpt lat="67.72243" lon="17.46618">
        <time>2020-04-06T16:28:00Z</time>
      </trkpt>
      <trkpt lat="67.72483" lon="17.45947">
        <time>2020-04-06T16:38:00Z</time>
      </trkpt>
      <trkpt lat="67.72557" lon="17.47296">
        <time>2020-04-06T16:48:00Z</time>
      </trkpt>
      <trkpt lat="67.7296" lon="17.4735">
        <time>2020-04-06T16:58:00Z</time>
      </trkpt>
      <trkpt lat="67.73251" lon="17.476">
        <time>2020-04-06T17:08:00Z</time>
      </trkpt>
      <trkpt lat="67.73714" lon="17.47712">
        <time>2020-04-06T17:18:00Z</time>
      </trkpt>
      <trkpt lat="67.7395" lon="17.4809">
        <time>2020-04-06T17:28:00Z</time>
      </trkpt>
      <trkpt lat="67.74274" lon="17.48624">
        <time>2020-04-06T17:38:00Z</time>
      </trkpt>
      <trkpt lat="67.74758" lon="17.49393">
        <time>2020-04-06T17:48:00Z</time>
      </trkpt>
      <trkpt lat="67.74872" lon="17.50761">
        <time>2020-04-06T17:58:00Z</time>
      </trkpt>
      <trkpt lat="67.74975" lon="17.51171">
        <time>2020-04-06T18:08:00Z</time>
      </trkpt>
      <trkpt lat="67.7535" lon="17.52268">
        <time>2020-04-06T18:18:00Z</time>
      </trkpt>
      <trkpt lat="67.75566" lon="17.53336">
        <time>2020-04-06T18:28:00Z</time>
      </trkpt>
      <trkpt lat="67.75924" lon="17.5428">
        <time>2020-04-06T18:38:00Z</time>
      </trkpt>
      <trkpt lat="67.76218" lon="17.55045">
        <time>2020-04-06T18:48:00Z</time>
      </trkpt>
      <trkpt lat="67.76241" lon="17.55336">
        <time>2020-04-06T18:52:00Z</time>
      </trkpt>
      <trkpt lat="67.76464" lon="17.55918">
        <time>2020-04-07T08:59:00Z</time>
      </trkpt>
      <trkpt lat="67.76927" lon="17.57671">
        <time>2020-04-07T09:09:00Z</time>
      </trkpt>
      <trkpt lat="67.77624" lon="17.59057">
        <time>2020-04-07T09:19:00Z</time>
      </trkpt>
      <trkpt lat="67.77919" lon="17.59311">
        <time>2020-04-07T09:29:00Z</time>
      </trkpt>
      <trkpt lat="67.78449" lon="17.60336">
        <time>2020-04-07T09:39:00Z</time>
      </trkpt>
      <trkpt lat="67.79004" lon="17.60907">
        <time>2020-04-07T09:49:00Z</time>
      </trkpt>
      <trkpt lat="67.79331" lon="17.61063">
        <time>2020-04-07T09:58:00Z</time>
      </trkpt>
      <trkpt lat="67.7979" lon="17.61362">
        <time>2020-04-07T10:08:00Z</time>
      </trkpt>
      <trkpt lat="67.80215" lon="17.61969">
        <time>2020-04-07T10:18:00Z</time>
      </trkpt>
      <trkpt lat="67.80798" lon="17.62263">
        <time>2020-04-07T10:28:00Z</time>
      </trkpt>
      <trkpt lat="67.81063" lon="17.62224">
        <time>2020-04-07T10:38:00Z</time>
      </trkpt>
      <trkpt lat="67.81065" lon="17.62218">
        <time>2020-04-07T10:48:00Z</time>
      </trkpt>
      <trkpt lat="67.81522" lon="17.62941">
        <time>2020-04-07T10:58:00Z</time>
      </trkpt>
      <trkpt lat="67.81822" lon="17.64013">
        <time>2020-04-07T11:08:00Z</time>
      </trkpt>
      <trkpt lat="67.8232" lon="17.64228">
        <time>2020-04-07T11:18:00Z</time>
      </trkpt>
      <trkpt lat="67.83011" lon="17.64421">
        <time>2020-04-07T11:28:00Z</time>
      </trkpt>
      <trkpt lat="67.83432" lon="17.64726">
        <time>2020-04-07T11:38:00Z</time>
      </trkpt>
      <trkpt lat="67.84166" lon="17.6416">
        <time>2020-04-07T11:48:00Z</time>
      </trkpt>
      <trkpt lat="67.84753" lon="17.63735">
        <time>2020-04-07T11:57:00Z</time>
      </trkpt>
      <trkpt lat="67.85046" lon="17.63057">
        <time>2020-04-07T12:07:00Z</time>
      </trkpt>
      <trkpt lat="67.85509" lon="17.61802">
        <time>2020-04-07T12:17:00Z</time>
      </trkpt>
      <trkpt lat="67.85741" lon="17.62168">
        <time>2020-04-07T12:27:00Z</time>
      </trkpt>
      <trkpt lat="67.85796" lon="17.62606">
        <time>2020-04-07T12:37:00Z</time>
      </trkpt>
      <trkpt lat="67.85793" lon="17.62613">
        <time>2020-04-07T12:47:00Z</time>
      </trkpt>
      <trkpt lat="67.85789" lon="17.62606">
        <time>2020-04-07T13:28:00Z</time>
      </trkpt>
      <trkpt lat="67.86054" lon="17.63479">
        <time>2020-04-07T13:38:00Z</time>
      </trkpt>
      <trkpt lat="67.86305" lon="17.63988">
        <time>2020-04-07T13:48:00Z</time>
      </trkpt>
      <trkpt lat="67.86644" lon="17.64194">
        <time>2020-04-07T13:58:00Z</time>
      </trkpt>
      <trkpt lat="67.87151" lon="17.64527">
        <time>2020-04-07T14:08:00Z</time>
      </trkpt>
      <trkpt lat="67.87676" lon="17.64773">
        <time>2020-04-07T14:18:00Z</time>
      </trkpt>
      <trkpt lat="67.8813" lon="17.65347">
        <time>2020-04-07T14:28:00Z</time>
      </trkpt>
      <trkpt lat="67.88254" lon="17.65905">
        <time>2020-04-07T14:38:00Z</time>
      </trkpt>
      <trkpt lat="67.88391" lon="17.67072">
        <time>2020-04-07T14:48:00Z</time>
      </trkpt>
      <trkpt lat="67.88475" lon="17.67964">
        <time>2020-04-07T14:57:00Z</time>
      </trkpt>
      <trkpt lat="67.88534" lon="17.69101">
        <time>2020-04-07T15:07:00Z</time>
      </trkpt>
      <trkpt lat="67.88415" lon="17.70822">
        <time>2020-04-07T15:17:00Z</time>
      </trkpt>
      <trkpt lat="67.88355" lon="17.71532">
        <time>2020-04-07T15:27:00Z</time>
      </trkpt>
      <trkpt lat="67.88222" lon="17.73004">
        <time>2020-04-07T15:37:00Z</time>
      </trkpt>
      <trkpt lat="67.88149" lon="17.74575">
        <time>2020-04-07T15:48:00Z</time>
      </trkpt>
      <trkpt lat="67.88162" lon="17.76043">
        <time>2020-04-07T15:57:00Z</time>
      </trkpt>
      <trkpt lat="67.88292" lon="17.77513">
        <time>2020-04-07T16:07:00Z</time>
      </trkpt>
      <trkpt lat="67.88402" lon="17.78822">
        <time>2020-04-07T16:17:00Z</time>
      </trkpt>
      <trkpt lat="67.88511" lon="17.80169">
        <time>2020-04-07T16:27:00Z</time>
      </trkpt>
      <trkpt lat="67.886" lon="17.8121">
        <time>2020-04-07T16:37:00Z</time>
      </trkpt>
      <trkpt lat="67.88659" lon="17.81682">
        <time>2020-04-07T16:47:00Z</time>
      </trkpt>
      <trkpt lat="67.88693" lon="17.81888">
        <time>2020-04-07T16:57:00Z</time>
      </trkpt>
      <trkpt lat="67.88853" lon="17.8274">
        <time>2020-04-07T17:06:00Z</time>
      </trkpt>
      <trkpt lat="67.89085" lon="17.83976">
        <time>2020-04-07T17:16:00Z</time>
      </trkpt>
      <trkpt lat="67.89248" lon="17.84991">
        <time>2020-04-07T17:26:00Z</time>
      </trkpt>
      <trkpt lat="67.89521" lon="17.86772">
        <time>2020-04-07T17:37:00Z</time>
      </trkpt>
      <trkpt lat="67.8977" lon="17.88454">
        <time>2020-04-07T17:47:00Z</time>
      </trkpt>
      <trkpt lat="67.89767" lon="17.88452">
        <time>2020-04-07T17:48:00Z</time>
      </trkpt>
      <trkpt lat="67.89771" lon="17.8845">
        <time>2020-04-08T09:02:00Z</time>
      </trkpt>
      <trkpt lat="67.90063" lon="17.90106">
        <time>2020-04-08T09:21:00Z</time>
      </trkpt>
      <trkpt lat="67.90199" lon="17.91273">
        <time>2020-04-08T09:31:00Z</time>
      </trkpt>
      <trkpt lat="67.90278" lon="17.92514">
        <time>2020-04-08T09:41:00Z</time>
      </trkpt>
      <trkpt lat="67.90492" lon="17.93501">
        <time>2020-04-08T09:51:00Z</time>
      </trkpt>
      <trkpt lat="67.90698" lon="17.94765">
        <time>2020-04-08T10:02:00Z</time>
      </trkpt>
      <trkpt lat="67.90694" lon="17.9643">
        <time>2020-04-08T10:11:00Z</time>
      </trkpt>
      <trkpt lat="67.90938" lon="17.97809">
        <time>2020-04-08T10:21:00Z</time>
      </trkpt>
      <trkpt lat="67.90998" lon="17.98453">
        <time>2020-04-08T10:31:00Z</time>
      </trkpt>
      <trkpt lat="67.90996" lon="17.9982">
        <time>2020-04-08T10:41:00Z</time>
      </trkpt>
      <trkpt lat="67.91051" lon="18.00436">
        <time>2020-04-08T10:51:00Z</time>
      </trkpt>
      <trkpt lat="67.90649" lon="18.05058">
        <time>2020-04-08T11:30:00Z</time>
      </trkpt>
      <trkpt lat="67.90562" lon="18.0997">
        <time>2020-04-08T12:10:00Z</time>
      </trkpt>
      <trkpt lat="67.90552" lon="18.09976">
        <time>2020-04-08T12:20:00Z</time>
      </trkpt>
      <trkpt lat="67.90591" lon="18.0995">
        <time>2020-04-08T12:30:00Z</time>
      </trkpt>
      <trkpt lat="67.90582" lon="18.09944">
        <time>2020-04-08T12:40:00Z</time>
      </trkpt>
      <trkpt lat="67.90582" lon="18.0995">
        <time>2020-04-08T12:50:00Z</time>
      </trkpt>
      <trkpt lat="67.90582" lon="18.09953">
        <time>2020-04-08T13:01:00Z</time>
      </trkpt>
      <trkpt lat="67.90584" lon="18.09959">
        <time>2020-04-08T13:10:00Z</time>
      </trkpt>
      <trkpt lat="67.90588" lon="18.09946">
        <time>2020-04-08T13:20:00Z</time>
      </trkpt>
      <trkpt lat="67.90586" lon="18.0995">
        <time>2020-04-08T13:30:00Z</time>
      </trkpt>
      <trkpt lat="67.90588" lon="18.09959">
        <time>2020-04-08T13:40:00Z</time>
      </trkpt>
      <trkpt lat="67.90589" lon="18.09946">
        <time>2020-04-08T13:40:00Z</time>
      </trkpt>
      <trkpt lat="67.90588" lon="18.09948">
        <time>2020-04-08T13:50:00Z</time>
      </trkpt>
      <trkpt lat="67.90591" lon="18.09942">
        <time>2020-04-09T10:09:00Z</time>
      </trkpt>
      <trkpt lat="67.90591" lon="18.09942">
        <time>2020-04-09T10:09:00Z</time>
      </trkpt>
      <trkpt lat="67.90776" lon="18.10384">
        <time>2020-04-09T10:18:00Z</time>
      </trkpt>
      <trkpt lat="67.91245" lon="18.11491">
        <time>2020-04-09T10:28:00Z</time>
      </trkpt>
      <trkpt lat="67.91334" lon="18.12615">
        <time>2020-04-09T10:38:00Z</time>
      </trkpt>
      <trkpt lat="67.91" lon="18.14349">
        <time>2020-04-09T10:48:00Z</time>
      </trkpt>
      <trkpt lat="67.90746" lon="18.15755">
        <time>2020-04-09T10:58:00Z</time>
      </trkpt>
      <trkpt lat="67.9057" lon="18.17197">
        <time>2020-04-09T11:08:00Z</time>
      </trkpt>
      <trkpt lat="67.90604" lon="18.18493">
        <time>2020-04-09T11:18:00Z</time>
      </trkpt>
      <trkpt lat="67.90655" lon="18.20559">
        <time>2020-04-09T11:28:00Z</time>
      </trkpt>
      <trkpt lat="67.90698" lon="18.21977">
        <time>2020-04-09T11:38:00Z</time>
      </trkpt>
      <trkpt lat="67.90706" lon="18.23735">
        <time>2020-04-09T11:48:00Z</time>
      </trkpt>
      <trkpt lat="67.9077" lon="18.25417">
        <time>2020-04-09T11:58:00Z</time>
      </trkpt>
      <trkpt lat="67.90794" lon="18.25398">
        <time>2020-04-09T12:08:00Z</time>
      </trkpt>
      <trkpt lat="67.9081" lon="18.25389">
        <time>2020-04-09T12:18:00Z</time>
      </trkpt>
      <trkpt lat="67.90781" lon="18.25542">
        <time>2020-04-09T12:27:00Z</time>
      </trkpt>
      <trkpt lat="67.90716" lon="18.26563">
        <time>2020-04-09T12:37:00Z</time>
      </trkpt>
      <trkpt lat="67.90787" lon="18.28271">
        <time>2020-04-09T12:47:00Z</time>
      </trkpt>
      <trkpt lat="67.90894" lon="18.28516">
        <time>2020-04-09T12:57:00Z</time>
      </trkpt>
      <trkpt lat="67.91433" lon="18.28968">
        <time>2020-04-09T13:08:00Z</time>
      </trkpt>
      <trkpt lat="67.91741" lon="18.29284">
        <time>2020-04-09T13:17:00Z</time>
      </trkpt>
      <trkpt lat="67.92076" lon="18.2858">
        <time>2020-04-09T13:27:00Z</time>
      </trkpt>
      <trkpt lat="67.92547" lon="18.28314">
        <time>2020-04-09T13:37:00Z</time>
      </trkpt>
      <trkpt lat="67.92805" lon="18.28406">
        <time>2020-04-09T13:47:00Z</time>
      </trkpt>
      <trkpt lat="67.93183" lon="18.28758">
        <time>2020-04-09T13:57:00Z</time>
      </trkpt>
      <trkpt lat="67.93489" lon="18.28895">
        <time>2020-04-09T14:07:00Z</time>
      </trkpt>
      <trkpt lat="67.93922" lon="18.28801">
        <time>2020-04-09T14:17:00Z</time>
      </trkpt>
      <trkpt lat="67.9441" lon="18.28473">
        <time>2020-04-09T14:27:00Z</time>
      </trkpt>
      <trkpt lat="67.94615" lon="18.28282">
        <time>2020-04-09T14:37:00Z</time>
      </trkpt>
      <trkpt lat="67.94613" lon="18.28284">
        <time>2020-04-09T14:54:00Z</time>
      </trkpt>
      <trkpt lat="67.952" lon="18.28026">
        <time>2020-04-10T09:33:00Z</time>
      </trkpt>
      <trkpt lat="67.94615" lon="18.28279">
        <time>2020-04-10T09:33:00Z</time>
      </trkpt>
    </trkseg>
  </trk>
</gpx>
