<?xml version="1.0" encoding="UTF-8"?>
<gpx xmlns="http://www.topografix.com/GPX/1/1" version="1.1" creator="VitaBandet">
  <metadata>
    <name>Helags→Olden · Evelina Silokangas (storlien)</name>
  </metadata>
  <wpt lat="62.91756" lon="12.50542">
    <name>Helags</name>
  </wpt>
  <wpt lat="63.70786" lon="13.60657">
    <name>Olden</name>
  </wpt>
  <trk>
    <name>Helags→Olden · Evelina Silokangas (storlien)</name>
    <trkseg>
      <trkpt lat="62.91756" lon="12.50542">
        <time>2020-02-17T14:31:00Z</time>
      </trkpt>
      <trkpt lat="62.92188" lon="12.49339">
        <time>2020-02-17T14:41:00Z</time>
      </trkpt>
      <trkpt lat="62.92692" lon="12.48628">
        <time>2020-02-17T14:50:00Z</time>
      </trkpt>
      <trkpt lat="62.93531" lon="12.47693">
        <time>2020-02-17T15:00:00Z</time>
      </trkpt>
      <trkpt lat="62.939" lon="12.47195">
        <time>2020-02-17T15:10:00Z</time>
      </trkpt>
      <trkpt lat="62.94511" lon="12.46191">
        <time>2020-02-17T15:20:00Z</time>
      </trkpt>
      <trkpt lat="62.9498" lon="12.45019">
        <time>2020-02-17T15:30:00Z</time>
      </trkpt>
      <trkpt lat="62.95161" lon="12.44292">
        <time>2020-02-17T15:41:00Z</time>
      </trkpt>
      <trkpt lat="62.95416" lon="12.43071">
        <time>2020-02-17T15:50:00Z</time>
      </trkpt>
      <trkpt lat="62.95545" lon="12.42425">
        <time>2020-02-17T16:00:00Z</time>
      </trkpt>
      <trkpt lat="62.95611" lon="12.42092">
        <time>2020-02-17T16:10:00Z</time>
      </trkpt>
      <trkpt lat="62.95879" lon="12.40762">
        <time>2020-02-17T16:20:00Z</time>
      </trkpt>
      <trkpt lat="62.95907" lon="12.40573">
        <time>2020-02-17T16:30:00Z</time>
      </trkpt>
      <trkpt lat="62.96288" lon="12.39165">
        <time>2020-02-17T16:40:00Z</time>
      </trkpt>
      <trkpt lat="62.96555" lon="12.38483">
        <time>2020-02-17T16:50:00Z</time>
      </trkpt>
      <trkpt lat="62.96954" lon="12.37267">
        <time>2020-02-17T17:00:00Z</time>
      </trkpt>
      <trkpt lat="62.97624" lon="12.36681">
        <time>2020-02-17T17:10:00Z</time>
      </trkpt>
      <trkpt lat="62.98374" lon="12.36181">
        <time>2020-02-17T17:28:00Z</time>
      </trkpt>
      <trkpt lat="62.98391" lon="12.36181">
        <time>2020-02-18T08:46:00Z</time>
      </trkpt>
      <trkpt lat="62.98391" lon="12.36181">
        <time>2020-02-18T08:46:00Z</time>
      </trkpt>
      <trkpt lat="62.98622" lon="12.35664">
        <time>2020-02-18T08:55:00Z</time>
      </trkpt>
      <trkpt lat="62.99257" lon="12.35423">
        <time>2020-02-18T09:05:00Z</time>
      </trkpt>
      <trkpt lat="62.9962" lon="12.34966">
        <time>2020-02-18T09:15:00Z</time>
      </trkpt>
      <trkpt lat="62.99868" lon="12.34565">
        <time>2020-02-18T09:25:00Z</time>
      </trkpt>
      <trkpt lat="63.00064" lon="12.34346">
        <time>2020-02-18T09:35:00Z</time>
      </trkpt>
      <trkpt lat="63.00493" lon="12.33966">
        <time>2020-02-18T09:46:00Z</time>
      </trkpt>
      <trkpt lat="63.00831" lon="12.3357">
        <time>2020-02-18T09:55:00Z</time>
      </trkpt>
      <trkpt lat="63.00968" lon="12.33398">
        <time>2020-02-18T10:05:00Z</time>
      </trkpt>
      <trkpt lat="63.01217" lon="12.32823">
        <time>2020-02-18T10:15:00Z</time>
      </trkpt>
      <trkpt lat="63.01376" lon="12.32284">
        <time>2020-02-18T10:25:00Z</time>
      </trkpt>
      <trkpt lat="63.01568" lon="12.31664">
        <time>2020-02-18T10:36:00Z</time>
      </trkpt>
      <trkpt lat="63.018" lon="12.3114">
        <time>2020-02-18T10:46:00Z</time>
      </trkpt>
      <trkpt lat="63.02112" lon="12.30409">
        <time>2020-02-18T10:55:00Z</time>
      </trkpt>
      <trkpt lat="63.02409" lon="12.29761">
        <time>2020-02-18T11:05:00Z</time>
      </trkpt>
      <trkpt lat="63.025" lon="12.29522">
        <time>2020-02-18T11:15:00Z</time>
      </trkpt>
      <trkpt lat="63.02616" lon="12.28973">
        <time>2020-02-18T11:25:00Z</time>
      </trkpt>
      <trkpt lat="63.02737" lon="12.28428">
        <time>2020-02-18T11:35:00Z</time>
      </trkpt>
      <trkpt lat="63.02778" lon="12.28134">
        <time>2020-02-18T11:45:00Z</time>
      </trkpt>
      <trkpt lat="63.0282" lon="12.27323">
        <time>2020-02-18T11:55:00Z</time>
      </trkpt>
      <trkpt lat="63.03172" lon="12.26195">
        <time>2020-02-18T12:05:00Z</time>
      </trkpt>
      <trkpt lat="63.03769" lon="12.26864">
        <time>2020-02-18T12:15:00Z</time>
      </trkpt>
      <trkpt lat="63.04206" lon="12.27375">
        <time>2020-02-18T12:25:00Z</time>
      </trkpt>
      <trkpt lat="63.04242" lon="12.27435">
        <time>2020-02-18T12:34:00Z</time>
      </trkpt>
      <trkpt lat="63.04245" lon="12.2743">
        <time>2020-02-18T12:44:00Z</time>
      </trkpt>
      <trkpt lat="63.04245" lon="12.2743">
        <time>2020-02-18T12:54:00Z</time>
      </trkpt>
      <trkpt lat="63.04245" lon="12.2743">
        <time>2020-02-18T13:04:00Z</time>
      </trkpt>
      <trkpt lat="63.04305" lon="12.27499">
        <time>2020-02-18T14:09:00Z</time>
      </trkpt>
      <trkpt lat="63.04993" lon="12.27878">
        <time>2020-02-18T14:19:00Z</time>
      </trkpt>
      <trkpt lat="63.05946" lon="12.27784">
        <time>2020-02-18T14:29:00Z</time>
      </trkpt>
      <trkpt lat="63.06365" lon="12.27744">
        <time>2020-02-18T14:38:00Z</time>
      </trkpt>
      <trkpt lat="63.06839" lon="12.28222">
        <time>2020-02-18T14:48:00Z</time>
      </trkpt>
      <trkpt lat="63.07372" lon="12.28804">
        <time>2020-02-18T14:58:00Z</time>
      </trkpt>
      <trkpt lat="63.07605" lon="12.29445">
        <time>2020-02-18T15:09:00Z</time>
      </trkpt>
      <trkpt lat="63.07861" lon="12.29984">
        <time>2020-02-18T15:18:00Z</time>
      </trkpt>
      <trkpt lat="63.0828" lon="12.3052">
        <time>2020-02-18T15:38:00Z</time>
      </trkpt>
      <trkpt lat="63.08799" lon="12.30752">
        <time>2020-02-18T15:48:00Z</time>
      </trkpt>
      <trkpt lat="63.09396" lon="12.31198">
        <time>2020-02-18T15:58:00Z</time>
      </trkpt>
      <trkpt lat="63.09915" lon="12.31619">
        <time>2020-02-18T16:09:00Z</time>
      </trkpt>
      <trkpt lat="63.10468" lon="12.3208">
        <time>2020-02-18T16:18:00Z</time>
      </trkpt>
      <trkpt lat="63.10985" lon="12.32583">
        <time>2020-02-18T16:28:00Z</time>
      </trkpt>
      <trkpt lat="63.11388" lon="12.3266">
        <time>2020-02-18T16:38:00Z</time>
      </trkpt>
      <trkpt lat="63.11791" lon="12.32765">
        <time>2020-02-18T16:48:00Z</time>
      </trkpt>
      <trkpt lat="63.12179" lon="12.33027">
        <time>2020-02-18T16:58:00Z</time>
      </trkpt>
      <trkpt lat="63.12444" lon="12.33281">
        <time>2020-02-18T17:08:00Z</time>
      </trkpt>
      <trkpt lat="63.1271" lon="12.33513">
        <time>2020-02-18T17:18:00Z</time>
      </trkpt>
      <trkpt lat="63.13427" lon="12.33994">
        <time>2020-02-18T17:28:00Z</time>
      </trkpt>
      <trkpt lat="63.14779" lon="12.35026">
        <time>2020-02-18T17:48:00Z</time>
      </trkpt>
      <trkpt lat="63.15376" lon="12.35241">
        <time>2020-02-18T17:58:00Z</time>
      </trkpt>
      <trkpt lat="63.15891" lon="12.3549">
        <time>2020-02-18T18:08:00Z</time>
      </trkpt>
      <trkpt lat="63.16447" lon="12.35601">
        <time>2020-02-18T18:17:00Z</time>
      </trkpt>
      <trkpt lat="63.16936" lon="12.36213">
        <time>2020-02-18T18:27:00Z</time>
      </trkpt>
      <trkpt lat="63.16935" lon="12.36211">
        <time>2020-02-18T18:37:00Z</time>
      </trkpt>
      <trkpt lat="63.16968" lon="12.36286">
        <time>2020-02-18T18:47:00Z</time>
      </trkpt>
      <trkpt lat="63.16979" lon="12.36299">
        <time>2020-02-18T18:49:00Z</time>
      </trkpt>
      <trkpt lat="63.16972" lon="12.36297">
        <time>2020-02-20T09:01:00Z</time>
      </trkpt>
      <trkpt lat="63.16972" lon="12.36297">
        <time>2020-02-20T09:01:00Z</time>
      </trkpt>
      <trkpt lat="63.16776" lon="12.36028">
        <time>2020-02-20T09:10:00Z</time>
      </trkpt>
      <trkpt lat="63.16724" lon="12.35722">
        <time>2020-02-20T09:20:00Z</time>
      </trkpt>
      <trkpt lat="63.16626" lon="12.3526">
        <time>2020-02-20T09:30:00Z</time>
      </trkpt>
      <trkpt lat="63.16565" lon="12.34481">
        <time>2020-02-20T09:40:00Z</time>
      </trkpt>
      <trkpt lat="63.16359" lon="12.337">
        <time>2020-02-20T09:50:00Z</time>
      </trkpt>
      <trkpt lat="63.16155" lon="12.33001">
        <time>2020-02-20T10:00:00Z</time>
      </trkpt>
      <trkpt lat="63.15908" lon="12.32752">
        <time>2020-02-20T10:10:00Z</time>
      </trkpt>
      <trkpt lat="63.15832" lon="12.31836">
        <time>2020-02-20T10:20:00Z</time>
      </trkpt>
      <trkpt lat="63.1584" lon="12.30604">
        <time>2020-02-20T10:29:00Z</time>
      </trkpt>
      <trkpt lat="63.15767" lon="12.29565">
        <time>2020-02-20T10:39:00Z</time>
      </trkpt>
      <trkpt lat="63.15732" lon="12.28771">
        <time>2020-02-20T10:49:00Z</time>
      </trkpt>
      <trkpt lat="63.15694" lon="12.27703">
        <time>2020-02-20T11:00:00Z</time>
      </trkpt>
      <trkpt lat="63.15653" lon="12.26868">
        <time>2020-02-20T11:09:00Z</time>
      </trkpt>
      <trkpt lat="63.15921" lon="12.26207">
        <time>2020-02-20T11:19:00Z</time>
      </trkpt>
      <trkpt lat="63.16055" lon="12.26239">
        <time>2020-02-20T11:29:00Z</time>
      </trkpt>
      <trkpt lat="63.16054" lon="12.26229">
        <time>2020-02-20T11:39:00Z</time>
      </trkpt>
      <trkpt lat="63.16055" lon="12.26231">
        <time>2020-02-20T11:50:00Z</time>
      </trkpt>
      <trkpt lat="63.16055" lon="12.26231">
        <time>2020-02-20T12:00:00Z</time>
      </trkpt>
      <trkpt lat="63.16053" lon="12.26231">
        <time>2020-02-20T12:09:00Z</time>
      </trkpt>
      <trkpt lat="63.16102" lon="12.2631">
        <time>2020-02-20T12:19:00Z</time>
      </trkpt>
      <trkpt lat="63.16412" lon="12.26647">
        <time>2020-02-20T12:29:00Z</time>
      </trkpt>
      <trkpt lat="63.167" lon="12.26759">
        <time>2020-02-20T12:39:00Z</time>
      </trkpt>
      <trkpt lat="63.16838" lon="12.26806">
        <time>2020-02-20T12:49:00Z</time>
      </trkpt>
      <trkpt lat="63.17197" lon="12.27048">
        <time>2020-02-20T13:00:00Z</time>
      </trkpt>
      <trkpt lat="63.17588" lon="12.27293">
        <time>2020-02-20T13:09:00Z</time>
      </trkpt>
      <trkpt lat="63.18106" lon="12.27534">
        <time>2020-02-20T13:19:00Z</time>
      </trkpt>
      <trkpt lat="63.18471" lon="12.27757">
        <time>2020-02-20T13:29:00Z</time>
      </trkpt>
      <trkpt lat="63.18603" lon="12.27879">
        <time>2020-02-20T13:39:00Z</time>
      </trkpt>
      <trkpt lat="63.19147" lon="12.27673">
        <time>2020-02-20T13:49:00Z</time>
      </trkpt>
      <trkpt lat="63.19871" lon="12.26868">
        <time>2020-02-20T13:59:00Z</time>
      </trkpt>
      <trkpt lat="63.20518" lon="12.26357">
        <time>2020-02-20T14:08:00Z</time>
      </trkpt>
      <trkpt lat="63.2091" lon="12.26064">
        <time>2020-02-20T14:18:00Z</time>
      </trkpt>
      <trkpt lat="63.21323" lon="12.25729">
        <time>2020-02-20T14:28:00Z</time>
      </trkpt>
      <trkpt lat="63.21799" lon="12.25274">
        <time>2020-02-20T14:38:00Z</time>
      </trkpt>
      <trkpt lat="63.2248" lon="12.24501">
        <time>2020-02-20T14:48:00Z</time>
      </trkpt>
      <trkpt lat="63.22986" lon="12.23169">
        <time>2020-02-20T14:58:00Z</time>
      </trkpt>
      <trkpt lat="63.23351" lon="12.22053">
        <time>2020-02-20T15:08:00Z</time>
      </trkpt>
      <trkpt lat="63.24095" lon="12.2036">
        <time>2020-02-20T15:18:00Z</time>
      </trkpt>
      <trkpt lat="63.24237" lon="12.20137">
        <time>2020-02-20T15:28:00Z</time>
      </trkpt>
      <trkpt lat="63.24241" lon="12.20137">
        <time>2020-02-20T15:38:00Z</time>
      </trkpt>
      <trkpt lat="63.24222" lon="12.19746">
        <time>2020-02-20T15:48:00Z</time>
      </trkpt>
      <trkpt lat="63.24218" lon="12.1974">
        <time>2020-02-20T15:58:00Z</time>
      </trkpt>
      <trkpt lat="63.24218" lon="12.1974">
        <time>2020-02-20T16:08:00Z</time>
      </trkpt>
      <trkpt lat="63.24222" lon="12.1972">
        <time>2020-02-20T16:17:00Z</time>
      </trkpt>
      <trkpt lat="63.24231" lon="12.19703">
        <time>2020-02-20T16:27:00Z</time>
      </trkpt>
      <trkpt lat="63.24241" lon="12.19695">
        <time>2020-02-20T16:37:00Z</time>
      </trkpt>
      <trkpt lat="63.24241" lon="12.19695">
        <time>2020-02-20T16:47:00Z</time>
      </trkpt>
      <trkpt lat="63.24297" lon="12.19575">
        <time>2020-02-20T16:58:00Z</time>
      </trkpt>
      <trkpt lat="63.24363" lon="12.19409">
        <time>2020-02-20T17:07:00Z</time>
      </trkpt>
      <trkpt lat="63.24632" lon="12.1883">
        <time>2020-02-20T17:17:00Z</time>
      </trkpt>
      <trkpt lat="63.24984" lon="12.18719">
        <time>2020-02-20T17:27:00Z</time>
      </trkpt>
      <trkpt lat="63.25167" lon="12.18094">
        <time>2020-02-20T17:37:00Z</time>
      </trkpt>
      <trkpt lat="63.25172" lon="12.18096">
        <time>2020-02-20T17:40:00Z</time>
      </trkpt>
      <trkpt lat="63.25172" lon="12.18062">
        <time>2020-02-21T09:19:00Z</time>
      </trkpt>
      <trkpt lat="63.25172" lon="12.18062">
        <time>2020-02-21T09:19:00Z</time>
      </trkpt>
      <trkpt lat="63.25519" lon="12.17307">
        <time>2020-02-21T09:28:00Z</time>
      </trkpt>
      <trkpt lat="63.25842" lon="12.16652">
        <time>2020-02-21T09:38:00Z</time>
      </trkpt>
      <trkpt lat="63.26242" lon="12.15624">
        <time>2020-02-21T09:48:00Z</time>
      </trkpt>
      <trkpt lat="63.26484" lon="12.14749">
        <time>2020-02-21T09:58:00Z</time>
      </trkpt>
      <trkpt lat="63.26737" lon="12.13942">
        <time>2020-02-21T10:08:00Z</time>
      </trkpt>
      <trkpt lat="63.27212" lon="12.13217">
        <time>2020-02-21T10:19:00Z</time>
      </trkpt>
      <trkpt lat="63.27353" lon="12.13397">
        <time>2020-02-21T10:28:00Z</time>
      </trkpt>
      <trkpt lat="63.27622" lon="12.14444">
        <time>2020-02-21T10:38:00Z</time>
      </trkpt>
      <trkpt lat="63.281" lon="12.15137">
        <time>2020-02-21T10:48:00Z</time>
      </trkpt>
      <trkpt lat="63.28465" lon="12.15721">
        <time>2020-02-21T10:58:00Z</time>
      </trkpt>
      <trkpt lat="63.28474" lon="12.15755">
        <time>2020-02-21T11:09:00Z</time>
      </trkpt>
      <trkpt lat="63.28689" lon="12.16382">
        <time>2020-02-21T11:19:00Z</time>
      </trkpt>
      <trkpt lat="63.28904" lon="12.168">
        <time>2020-02-21T11:28:00Z</time>
      </trkpt>
      <trkpt lat="63.29221" lon="12.1668">
        <time>2020-02-21T11:38:00Z</time>
      </trkpt>
      <trkpt lat="63.29544" lon="12.15916">
        <time>2020-02-21T11:48:00Z</time>
      </trkpt>
      <trkpt lat="63.29896" lon="12.14903">
        <time>2020-02-21T11:58:00Z</time>
      </trkpt>
      <trkpt lat="63.3013" lon="12.14365">
        <time>2020-02-21T12:08:00Z</time>
      </trkpt>
      <trkpt lat="63.30457" lon="12.13392">
        <time>2020-02-21T12:18:00Z</time>
      </trkpt>
      <trkpt lat="63.30783" lon="12.12431">
        <time>2020-02-21T12:28:00Z</time>
      </trkpt>
      <trkpt lat="63.31115" lon="12.12361">
        <time>2020-02-21T12:38:00Z</time>
      </trkpt>
      <trkpt lat="63.3118" lon="12.1308">
        <time>2020-02-21T12:48:00Z</time>
      </trkpt>
      <trkpt lat="63.3106" lon="12.13097">
        <time>2020-02-21T12:58:00Z</time>
      </trkpt>
      <trkpt lat="63.31056" lon="12.13097">
        <time>2020-02-21T13:08:00Z</time>
      </trkpt>
      <trkpt lat="63.31056" lon="12.1309">
        <time>2020-02-21T13:27:00Z</time>
      </trkpt>
      <trkpt lat="63.31057" lon="12.13092">
        <time>2020-02-21T13:37:00Z</time>
      </trkpt>
      <trkpt lat="63.31056" lon="12.13092">
        <time>2020-02-21T13:47:00Z</time>
      </trkpt>
      <trkpt lat="63.31055" lon="12.13092">
        <time>2020-02-21T13:57:00Z</time>
      </trkpt>
      <trkpt lat="63.31055" lon="12.13092">
        <time>2020-02-21T14:07:00Z</time>
      </trkpt>
      <trkpt lat="63.31056" lon="12.13092">
        <time>2020-02-21T14:17:00Z</time>
      </trkpt>
      <trkpt lat="63.31056" lon="12.13092">
        <time>2020-02-21T14:27:00Z</time>
      </trkpt>
      <trkpt lat="63.31056" lon="12.13097">
        <time>2020-02-21T14:38:00Z</time>
      </trkpt>
      <trkpt lat="63.31056" lon="12.13097">
        <time>2020-02-21T14:48:00Z</time>
      </trkpt>
      <trkpt lat="63.31323" lon="12.13386">
        <time>2020-02-21T14:58:00Z</time>
      </trkpt>
      <trkpt lat="63.31326" lon="12.13386">
        <time>2020-02-21T15:08:00Z</time>
      </trkpt>
      <trkpt lat="63.31331" lon="12.13382">
        <time>2020-02-21T15:18:00Z</time>
      </trkpt>
      <trkpt lat="63.31332" lon="12.13382">
        <time>2020-02-21T15:28:00Z</time>
      </trkpt>
      <trkpt lat="63.31336" lon="12.13373">
        <time>2020-02-21T16:05:00Z</time>
      </trkpt>
      <trkpt lat="63.31334" lon="12.13376">
        <time>2020-02-21T16:23:00Z</time>
      </trkpt>
      <trkpt lat="63.31336" lon="12.13378">
        <time>2020-02-21T18:22:00Z</time>
      </trkpt>
      <trkpt lat="63.31336" lon="12.13373">
        <time>2020-02-21T18:32:00Z</time>
      </trkpt>
      <trkpt lat="63.31336" lon="12.13371">
        <time>2020-02-23T08:31:00Z</time>
      </trkpt>
      <trkpt lat="63.31336" lon="12.13371">
        <time>2020-02-23T08:40:00Z</time>
      </trkpt>
      <trkpt lat="63.31293" lon="12.13391">
        <time>2020-02-23T08:40:00Z</time>
      </trkpt>
      <trkpt lat="63.31132" lon="12.12674">
        <time>2020-02-23T08:50:00Z</time>
      </trkpt>
      <trkpt lat="63.31138" lon="12.12219">
        <time>2020-02-23T09:00:00Z</time>
      </trkpt>
      <trkpt lat="63.3133" lon="12.12157">
        <time>2020-02-23T09:10:00Z</time>
      </trkpt>
      <trkpt lat="63.31498" lon="12.12071">
        <time>2020-02-23T09:20:00Z</time>
      </trkpt>
      <trkpt lat="63.31719" lon="12.11891">
        <time>2020-02-23T09:31:00Z</time>
      </trkpt>
      <trkpt lat="63.32016" lon="12.11809">
        <time>2020-02-23T09:40:00Z</time>
      </trkpt>
      <trkpt lat="63.32179" lon="12.11833">
        <time>2020-02-23T09:50:00Z</time>
      </trkpt>
      <trkpt lat="63.32285" lon="12.11891">
        <time>2020-02-23T10:00:00Z</time>
      </trkpt>
      <trkpt lat="63.32728" lon="12.12389">
        <time>2020-02-23T10:10:00Z</time>
      </trkpt>
      <trkpt lat="63.33231" lon="12.13054">
        <time>2020-02-23T10:20:00Z</time>
      </trkpt>
      <trkpt lat="63.33616" lon="12.1353">
        <time>2020-02-23T10:30:00Z</time>
      </trkpt>
      <trkpt lat="63.3382" lon="12.13721">
        <time>2020-02-23T10:40:00Z</time>
      </trkpt>
      <trkpt lat="63.34274" lon="12.14121">
        <time>2020-02-23T10:50:00Z</time>
      </trkpt>
      <trkpt lat="63.34549" lon="12.14378">
        <time>2020-02-23T11:00:00Z</time>
      </trkpt>
      <trkpt lat="63.34828" lon="12.14551">
        <time>2020-02-23T11:10:00Z</time>
      </trkpt>
      <trkpt lat="63.34998" lon="12.14382">
        <time>2020-02-23T11:19:00Z</time>
      </trkpt>
      <trkpt lat="63.34998" lon="12.1438">
        <time>2020-02-23T11:30:00Z</time>
      </trkpt>
      <trkpt lat="63.35002" lon="12.14384">
        <time>2020-02-23T11:39:00Z</time>
      </trkpt>
      <trkpt lat="63.35002" lon="12.14384">
        <time>2020-02-23T11:49:00Z</time>
      </trkpt>
      <trkpt lat="63.35002" lon="12.14384">
        <time>2020-02-23T11:59:00Z</time>
      </trkpt>
      <trkpt lat="63.35" lon="12.14382">
        <time>2020-02-23T12:09:00Z</time>
      </trkpt>
      <trkpt lat="63.35017" lon="12.14562">
        <time>2020-02-23T12:19:00Z</time>
      </trkpt>
      <trkpt lat="63.35428" lon="12.1583">
        <time>2020-02-23T12:29:00Z</time>
      </trkpt>
      <trkpt lat="63.35556" lon="12.1745">
        <time>2020-02-23T12:39:00Z</time>
      </trkpt>
      <trkpt lat="63.35679" lon="12.18341">
        <time>2020-02-23T12:49:00Z</time>
      </trkpt>
      <trkpt lat="63.35782" lon="12.19062">
        <time>2020-02-23T12:59:00Z</time>
      </trkpt>
      <trkpt lat="63.35614" lon="12.20377">
        <time>2020-02-23T13:09:00Z</time>
      </trkpt>
      <trkpt lat="63.35316" lon="12.21976">
        <time>2020-02-23T13:19:00Z</time>
      </trkpt>
      <trkpt lat="63.35289" lon="12.23392">
        <time>2020-02-23T13:29:00Z</time>
      </trkpt>
      <trkpt lat="63.35428" lon="12.24622">
        <time>2020-02-23T13:39:00Z</time>
      </trkpt>
      <trkpt lat="63.35476" lon="12.26059">
        <time>2020-02-23T13:49:00Z</time>
      </trkpt>
      <trkpt lat="63.35855" lon="12.27802">
        <time>2020-02-23T13:59:00Z</time>
      </trkpt>
      <trkpt lat="63.36131" lon="12.27847">
        <time>2020-02-23T14:08:00Z</time>
      </trkpt>
      <trkpt lat="63.36523" lon="12.27366">
        <time>2020-02-23T14:18:00Z</time>
      </trkpt>
      <trkpt lat="63.37015" lon="12.276">
        <time>2020-02-23T14:29:00Z</time>
      </trkpt>
      <trkpt lat="63.37463" lon="12.2772">
        <time>2020-02-23T14:38:00Z</time>
      </trkpt>
      <trkpt lat="63.37954" lon="12.27488">
        <time>2020-02-23T14:48:00Z</time>
      </trkpt>
      <trkpt lat="63.38339" lon="12.26922">
        <time>2020-02-23T14:58:00Z</time>
      </trkpt>
      <trkpt lat="63.38671" lon="12.26422">
        <time>2020-02-23T15:08:00Z</time>
      </trkpt>
      <trkpt lat="63.38975" lon="12.25926">
        <time>2020-02-23T15:18:00Z</time>
      </trkpt>
      <trkpt lat="63.39361" lon="12.25293">
        <time>2020-02-23T15:28:00Z</time>
      </trkpt>
      <trkpt lat="63.39514" lon="12.25038">
        <time>2020-02-23T15:38:00Z</time>
      </trkpt>
      <trkpt lat="63.39627" lon="12.24853">
        <time>2020-02-23T15:48:00Z</time>
      </trkpt>
      <trkpt lat="63.39931" lon="12.24349">
        <time>2020-02-23T15:58:00Z</time>
      </trkpt>
      <trkpt lat="63.40239" lon="12.23836">
        <time>2020-02-23T16:08:00Z</time>
      </trkpt>
      <trkpt lat="63.40441" lon="12.23506">
        <time>2020-02-23T16:18:00Z</time>
      </trkpt>
      <trkpt lat="63.40953" lon="12.23227">
        <time>2020-02-23T16:29:00Z</time>
      </trkpt>
      <trkpt lat="63.41257" lon="12.23124">
        <time>2020-02-23T16:38:00Z</time>
      </trkpt>
      <trkpt lat="63.41548" lon="12.22735">
        <time>2020-02-23T16:48:00Z</time>
      </trkpt>
      <trkpt lat="63.41809" lon="12.22495">
        <time>2020-02-23T16:58:00Z</time>
      </trkpt>
      <trkpt lat="63.41842" lon="12.22493">
        <time>2020-02-23T17:08:00Z</time>
      </trkpt>
      <trkpt lat="63.42159" lon="12.22051">
        <time>2020-02-23T17:18:00Z</time>
      </trkpt>
      <trkpt lat="63.42193" lon="12.21976">
        <time>2020-02-23T17:21:00Z</time>
      </trkpt>
      <trkpt lat="63.42193" lon="12.21974">
        <time>2020-02-23T17:28:00Z</time>
      </trkpt>
      <trkpt lat="63.42192" lon="12.21974">
        <time>2020-02-23T17:38:00Z</time>
      </trkpt>
      <trkpt lat="63.42192" lon="12.21972">
        <time>2020-02-23T17:48:00Z</time>
      </trkpt>
      <trkpt lat="63.42193" lon="12.21974">
        <time>2020-02-23T17:57:00Z</time>
      </trkpt>
      <trkpt lat="63.42194" lon="12.2198">
        <time>2020-02-23T18:15:00Z</time>
      </trkpt>
      <trkpt lat="63.42192" lon="12.21982">
        <time>2020-02-23T18:25:00Z</time>
      </trkpt>
      <trkpt lat="63.422" lon="12.21959">
        <time>2020-02-24T09:14:00Z</time>
      </trkpt>
      <trkpt lat="63.422" lon="12.21959">
        <time>2020-02-24T09:14:00Z</time>
      </trkpt>
      <trkpt lat="63.42381" lon="12.21847">
        <time>2020-02-24T09:24:00Z</time>
      </trkpt>
      <trkpt lat="63.42691" lon="12.21626">
        <time>2020-02-24T09:34:00Z</time>
      </trkpt>
      <trkpt lat="63.4285" lon="12.21926">
        <time>2020-02-24T09:44:00Z</time>
      </trkpt>
      <trkpt lat="63.43054" lon="12.221">
        <time>2020-02-24T09:54:00Z</time>
      </trkpt>
      <trkpt lat="63.43195" lon="12.22467">
        <time>2020-02-24T10:03:00Z</time>
      </trkpt>
      <trkpt lat="63.43308" lon="12.22815">
        <time>2020-02-24T10:13:00Z</time>
      </trkpt>
      <trkpt lat="63.43467" lon="12.23321">
        <time>2020-02-24T10:24:00Z</time>
      </trkpt>
      <trkpt lat="63.43872" lon="12.23847">
        <time>2020-02-24T10:33:00Z</time>
      </trkpt>
      <trkpt lat="63.44269" lon="12.23922">
        <time>2020-02-24T10:43:00Z</time>
      </trkpt>
      <trkpt lat="63.4465" lon="12.23984">
        <time>2020-02-24T10:53:00Z</time>
      </trkpt>
      <trkpt lat="63.44903" lon="12.24044">
        <time>2020-02-24T11:03:00Z</time>
      </trkpt>
      <trkpt lat="63.45434" lon="12.24122">
        <time>2020-02-24T11:13:00Z</time>
      </trkpt>
      <trkpt lat="63.45872" lon="12.24171">
        <time>2020-02-24T11:23:00Z</time>
      </trkpt>
      <trkpt lat="63.4625" lon="12.24207">
        <time>2020-02-24T11:33:00Z</time>
      </trkpt>
      <trkpt lat="63.46679" lon="12.2425">
        <time>2020-02-24T11:43:00Z</time>
      </trkpt>
      <trkpt lat="63.46835" lon="12.24295">
        <time>2020-02-24T11:53:00Z</time>
      </trkpt>
      <trkpt lat="63.46831" lon="12.24291">
        <time>2020-02-24T12:13:00Z</time>
      </trkpt>
      <trkpt lat="63.4694" lon="12.24353">
        <time>2020-02-24T12:22:00Z</time>
      </trkpt>
      <trkpt lat="63.47658" lon="12.24823">
        <time>2020-02-24T12:32:00Z</time>
      </trkpt>
      <trkpt lat="63.47928" lon="12.24939">
        <time>2020-02-24T12:42:00Z</time>
      </trkpt>
      <trkpt lat="63.48494" lon="12.24993">
        <time>2020-02-24T12:52:00Z</time>
      </trkpt>
      <trkpt lat="63.48806" lon="12.24817">
        <time>2020-02-24T13:02:00Z</time>
      </trkpt>
      <trkpt lat="63.49417" lon="12.24339">
        <time>2020-02-24T13:22:00Z</time>
      </trkpt>
      <trkpt lat="63.49949" lon="12.23716">
        <time>2020-02-24T13:32:00Z</time>
      </trkpt>
      <trkpt lat="63.50146" lon="12.23429">
        <time>2020-02-24T13:42:00Z</time>
      </trkpt>
      <trkpt lat="63.50516" lon="12.23549">
        <time>2020-02-24T13:52:00Z</time>
      </trkpt>
      <trkpt lat="63.51228" lon="12.24047">
        <time>2020-02-24T14:02:00Z</time>
      </trkpt>
      <trkpt lat="63.51564" lon="12.24144">
        <time>2020-02-24T14:12:00Z</time>
      </trkpt>
      <trkpt lat="63.52088" lon="12.24401">
        <time>2020-02-24T14:22:00Z</time>
      </trkpt>
      <trkpt lat="63.52585" lon="12.24602">
        <time>2020-02-24T14:31:00Z</time>
      </trkpt>
      <trkpt lat="63.52928" lon="12.24748">
        <time>2020-02-24T14:41:00Z</time>
      </trkpt>
      <trkpt lat="63.53293" lon="12.25012">
        <time>2020-02-24T14:51:00Z</time>
      </trkpt>
      <trkpt lat="63.53728" lon="12.25774">
        <time>2020-02-24T15:02:00Z</time>
      </trkpt>
      <trkpt lat="63.54397" lon="12.26006">
        <time>2020-02-24T15:12:00Z</time>
      </trkpt>
      <trkpt lat="63.54996" lon="12.26235">
        <time>2020-02-24T15:21:00Z</time>
      </trkpt>
      <trkpt lat="63.55096" lon="12.26293">
        <time>2020-02-24T15:31:00Z</time>
      </trkpt>
      <trkpt lat="63.55096" lon="12.26295">
        <time>2020-02-24T15:41:00Z</time>
      </trkpt>
      <trkpt lat="63.55105" lon="12.26295">
        <time>2020-02-24T15:51:00Z</time>
      </trkpt>
      <trkpt lat="63.55588" lon="12.26576">
        <time>2020-02-24T16:01:00Z</time>
      </trkpt>
      <trkpt lat="63.5592" lon="12.26812">
        <time>2020-02-24T16:12:00Z</time>
      </trkpt>
      <trkpt lat="63.56141" lon="12.26866">
        <time>2020-02-24T16:21:00Z</time>
      </trkpt>
      <trkpt lat="63.56543" lon="12.26903">
        <time>2020-02-24T16:31:00Z</time>
      </trkpt>
      <trkpt lat="63.57097" lon="12.27263">
        <time>2020-02-24T16:41:00Z</time>
      </trkpt>
      <trkpt lat="63.57499" lon="12.27508">
        <time>2020-02-24T16:51:00Z</time>
      </trkpt>
      <trkpt lat="63.57761" lon="12.2752">
        <time>2020-02-24T17:00:00Z</time>
      </trkpt>
      <trkpt lat="63.58163" lon="12.27257">
        <time>2020-02-24T17:11:00Z</time>
      </trkpt>
      <trkpt lat="63.58604" lon="12.27319">
        <time>2020-02-24T17:20:00Z</time>
      </trkpt>
      <trkpt lat="63.58844" lon="12.27671">
        <time>2020-02-24T17:30:00Z</time>
      </trkpt>
      <trkpt lat="63.58998" lon="12.28377">
        <time>2020-02-24T17:40:00Z</time>
      </trkpt>
      <trkpt lat="63.58964" lon="12.28864">
        <time>2020-02-24T17:50:00Z</time>
      </trkpt>
      <trkpt lat="63.58967" lon="12.28853">
        <time>2020-02-25T09:25:00Z</time>
      </trkpt>
      <trkpt lat="63.58967" lon="12.28853">
        <time>2020-02-25T09:25:00Z</time>
      </trkpt>
      <trkpt lat="63.59003" lon="12.29044">
        <time>2020-02-25T09:34:00Z</time>
      </trkpt>
      <trkpt lat="63.59123" lon="12.30398">
        <time>2020-02-25T09:44:00Z</time>
      </trkpt>
      <trkpt lat="63.5921" lon="12.31157">
        <time>2020-02-25T09:54:00Z</time>
      </trkpt>
      <trkpt lat="63.59298" lon="12.31836">
        <time>2020-02-25T10:04:00Z</time>
      </trkpt>
      <trkpt lat="63.59529" lon="12.32494">
        <time>2020-02-25T10:14:00Z</time>
      </trkpt>
      <trkpt lat="63.59835" lon="12.3328">
        <time>2020-02-25T10:25:00Z</time>
      </trkpt>
      <trkpt lat="63.60072" lon="12.33754">
        <time>2020-02-25T10:34:00Z</time>
      </trkpt>
      <trkpt lat="63.60091" lon="12.3381">
        <time>2020-02-25T10:44:00Z</time>
      </trkpt>
      <trkpt lat="63.60225" lon="12.3499">
        <time>2020-02-25T10:54:00Z</time>
      </trkpt>
      <trkpt lat="63.60467" lon="12.36614">
        <time>2020-02-25T11:04:00Z</time>
      </trkpt>
      <trkpt lat="63.60584" lon="12.37756">
        <time>2020-02-25T11:14:00Z</time>
      </trkpt>
      <trkpt lat="63.60623" lon="12.38799">
        <time>2020-02-25T11:24:00Z</time>
      </trkpt>
      <trkpt lat="63.60624" lon="12.38803">
        <time>2020-02-25T11:34:00Z</time>
      </trkpt>
      <trkpt lat="63.60891" lon="12.39015">
        <time>2020-02-25T11:47:00Z</time>
      </trkpt>
      <trkpt lat="63.61457" lon="12.3985">
        <time>2020-02-25T11:57:00Z</time>
      </trkpt>
      <trkpt lat="63.61591" lon="12.40286">
        <time>2020-02-25T12:07:00Z</time>
      </trkpt>
      <trkpt lat="63.61592" lon="12.40283">
        <time>2020-02-25T12:17:00Z</time>
      </trkpt>
      <trkpt lat="63.61591" lon="12.40283">
        <time>2020-02-25T12:27:00Z</time>
      </trkpt>
      <trkpt lat="63.61901" lon="12.41659">
        <time>2020-02-25T12:36:00Z</time>
      </trkpt>
      <trkpt lat="63.62379" lon="12.43122">
        <time>2020-02-25T12:46:00Z</time>
      </trkpt>
      <trkpt lat="63.62655" lon="12.44549">
        <time>2020-02-25T12:56:00Z</time>
      </trkpt>
      <trkpt lat="63.62543" lon="12.45963">
        <time>2020-02-25T13:06:00Z</time>
      </trkpt>
      <trkpt lat="63.6265" lon="12.47448">
        <time>2020-02-25T13:16:00Z</time>
      </trkpt>
      <trkpt lat="63.62853" lon="12.4862">
        <time>2020-02-25T13:27:00Z</time>
      </trkpt>
      <trkpt lat="63.63288" lon="12.49915">
        <time>2020-02-25T13:46:00Z</time>
      </trkpt>
      <trkpt lat="63.63845" lon="12.50392">
        <time>2020-02-25T13:56:00Z</time>
      </trkpt>
      <trkpt lat="63.64022" lon="12.50688">
        <time>2020-02-25T14:06:00Z</time>
      </trkpt>
      <trkpt lat="63.6435" lon="12.50377">
        <time>2020-02-25T14:16:00Z</time>
      </trkpt>
      <trkpt lat="63.64719" lon="12.50969">
        <time>2020-02-25T14:26:00Z</time>
      </trkpt>
      <trkpt lat="63.6523" lon="12.51439">
        <time>2020-02-25T14:36:00Z</time>
      </trkpt>
      <trkpt lat="63.65813" lon="12.51997">
        <time>2020-02-25T14:46:00Z</time>
      </trkpt>
      <trkpt lat="63.66322" lon="12.52939">
        <time>2020-02-25T14:56:00Z</time>
      </trkpt>
      <trkpt lat="63.66414" lon="12.5304">
        <time>2020-02-25T15:06:00Z</time>
      </trkpt>
      <trkpt lat="63.66734" lon="12.53289">
        <time>2020-02-25T15:16:00Z</time>
      </trkpt>
      <trkpt lat="63.67133" lon="12.53795">
        <time>2020-02-25T15:26:00Z</time>
      </trkpt>
      <trkpt lat="63.67596" lon="12.54497">
        <time>2020-02-25T15:36:00Z</time>
      </trkpt>
      <trkpt lat="63.67928" lon="12.54973">
        <time>2020-02-25T15:46:00Z</time>
      </trkpt>
      <trkpt lat="63.68237" lon="12.55564">
        <time>2020-02-25T15:56:00Z</time>
      </trkpt>
      <trkpt lat="63.6849" lon="12.5645">
        <time>2020-02-25T16:06:00Z</time>
      </trkpt>
      <trkpt lat="63.69056" lon="12.56104">
        <time>2020-02-25T16:16:00Z</time>
      </trkpt>
      <trkpt lat="63.69378" lon="12.56894">
        <time>2020-02-25T16:26:00Z</time>
      </trkpt>
      <trkpt lat="63.69709" lon="12.57479">
        <time>2020-02-25T16:35:00Z</time>
      </trkpt>
      <trkpt lat="63.69855" lon="12.58415">
        <time>2020-02-25T16:45:00Z</time>
      </trkpt>
      <trkpt lat="63.69867" lon="12.58505">
        <time>2020-02-25T16:55:00Z</time>
      </trkpt>
      <trkpt lat="63.69956" lon="12.59265">
        <time>2020-02-25T17:05:00Z</time>
      </trkpt>
      <trkpt lat="63.7007" lon="12.60443">
        <time>2020-02-25T17:15:00Z</time>
      </trkpt>
      <trkpt lat="63.70212" lon="12.61516">
        <time>2020-02-25T17:25:00Z</time>
      </trkpt>
      <trkpt lat="63.70491" lon="12.6226">
        <time>2020-02-25T17:35:00Z</time>
      </trkpt>
      <trkpt lat="63.70779" lon="12.6278">
        <time>2020-02-25T17:45:00Z</time>
      </trkpt>
      <trkpt lat="63.71117" lon="12.62756">
        <time>2020-02-25T17:55:00Z</time>
      </trkpt>
      <trkpt lat="63.71127" lon="12.62932">
        <time>2020-02-25T18:05:00Z</time>
      </trkpt>
      <trkpt lat="63.7114" lon="12.62949">
        <time>2020-02-25T18:15:00Z</time>
      </trkpt>
      <trkpt lat="63.71139" lon="12.62932">
        <time>2020-02-25T18:25:00Z</time>
      </trkpt>
      <trkpt lat="63.71133" lon="12.62928">
        <time>2020-02-25T18:30:00Z</time>
      </trkpt>
      <trkpt lat="63.7113" lon="12.62915">
        <time>2020-02-26T09:23:00Z</time>
      </trkpt>
      <trkpt lat="63.7113" lon="12.62915">
        <time>2020-02-26T09:23:00Z</time>
      </trkpt>
      <trkpt lat="63.71055" lon="12.63501">
        <time>2020-02-26T09:32:00Z</time>
      </trkpt>
      <trkpt lat="63.70656" lon="12.64891">
        <time>2020-02-26T09:42:00Z</time>
      </trkpt>
      <trkpt lat="63.70416" lon="12.66033">
        <time>2020-02-26T09:52:00Z</time>
      </trkpt>
      <trkpt lat="63.70333" lon="12.67086">
        <time>2020-02-26T10:02:00Z</time>
      </trkpt>
      <trkpt lat="63.70305" lon="12.67769">
        <time>2020-02-26T10:12:00Z</time>
      </trkpt>
      <trkpt lat="63.70305" lon="12.69134">
        <time>2020-02-26T10:22:00Z</time>
      </trkpt>
      <trkpt lat="63.70292" lon="12.70095">
        <time>2020-02-26T10:32:00Z</time>
      </trkpt>
      <trkpt lat="63.70265" lon="12.705">
        <time>2020-02-26T10:42:00Z</time>
      </trkpt>
      <trkpt lat="63.7035" lon="12.71412">
        <time>2020-02-26T10:52:00Z</time>
      </trkpt>
      <trkpt lat="63.70488" lon="12.72942">
        <time>2020-02-26T11:02:00Z</time>
      </trkpt>
      <trkpt lat="63.706" lon="12.74101">
        <time>2020-02-26T11:12:00Z</time>
      </trkpt>
      <trkpt lat="63.70454" lon="12.75277">
        <time>2020-02-26T11:22:00Z</time>
      </trkpt>
      <trkpt lat="63.70164" lon="12.76875">
        <time>2020-02-26T11:41:00Z</time>
      </trkpt>
      <trkpt lat="63.70164" lon="12.76884">
        <time>2020-02-26T11:51:00Z</time>
      </trkpt>
      <trkpt lat="63.70215" lon="12.76987">
        <time>2020-02-26T12:01:00Z</time>
      </trkpt>
      <trkpt lat="63.70219" lon="12.76991">
        <time>2020-02-26T12:11:00Z</time>
      </trkpt>
      <trkpt lat="63.70212" lon="12.76995">
        <time>2020-02-26T12:22:00Z</time>
      </trkpt>
      <trkpt lat="63.70222" lon="12.76993">
        <time>2020-02-26T12:31:00Z</time>
      </trkpt>
      <trkpt lat="63.70243" lon="12.77113">
        <time>2020-02-26T12:41:00Z</time>
      </trkpt>
      <trkpt lat="63.70224" lon="12.77543">
        <time>2020-02-26T12:51:00Z</time>
      </trkpt>
      <trkpt lat="63.70237" lon="12.77858">
        <time>2020-02-26T13:01:00Z</time>
      </trkpt>
      <trkpt lat="63.70235" lon="12.7853">
        <time>2020-02-26T13:21:00Z</time>
      </trkpt>
      <trkpt lat="63.70345" lon="12.78768">
        <time>2020-02-26T13:31:00Z</time>
      </trkpt>
      <trkpt lat="63.70621" lon="12.79346">
        <time>2020-02-26T13:50:00Z</time>
      </trkpt>
      <trkpt lat="63.70818" lon="12.79629">
        <time>2020-02-26T14:00:00Z</time>
      </trkpt>
      <trkpt lat="63.70882" lon="12.79972">
        <time>2020-02-26T14:10:00Z</time>
      </trkpt>
      <trkpt lat="63.71038" lon="12.80233">
        <time>2020-02-26T14:20:00Z</time>
      </trkpt>
      <trkpt lat="63.71484" lon="12.8104">
        <time>2020-02-26T14:30:00Z</time>
      </trkpt>
      <trkpt lat="63.71757" lon="12.81682">
        <time>2020-02-26T14:40:00Z</time>
      </trkpt>
      <trkpt lat="63.71933" lon="12.823">
        <time>2020-02-26T14:50:00Z</time>
      </trkpt>
      <trkpt lat="63.71905" lon="12.83027">
        <time>2020-02-26T15:00:00Z</time>
      </trkpt>
      <trkpt lat="63.71914" lon="12.83593">
        <time>2020-02-26T15:10:00Z</time>
      </trkpt>
      <trkpt lat="63.7206" lon="12.84117">
        <time>2020-02-26T15:20:00Z</time>
      </trkpt>
      <trkpt lat="63.72275" lon="12.84716">
        <time>2020-02-26T15:30:00Z</time>
      </trkpt>
      <trkpt lat="63.72365" lon="12.85368">
        <time>2020-02-26T15:40:00Z</time>
      </trkpt>
      <trkpt lat="63.72519" lon="12.85823">
        <time>2020-02-26T15:50:00Z</time>
      </trkpt>
      <trkpt lat="63.72532" lon="12.86143">
        <time>2020-02-26T16:00:00Z</time>
      </trkpt>
      <trkpt lat="63.72514" lon="12.86222">
        <time>2020-02-26T16:10:00Z</time>
      </trkpt>
      <trkpt lat="63.72509" lon="12.86224">
        <time>2020-02-26T16:20:00Z</time>
      </trkpt>
      <trkpt lat="63.72562" lon="12.87402">
        <time>2020-02-26T16:39:00Z</time>
      </trkpt>
      <trkpt lat="63.726" lon="12.87857">
        <time>2020-02-26T16:49:00Z</time>
      </trkpt>
      <trkpt lat="63.7285" lon="12.87934">
        <time>2020-02-26T16:59:00Z</time>
      </trkpt>
      <trkpt lat="63.72974" lon="12.8813">
        <time>2020-02-26T17:09:00Z</time>
      </trkpt>
      <trkpt lat="63.73279" lon="12.88355">
        <time>2020-02-26T17:19:00Z</time>
      </trkpt>
      <trkpt lat="63.73777" lon="12.89205">
        <time>2020-02-26T17:29:00Z</time>
      </trkpt>
      <trkpt lat="63.74472" lon="12.91147">
        <time>2020-02-26T17:39:00Z</time>
      </trkpt>
      <trkpt lat="63.74588" lon="12.91954">
        <time>2020-02-26T17:49:00Z</time>
      </trkpt>
      <trkpt lat="63.74864" lon="12.93099">
        <time>2020-02-26T17:59:00Z</time>
      </trkpt>
      <trkpt lat="63.75139" lon="12.94232">
        <time>2020-02-26T18:09:00Z</time>
      </trkpt>
      <trkpt lat="63.7507" lon="12.95181">
        <time>2020-02-26T18:19:00Z</time>
      </trkpt>
      <trkpt lat="63.75061" lon="12.95378">
        <time>2020-02-26T18:29:00Z</time>
      </trkpt>
      <trkpt lat="63.75267" lon="12.95567">
        <time>2020-02-26T18:39:00Z</time>
      </trkpt>
      <trkpt lat="63.75077" lon="12.95913">
        <time>2020-02-26T18:48:00Z</time>
      </trkpt>
      <trkpt lat="63.7506" lon="12.95994">
        <time>2020-02-26T19:05:00Z</time>
      </trkpt>
      <trkpt lat="63.75092" lon="12.96041">
        <time>2020-02-27T14:02:00Z</time>
      </trkpt>
      <trkpt lat="63.74926" lon="12.96262">
        <time>2020-02-27T14:11:00Z</time>
      </trkpt>
      <trkpt lat="63.7448" lon="12.97919">
        <time>2020-02-27T14:21:00Z</time>
      </trkpt>
      <trkpt lat="63.74308" lon="12.99112">
        <time>2020-02-27T14:31:00Z</time>
      </trkpt>
      <trkpt lat="63.74216" lon="12.99757">
        <time>2020-02-27T14:42:00Z</time>
      </trkpt>
      <trkpt lat="63.73976" lon="13.01099">
        <time>2020-02-27T14:51:00Z</time>
      </trkpt>
      <trkpt lat="63.73813" lon="13.01835">
        <time>2020-02-27T15:02:00Z</time>
      </trkpt>
      <trkpt lat="63.73827" lon="13.03167">
        <time>2020-02-27T15:11:00Z</time>
      </trkpt>
      <trkpt lat="63.73885" lon="13.04712">
        <time>2020-02-27T15:21:00Z</time>
      </trkpt>
      <trkpt lat="63.73437" lon="13.06032">
        <time>2020-02-27T15:31:00Z</time>
      </trkpt>
      <trkpt lat="63.73787" lon="13.07412">
        <time>2020-02-27T15:41:00Z</time>
      </trkpt>
      <trkpt lat="63.7417" lon="13.07875">
        <time>2020-02-27T15:51:00Z</time>
      </trkpt>
      <trkpt lat="63.74567" lon="13.08444">
        <time>2020-02-27T16:01:00Z</time>
      </trkpt>
      <trkpt lat="63.74187" lon="13.09502">
        <time>2020-02-27T16:11:00Z</time>
      </trkpt>
      <trkpt lat="63.73809" lon="13.103">
        <time>2020-02-27T16:21:00Z</time>
      </trkpt>
      <trkpt lat="63.73474" lon="13.1169">
        <time>2020-02-27T16:31:00Z</time>
      </trkpt>
      <trkpt lat="63.73021" lon="13.13529">
        <time>2020-02-27T16:41:00Z</time>
      </trkpt>
      <trkpt lat="63.72897" lon="13.14928">
        <time>2020-02-27T16:51:00Z</time>
      </trkpt>
      <trkpt lat="63.73024" lon="13.1573">
        <time>2020-02-27T17:01:00Z</time>
      </trkpt>
      <trkpt lat="63.73144" lon="13.17447">
        <time>2020-02-27T17:11:00Z</time>
      </trkpt>
      <trkpt lat="63.73094" lon="13.19147">
        <time>2020-02-27T17:21:00Z</time>
      </trkpt>
      <trkpt lat="63.72755" lon="13.20591">
        <time>2020-02-27T17:30:00Z</time>
      </trkpt>
      <trkpt lat="63.72512" lon="13.21134">
        <time>2020-02-27T17:46:00Z</time>
      </trkpt>
      <trkpt lat="63.72523" lon="13.21173">
        <time>2020-02-28T09:06:00Z</time>
      </trkpt>
      <trkpt lat="63.72477" lon="13.21496">
        <time>2020-02-28T09:16:00Z</time>
      </trkpt>
      <trkpt lat="63.72523" lon="13.21173">
        <time>2020-02-28T09:20:00Z</time>
      </trkpt>
      <trkpt lat="63.72723" lon="13.22872">
        <time>2020-02-28T09:26:00Z</time>
      </trkpt>
      <trkpt lat="63.73183" lon="13.23215">
        <time>2020-02-28T09:36:00Z</time>
      </trkpt>
      <trkpt lat="63.73216" lon="13.24074">
        <time>2020-02-28T09:46:00Z</time>
      </trkpt>
      <trkpt lat="63.73212" lon="13.24383">
        <time>2020-02-28T09:56:00Z</time>
      </trkpt>
      <trkpt lat="63.72914" lon="13.25881">
        <time>2020-02-28T10:06:00Z</time>
      </trkpt>
      <trkpt lat="63.72575" lon="13.27065">
        <time>2020-02-28T10:16:00Z</time>
      </trkpt>
      <trkpt lat="63.71995" lon="13.26775">
        <time>2020-02-28T10:26:00Z</time>
      </trkpt>
      <trkpt lat="63.71356" lon="13.27631">
        <time>2020-02-28T10:36:00Z</time>
      </trkpt>
      <trkpt lat="63.71038" lon="13.27882">
        <time>2020-02-28T10:46:00Z</time>
      </trkpt>
      <trkpt lat="63.7095" lon="13.28803">
        <time>2020-02-28T10:56:00Z</time>
      </trkpt>
      <trkpt lat="63.70572" lon="13.30223">
        <time>2020-02-28T11:06:00Z</time>
      </trkpt>
      <trkpt lat="63.70919" lon="13.31599">
        <time>2020-02-28T11:15:00Z</time>
      </trkpt>
      <trkpt lat="63.71538" lon="13.32643">
        <time>2020-02-28T11:25:00Z</time>
      </trkpt>
      <trkpt lat="63.7195" lon="13.32918">
        <time>2020-02-28T11:35:00Z</time>
      </trkpt>
      <trkpt lat="63.72429" lon="13.33657">
        <time>2020-02-28T11:45:00Z</time>
      </trkpt>
      <trkpt lat="63.72448" lon="13.34794">
        <time>2020-02-28T11:55:00Z</time>
      </trkpt>
      <trkpt lat="63.72444" lon="13.34794">
        <time>2020-02-28T12:05:00Z</time>
      </trkpt>
      <trkpt lat="63.72454" lon="13.34787">
        <time>2020-02-28T12:15:00Z</time>
      </trkpt>
      <trkpt lat="63.72463" lon="13.34762">
        <time>2020-02-28T12:33:00Z</time>
      </trkpt>
      <trkpt lat="63.72462" lon="13.34764">
        <time>2020-02-28T12:43:00Z</time>
      </trkpt>
      <trkpt lat="63.7229" lon="13.35682">
        <time>2020-02-28T12:53:00Z</time>
      </trkpt>
      <trkpt lat="63.7218" lon="13.3698">
        <time>2020-02-28T13:03:00Z</time>
      </trkpt>
      <trkpt lat="63.71964" lon="13.38755">
        <time>2020-02-28T13:13:00Z</time>
      </trkpt>
      <trkpt lat="63.71991" lon="13.39885">
        <time>2020-02-28T13:22:00Z</time>
      </trkpt>
      <trkpt lat="63.72446" lon="13.41044">
        <time>2020-02-28T13:32:00Z</time>
      </trkpt>
      <trkpt lat="63.73" lon="13.42426">
        <time>2020-02-28T13:42:00Z</time>
      </trkpt>
      <trkpt lat="63.73015" lon="13.45756">
        <time>2020-02-28T14:02:00Z</time>
      </trkpt>
      <trkpt lat="63.72843" lon="13.46855">
        <time>2020-02-28T14:12:00Z</time>
      </trkpt>
      <trkpt lat="63.72105" lon="13.47645">
        <time>2020-02-28T14:22:00Z</time>
      </trkpt>
      <trkpt lat="63.71572" lon="13.49125">
        <time>2020-02-28T14:32:00Z</time>
      </trkpt>
      <trkpt lat="63.71445" lon="13.49773">
        <time>2020-02-28T14:42:00Z</time>
      </trkpt>
      <trkpt lat="63.71427" lon="13.50209">
        <time>2020-02-28T14:52:00Z</time>
      </trkpt>
      <trkpt lat="63.71534" lon="13.52509">
        <time>2020-02-28T15:02:00Z</time>
      </trkpt>
      <trkpt lat="63.71513" lon="13.5243">
        <time>2020-02-28T15:12:00Z</time>
      </trkpt>
      <trkpt lat="63.71463" lon="13.52224">
        <time>2020-02-28T15:22:00Z</time>
      </trkpt>
      <trkpt lat="63.71123" lon="13.53621">
        <time>2020-02-28T15:32:00Z</time>
      </trkpt>
      <trkpt lat="63.70867" lon="13.54108">
        <time>2020-02-28T15:42:00Z</time>
      </trkpt>
      <trkpt lat="63.7076" lon="13.54649">
        <time>2020-02-28T15:52:00Z</time>
      </trkpt>
      <trkpt lat="63.7063" lon="13.55856">
        <time>2020-02-28T16:02:00Z</time>
      </trkpt>
      <trkpt lat="63.70544" lon="13.56842">
        <time>2020-02-28T16:12:00Z</time>
      </trkpt>
      <trkpt lat="63.70415" lon="13.57796">
        <time>2020-02-28T16:22:00Z</time>
      </trkpt>
      <trkpt lat="63.70516" lon="13.58792">
        <time>2020-02-28T16:32:00Z</time>
      </trkpt>
      <trkpt lat="63.70239" lon="13.59833">
        <time>2020-02-28T16:41:00Z</time>
      </trkpt>
      <trkpt lat="63.70786" lon="13.60657">
        <time>2020-02-28T17:04:00Z</time>
      </trkpt>
    </trkseg>
  </trk>
</gpx>
