<?xml version="1.0" encoding="UTF-8"?>
<gpx xmlns="http://www.topografix.com/GPX/1/1" version="1.1" creator="VitaBandet">
  <metadata>
    <name>Helags→Olden · Lisette Karlsson (undersaker)</name>
  </metadata>
  <wpt lat="62.90884" lon="12.52544">
    <name>Helags</name>
  </wpt>
  <wpt lat="63.69634" lon="13.62598">
    <name>Olden</name>
  </wpt>
  <trk>
    <name>Helags→Olden · Lisette Karlsson (undersaker)</name>
    <trkseg>
      <trkpt lat="62.90884" lon="12.52544">
        <time>2026-02-28T12:33:00Z</time>
      </trkpt>
      <trkpt lat="62.91246" lon="12.5319">
        <time>2026-02-28T12:43:00Z</time>
      </trkpt>
      <trkpt lat="62.91351" lon="12.54413">
        <time>2026-02-28T12:53:00Z</time>
      </trkpt>
      <trkpt lat="62.91269" lon="12.55426">
        <time>2026-02-28T13:03:00Z</time>
      </trkpt>
      <trkpt lat="62.91158" lon="12.56739">
        <time>2026-02-28T13:13:00Z</time>
      </trkpt>
      <trkpt lat="62.91148" lon="12.57926">
        <time>2026-02-28T13:23:00Z</time>
      </trkpt>
      <trkpt lat="62.91369" lon="12.58838">
        <time>2026-02-28T13:33:00Z</time>
      </trkpt>
      <trkpt lat="62.91625" lon="12.59876">
        <time>2026-02-28T13:43:00Z</time>
      </trkpt>
      <trkpt lat="62.91772" lon="12.60859">
        <time>2026-02-28T13:53:00Z</time>
      </trkpt>
      <trkpt lat="62.92017" lon="12.61442">
        <time>2026-02-28T14:03:00Z</time>
      </trkpt>
      <trkpt lat="62.92298" lon="12.62118">
        <time>2026-02-28T14:13:00Z</time>
      </trkpt>
      <trkpt lat="62.92373" lon="12.62333">
        <time>2026-02-28T14:23:00Z</time>
      </trkpt>
      <trkpt lat="62.92658" lon="12.62975">
        <time>2026-02-28T14:33:00Z</time>
      </trkpt>
      <trkpt lat="62.93009" lon="12.63372">
        <time>2026-02-28T14:43:00Z</time>
      </trkpt>
      <trkpt lat="62.9333" lon="12.63736">
        <time>2026-02-28T14:53:00Z</time>
      </trkpt>
      <trkpt lat="62.93782" lon="12.64125">
        <time>2026-02-28T15:03:00Z</time>
      </trkpt>
      <trkpt lat="62.94154" lon="12.64174">
        <time>2026-02-28T15:13:00Z</time>
      </trkpt>
      <trkpt lat="62.9456" lon="12.64148">
        <time>2026-02-28T15:23:00Z</time>
      </trkpt>
      <trkpt lat="62.95162" lon="12.63966">
        <time>2026-02-28T15:33:00Z</time>
      </trkpt>
      <trkpt lat="62.95564" lon="12.64245">
        <time>2026-02-28T15:43:00Z</time>
      </trkpt>
      <trkpt lat="62.95958" lon="12.64719">
        <time>2026-02-28T15:53:00Z</time>
      </trkpt>
      <trkpt lat="62.96279" lon="12.65065">
        <time>2026-02-28T16:03:00Z</time>
      </trkpt>
      <trkpt lat="62.96878" lon="12.65367">
        <time>2026-02-28T16:13:00Z</time>
      </trkpt>
      <trkpt lat="62.97371" lon="12.65835">
        <time>2026-02-28T16:23:00Z</time>
      </trkpt>
      <trkpt lat="62.97597" lon="12.66755">
        <time>2026-02-28T16:33:00Z</time>
      </trkpt>
      <trkpt lat="62.97859" lon="12.67109">
        <time>2026-02-28T16:43:00Z</time>
      </trkpt>
      <trkpt lat="62.98098" lon="12.67058">
        <time>2026-02-28T16:53:00Z</time>
      </trkpt>
      <trkpt lat="62.98345" lon="12.67575">
        <time>2026-02-28T17:03:00Z</time>
      </trkpt>
      <trkpt lat="62.98568" lon="12.68137">
        <time>2026-02-28T17:13:00Z</time>
      </trkpt>
      <trkpt lat="62.9879" lon="12.68702">
        <time>2026-02-28T17:23:00Z</time>
      </trkpt>
      <trkpt lat="62.98851" lon="12.68985">
        <time>2026-02-28T17:27:00Z</time>
      </trkpt>
      <trkpt lat="62.98861" lon="12.68972">
        <time>2026-03-01T07:18:00Z</time>
      </trkpt>
      <trkpt lat="62.98999" lon="12.69345">
        <time>2026-03-01T07:28:00Z</time>
      </trkpt>
      <trkpt lat="62.99196" lon="12.70279">
        <time>2026-03-01T07:38:00Z</time>
      </trkpt>
      <trkpt lat="62.99436" lon="12.71686">
        <time>2026-03-01T07:48:00Z</time>
      </trkpt>
      <trkpt lat="62.99612" lon="12.72789">
        <time>2026-03-01T07:58:00Z</time>
      </trkpt>
      <trkpt lat="62.9992" lon="12.73787">
        <time>2026-03-01T08:08:00Z</time>
      </trkpt>
      <trkpt lat="63.0034" lon="12.74375">
        <time>2026-03-01T08:18:00Z</time>
      </trkpt>
      <trkpt lat="63.00855" lon="12.74965">
        <time>2026-03-01T08:28:00Z</time>
      </trkpt>
      <trkpt lat="63.01129" lon="12.75255">
        <time>2026-03-01T08:38:00Z</time>
      </trkpt>
      <trkpt lat="63.01664" lon="12.7589">
        <time>2026-03-01T08:48:00Z</time>
      </trkpt>
      <trkpt lat="63.02193" lon="12.76435">
        <time>2026-03-01T08:58:00Z</time>
      </trkpt>
      <trkpt lat="63.02744" lon="12.76888">
        <time>2026-03-01T09:08:00Z</time>
      </trkpt>
      <trkpt lat="63.03204" lon="12.77718">
        <time>2026-03-01T09:18:00Z</time>
      </trkpt>
      <trkpt lat="63.03474" lon="12.78617">
        <time>2026-03-01T09:28:00Z</time>
      </trkpt>
      <trkpt lat="63.03839" lon="12.79443">
        <time>2026-03-01T09:38:00Z</time>
      </trkpt>
      <trkpt lat="63.04345" lon="12.79521">
        <time>2026-03-01T09:48:00Z</time>
      </trkpt>
      <trkpt lat="63.04872" lon="12.79342">
        <time>2026-03-01T09:58:00Z</time>
      </trkpt>
      <trkpt lat="63.05481" lon="12.79364">
        <time>2026-03-01T10:08:00Z</time>
      </trkpt>
      <trkpt lat="63.06136" lon="12.79742">
        <time>2026-03-01T10:18:00Z</time>
      </trkpt>
      <trkpt lat="63.06659" lon="12.80482">
        <time>2026-03-01T10:28:00Z</time>
      </trkpt>
      <trkpt lat="63.0728" lon="12.81108">
        <time>2026-03-01T10:38:00Z</time>
      </trkpt>
      <trkpt lat="63.07517" lon="12.81334">
        <time>2026-03-01T10:48:00Z</time>
      </trkpt>
      <trkpt lat="63.07903" lon="12.81928">
        <time>2026-03-01T10:58:00Z</time>
      </trkpt>
      <trkpt lat="63.08441" lon="12.81984">
        <time>2026-03-01T11:08:00Z</time>
      </trkpt>
      <trkpt lat="63.08849" lon="12.8187">
        <time>2026-03-01T11:18:00Z</time>
      </trkpt>
      <trkpt lat="63.09264" lon="12.8139">
        <time>2026-03-01T11:28:00Z</time>
      </trkpt>
      <trkpt lat="63.1006" lon="12.81381">
        <time>2026-03-01T11:38:00Z</time>
      </trkpt>
      <trkpt lat="63.10823" lon="12.81853">
        <time>2026-03-01T11:48:00Z</time>
      </trkpt>
      <trkpt lat="63.11208" lon="12.82752">
        <time>2026-03-01T11:58:00Z</time>
      </trkpt>
      <trkpt lat="63.11439" lon="12.8413">
        <time>2026-03-01T12:08:00Z</time>
      </trkpt>
      <trkpt lat="63.11624" lon="12.85363">
        <time>2026-03-01T12:18:00Z</time>
      </trkpt>
      <trkpt lat="63.11831" lon="12.86351">
        <time>2026-03-01T12:28:00Z</time>
      </trkpt>
      <trkpt lat="63.12415" lon="12.86707">
        <time>2026-03-01T12:38:00Z</time>
      </trkpt>
      <trkpt lat="63.12893" lon="12.8723">
        <time>2026-03-01T12:48:00Z</time>
      </trkpt>
      <trkpt lat="63.13345" lon="12.877">
        <time>2026-03-01T12:58:00Z</time>
      </trkpt>
      <trkpt lat="63.13397" lon="12.88451">
        <time>2026-03-01T13:08:00Z</time>
      </trkpt>
      <trkpt lat="63.1365" lon="12.89595">
        <time>2026-03-01T13:18:00Z</time>
      </trkpt>
      <trkpt lat="63.1421" lon="12.90292">
        <time>2026-03-01T13:28:00Z</time>
      </trkpt>
      <trkpt lat="63.14759" lon="12.90887">
        <time>2026-03-01T13:38:00Z</time>
      </trkpt>
      <trkpt lat="63.14867" lon="12.92232">
        <time>2026-03-01T13:48:00Z</time>
      </trkpt>
      <trkpt lat="63.14882" lon="12.93022">
        <time>2026-03-01T13:58:00Z</time>
      </trkpt>
      <trkpt lat="63.14849" lon="12.94296">
        <time>2026-03-01T14:08:00Z</time>
      </trkpt>
      <trkpt lat="63.14804" lon="12.95545">
        <time>2026-03-01T14:18:00Z</time>
      </trkpt>
      <trkpt lat="63.14883" lon="12.9665">
        <time>2026-03-01T14:43:00Z</time>
      </trkpt>
      <trkpt lat="63.1485" lon="12.9683">
        <time>2026-03-02T09:33:00Z</time>
      </trkpt>
      <trkpt lat="63.14823" lon="12.97457">
        <time>2026-03-02T09:43:00Z</time>
      </trkpt>
      <trkpt lat="63.1479" lon="12.98706">
        <time>2026-03-02T09:53:00Z</time>
      </trkpt>
      <trkpt lat="63.15106" lon="12.99249">
        <time>2026-03-02T10:03:00Z</time>
      </trkpt>
      <trkpt lat="63.15311" lon="13.00296">
        <time>2026-03-02T10:13:00Z</time>
      </trkpt>
      <trkpt lat="63.15461" lon="13.01487">
        <time>2026-03-02T10:23:00Z</time>
      </trkpt>
      <trkpt lat="63.15687" lon="13.03036">
        <time>2026-03-02T10:33:00Z</time>
      </trkpt>
      <trkpt lat="63.1598" lon="13.04317">
        <time>2026-03-02T10:43:00Z</time>
      </trkpt>
      <trkpt lat="63.16455" lon="13.05435">
        <time>2026-03-02T10:53:00Z</time>
      </trkpt>
      <trkpt lat="63.16723" lon="13.06128">
        <time>2026-03-02T11:03:00Z</time>
      </trkpt>
      <trkpt lat="63.17237" lon="13.06109">
        <time>2026-03-02T11:13:00Z</time>
      </trkpt>
      <trkpt lat="63.17831" lon="13.0621">
        <time>2026-03-02T11:23:00Z</time>
      </trkpt>
      <trkpt lat="63.18419" lon="13.06371">
        <time>2026-03-02T11:33:00Z</time>
      </trkpt>
      <trkpt lat="63.19003" lon="13.05834">
        <time>2026-03-02T11:43:00Z</time>
      </trkpt>
      <trkpt lat="63.19375" lon="13.05392">
        <time>2026-03-02T11:53:00Z</time>
      </trkpt>
      <trkpt lat="63.19842" lon="13.05952">
        <time>2026-03-02T12:03:00Z</time>
      </trkpt>
      <trkpt lat="63.20132" lon="13.07115">
        <time>2026-03-02T12:13:00Z</time>
      </trkpt>
      <trkpt lat="63.2025" lon="13.08194">
        <time>2026-03-02T12:23:00Z</time>
      </trkpt>
      <trkpt lat="63.20314" lon="13.09347">
        <time>2026-03-02T12:33:00Z</time>
      </trkpt>
      <trkpt lat="63.20259" lon="13.10782">
        <time>2026-03-02T12:43:00Z</time>
      </trkpt>
      <trkpt lat="63.20412" lon="13.12297">
        <time>2026-03-02T12:53:00Z</time>
      </trkpt>
      <trkpt lat="63.20536" lon="13.13698">
        <time>2026-03-02T13:03:00Z</time>
      </trkpt>
      <trkpt lat="63.20607" lon="13.15235">
        <time>2026-03-02T13:13:00Z</time>
      </trkpt>
      <trkpt lat="63.20618" lon="13.16567">
        <time>2026-03-02T13:23:00Z</time>
      </trkpt>
      <trkpt lat="63.21014" lon="13.17172">
        <time>2026-03-02T13:33:00Z</time>
      </trkpt>
      <trkpt lat="63.21658" lon="13.17018">
        <time>2026-03-02T13:43:00Z</time>
      </trkpt>
      <trkpt lat="63.22126" lon="13.17426">
        <time>2026-03-02T13:53:00Z</time>
      </trkpt>
      <trkpt lat="63.22277" lon="13.18215">
        <time>2026-03-02T14:03:00Z</time>
      </trkpt>
      <trkpt lat="63.22078" lon="13.19578">
        <time>2026-03-02T14:13:00Z</time>
      </trkpt>
      <trkpt lat="63.22497" lon="13.20176">
        <time>2026-03-02T14:23:00Z</time>
      </trkpt>
      <trkpt lat="63.2265" lon="13.21249">
        <time>2026-03-02T14:33:00Z</time>
      </trkpt>
      <trkpt lat="63.23041" lon="13.22367">
        <time>2026-03-02T14:43:00Z</time>
      </trkpt>
      <trkpt lat="63.23417" lon="13.2306">
        <time>2026-03-02T14:53:00Z</time>
      </trkpt>
      <trkpt lat="63.23617" lon="13.24515">
        <time>2026-03-02T15:03:00Z</time>
      </trkpt>
      <trkpt lat="63.23963" lon="13.25901">
        <time>2026-03-02T15:13:00Z</time>
      </trkpt>
      <trkpt lat="63.24379" lon="13.25876">
        <time>2026-03-02T15:23:00Z</time>
      </trkpt>
      <trkpt lat="63.24834" lon="13.26037">
        <time>2026-03-02T15:33:00Z</time>
      </trkpt>
      <trkpt lat="63.2522" lon="13.26425">
        <time>2026-03-02T15:43:00Z</time>
      </trkpt>
      <trkpt lat="63.25852" lon="13.27006">
        <time>2026-03-02T15:53:00Z</time>
      </trkpt>
      <trkpt lat="63.2658" lon="13.27234">
        <time>2026-03-02T16:03:00Z</time>
      </trkpt>
      <trkpt lat="63.27543" lon="13.27268">
        <time>2026-03-02T16:13:00Z</time>
      </trkpt>
      <trkpt lat="63.28389" lon="13.27828">
        <time>2026-03-02T16:23:00Z</time>
      </trkpt>
      <trkpt lat="63.29133" lon="13.27099">
        <time>2026-03-02T16:33:00Z</time>
      </trkpt>
      <trkpt lat="63.30193" lon="13.27818">
        <time>2026-03-02T16:43:00Z</time>
      </trkpt>
      <trkpt lat="63.30442" lon="13.27478">
        <time>2026-03-02T16:53:00Z</time>
      </trkpt>
      <trkpt lat="63.30642" lon="13.2614">
        <time>2026-03-02T17:03:00Z</time>
      </trkpt>
      <trkpt lat="63.31087" lon="13.25028">
        <time>2026-03-02T17:13:00Z</time>
      </trkpt>
      <trkpt lat="63.31118" lon="13.23874">
        <time>2026-03-02T17:23:00Z</time>
      </trkpt>
      <trkpt lat="63.31608" lon="13.23678">
        <time>2026-03-02T17:33:00Z</time>
      </trkpt>
      <trkpt lat="63.31601" lon="13.23687">
        <time>2026-03-02T17:36:00Z</time>
      </trkpt>
      <trkpt lat="63.31606" lon="13.23693">
        <time>2026-03-05T08:46:00Z</time>
      </trkpt>
      <trkpt lat="63.31772" lon="13.23854">
        <time>2026-03-05T08:56:00Z</time>
      </trkpt>
      <trkpt lat="63.32159" lon="13.24101">
        <time>2026-03-05T09:06:00Z</time>
      </trkpt>
      <trkpt lat="63.3259" lon="13.24335">
        <time>2026-03-05T09:16:00Z</time>
      </trkpt>
      <trkpt lat="63.32982" lon="13.24749">
        <time>2026-03-05T09:26:00Z</time>
      </trkpt>
      <trkpt lat="63.33156" lon="13.2577">
        <time>2026-03-05T09:36:00Z</time>
      </trkpt>
      <trkpt lat="63.33249" lon="13.26326">
        <time>2026-03-05T09:46:00Z</time>
      </trkpt>
      <trkpt lat="63.33694" lon="13.26554">
        <time>2026-03-05T09:56:00Z</time>
      </trkpt>
      <trkpt lat="63.34274" lon="13.26421">
        <time>2026-03-05T10:06:00Z</time>
      </trkpt>
      <trkpt lat="63.34763" lon="13.26002">
        <time>2026-03-05T10:16:00Z</time>
      </trkpt>
      <trkpt lat="63.35308" lon="13.26146">
        <time>2026-03-05T10:26:00Z</time>
      </trkpt>
      <trkpt lat="63.35835" lon="13.25646">
        <time>2026-03-05T10:36:00Z</time>
      </trkpt>
      <trkpt lat="63.36128" lon="13.2444">
        <time>2026-03-05T10:46:00Z</time>
      </trkpt>
      <trkpt lat="63.36494" lon="13.23738">
        <time>2026-03-05T10:56:00Z</time>
      </trkpt>
      <trkpt lat="63.36977" lon="13.23071">
        <time>2026-03-05T11:06:00Z</time>
      </trkpt>
      <trkpt lat="63.37475" lon="13.22309">
        <time>2026-03-05T11:16:00Z</time>
      </trkpt>
      <trkpt lat="63.3786" lon="13.22028">
        <time>2026-03-05T11:26:00Z</time>
      </trkpt>
      <trkpt lat="63.38188" lon="13.21614">
        <time>2026-03-05T11:36:00Z</time>
      </trkpt>
      <trkpt lat="63.38597" lon="13.21479">
        <time>2026-03-05T11:46:00Z</time>
      </trkpt>
      <trkpt lat="63.38986" lon="13.20953">
        <time>2026-03-05T11:56:00Z</time>
      </trkpt>
      <trkpt lat="63.39261" lon="13.20136">
        <time>2026-03-05T12:06:00Z</time>
      </trkpt>
      <trkpt lat="63.39704" lon="13.19554">
        <time>2026-03-05T12:16:00Z</time>
      </trkpt>
      <trkpt lat="63.39998" lon="13.19835">
        <time>2026-03-05T12:26:00Z</time>
      </trkpt>
      <trkpt lat="63.40205" lon="13.20586">
        <time>2026-03-05T12:36:00Z</time>
      </trkpt>
      <trkpt lat="63.40421" lon="13.20994">
        <time>2026-03-05T12:46:00Z</time>
      </trkpt>
      <trkpt lat="63.40434" lon="13.21236">
        <time>2026-03-05T12:56:00Z</time>
      </trkpt>
      <trkpt lat="63.40435" lon="13.21239">
        <time>2026-03-05T13:06:00Z</time>
      </trkpt>
      <trkpt lat="63.40641" lon="13.21829">
        <time>2026-03-05T13:16:00Z</time>
      </trkpt>
      <trkpt lat="63.40887" lon="13.22311">
        <time>2026-03-05T13:26:00Z</time>
      </trkpt>
      <trkpt lat="63.41125" lon="13.21998">
        <time>2026-03-05T13:36:00Z</time>
      </trkpt>
      <trkpt lat="63.4109" lon="13.21839">
        <time>2026-03-05T13:46:00Z</time>
      </trkpt>
      <trkpt lat="63.41088" lon="13.22573">
        <time>2026-03-05T13:56:00Z</time>
      </trkpt>
      <trkpt lat="63.41676" lon="13.22511">
        <time>2026-03-05T14:06:00Z</time>
      </trkpt>
      <trkpt lat="63.4218" lon="13.22071">
        <time>2026-03-05T14:16:00Z</time>
      </trkpt>
      <trkpt lat="63.42706" lon="13.22698">
        <time>2026-03-05T14:26:00Z</time>
      </trkpt>
      <trkpt lat="63.43128" lon="13.22288">
        <time>2026-03-05T14:36:00Z</time>
      </trkpt>
      <trkpt lat="63.43575" lon="13.22217">
        <time>2026-03-05T14:46:00Z</time>
      </trkpt>
      <trkpt lat="63.44035" lon="13.21618">
        <time>2026-03-05T14:56:00Z</time>
      </trkpt>
      <trkpt lat="63.44208" lon="13.22586">
        <time>2026-03-05T15:06:00Z</time>
      </trkpt>
      <trkpt lat="63.44665" lon="13.22556">
        <time>2026-03-05T15:16:00Z</time>
      </trkpt>
      <trkpt lat="63.44925" lon="13.21631">
        <time>2026-03-05T15:26:00Z</time>
      </trkpt>
      <trkpt lat="63.45215" lon="13.20608">
        <time>2026-03-05T15:36:00Z</time>
      </trkpt>
      <trkpt lat="63.45413" lon="13.20256">
        <time>2026-03-05T15:46:00Z</time>
      </trkpt>
      <trkpt lat="63.4561" lon="13.20925">
        <time>2026-03-05T15:56:00Z</time>
      </trkpt>
      <trkpt lat="63.46174" lon="13.21372">
        <time>2026-03-05T16:06:00Z</time>
      </trkpt>
      <trkpt lat="63.46623" lon="13.21331">
        <time>2026-03-05T16:16:00Z</time>
      </trkpt>
      <trkpt lat="63.47057" lon="13.20584">
        <time>2026-03-05T16:26:00Z</time>
      </trkpt>
      <trkpt lat="63.47411" lon="13.19855">
        <time>2026-03-05T16:36:00Z</time>
      </trkpt>
      <trkpt lat="63.47758" lon="13.19076">
        <time>2026-03-05T16:46:00Z</time>
      </trkpt>
      <trkpt lat="63.48122" lon="13.18325">
        <time>2026-03-05T16:56:00Z</time>
      </trkpt>
      <trkpt lat="63.48572" lon="13.17569">
        <time>2026-03-05T17:06:00Z</time>
      </trkpt>
      <trkpt lat="63.49033" lon="13.16996">
        <time>2026-03-05T17:16:00Z</time>
      </trkpt>
      <trkpt lat="63.49485" lon="13.16507">
        <time>2026-03-05T17:26:00Z</time>
      </trkpt>
      <trkpt lat="63.49861" lon="13.156">
        <time>2026-03-05T17:36:00Z</time>
      </trkpt>
      <trkpt lat="63.50108" lon="13.14979">
        <time>2026-03-05T17:46:00Z</time>
      </trkpt>
      <trkpt lat="63.50378" lon="13.14479">
        <time>2026-03-05T17:56:00Z</time>
      </trkpt>
      <trkpt lat="63.50377" lon="13.14482">
        <time>2026-03-05T18:06:00Z</time>
      </trkpt>
      <trkpt lat="63.50383" lon="13.14413">
        <time>2026-03-05T18:13:00Z</time>
      </trkpt>
      <trkpt lat="63.50382" lon="13.14441">
        <time>2026-03-06T08:02:00Z</time>
      </trkpt>
      <trkpt lat="63.50558" lon="13.13737">
        <time>2026-03-06T08:12:00Z</time>
      </trkpt>
      <trkpt lat="63.50902" lon="13.12763">
        <time>2026-03-06T08:22:00Z</time>
      </trkpt>
      <trkpt lat="63.51391" lon="13.11943">
        <time>2026-03-06T08:32:00Z</time>
      </trkpt>
      <trkpt lat="63.51737" lon="13.11321">
        <time>2026-03-06T08:42:00Z</time>
      </trkpt>
      <trkpt lat="63.51792" lon="13.1119">
        <time>2026-03-06T08:52:00Z</time>
      </trkpt>
      <trkpt lat="63.52154" lon="13.1039">
        <time>2026-03-06T09:02:00Z</time>
      </trkpt>
      <trkpt lat="63.52417" lon="13.09415">
        <time>2026-03-06T09:12:00Z</time>
      </trkpt>
      <trkpt lat="63.52582" lon="13.08229">
        <time>2026-03-06T09:22:00Z</time>
      </trkpt>
      <trkpt lat="63.52773" lon="13.07325">
        <time>2026-03-06T09:32:00Z</time>
      </trkpt>
      <trkpt lat="63.53074" lon="13.06551">
        <time>2026-03-06T09:42:00Z</time>
      </trkpt>
      <trkpt lat="63.53395" lon="13.05641">
        <time>2026-03-06T09:52:00Z</time>
      </trkpt>
      <trkpt lat="63.53759" lon="13.04746">
        <time>2026-03-06T10:02:00Z</time>
      </trkpt>
      <trkpt lat="63.54145" lon="13.03901">
        <time>2026-03-06T10:12:00Z</time>
      </trkpt>
      <trkpt lat="63.54568" lon="13.03203">
        <time>2026-03-06T10:22:00Z</time>
      </trkpt>
      <trkpt lat="63.55023" lon="13.02551">
        <time>2026-03-06T10:32:00Z</time>
      </trkpt>
      <trkpt lat="63.55449" lon="13.01955">
        <time>2026-03-06T10:42:00Z</time>
      </trkpt>
      <trkpt lat="63.55558" lon="13.01845">
        <time>2026-03-06T10:52:00Z</time>
      </trkpt>
      <trkpt lat="63.55904" lon="13.01603">
        <time>2026-03-06T11:02:00Z</time>
      </trkpt>
      <trkpt lat="63.56089" lon="13.01764">
        <time>2026-03-06T11:12:00Z</time>
      </trkpt>
      <trkpt lat="63.56094" lon="13.02577">
        <time>2026-03-06T11:22:00Z</time>
      </trkpt>
      <trkpt lat="63.55991" lon="13.0324">
        <time>2026-03-06T11:32:00Z</time>
      </trkpt>
      <trkpt lat="63.55954" lon="13.03581">
        <time>2026-03-06T11:42:00Z</time>
      </trkpt>
      <trkpt lat="63.5594" lon="13.0419">
        <time>2026-03-06T11:52:00Z</time>
      </trkpt>
      <trkpt lat="63.55855" lon="13.04899">
        <time>2026-03-06T12:02:00Z</time>
      </trkpt>
      <trkpt lat="63.55806" lon="13.05916">
        <time>2026-03-06T12:12:00Z</time>
      </trkpt>
      <trkpt lat="63.55982" lon="13.06641">
        <time>2026-03-06T12:22:00Z</time>
      </trkpt>
      <trkpt lat="63.56229" lon="13.07171">
        <time>2026-03-06T12:32:00Z</time>
      </trkpt>
      <trkpt lat="63.56412" lon="13.08111">
        <time>2026-03-06T12:42:00Z</time>
      </trkpt>
      <trkpt lat="63.56358" lon="13.08922">
        <time>2026-03-06T12:52:00Z</time>
      </trkpt>
      <trkpt lat="63.56145" lon="13.09696">
        <time>2026-03-06T13:02:00Z</time>
      </trkpt>
      <trkpt lat="63.55766" lon="13.11314">
        <time>2026-03-06T13:12:00Z</time>
      </trkpt>
      <trkpt lat="63.55747" lon="13.11892">
        <time>2026-03-06T13:22:00Z</time>
      </trkpt>
      <trkpt lat="63.55598" lon="13.1252">
        <time>2026-03-06T13:32:00Z</time>
      </trkpt>
      <trkpt lat="63.55551" lon="13.13733">
        <time>2026-03-06T13:42:00Z</time>
      </trkpt>
      <trkpt lat="63.55589" lon="13.1458">
        <time>2026-03-06T13:52:00Z</time>
      </trkpt>
      <trkpt lat="63.5547" lon="13.15497">
        <time>2026-03-06T14:02:00Z</time>
      </trkpt>
      <trkpt lat="63.55995" lon="13.15765">
        <time>2026-03-06T14:12:00Z</time>
      </trkpt>
      <trkpt lat="63.56189" lon="13.1622">
        <time>2026-03-06T14:22:00Z</time>
      </trkpt>
      <trkpt lat="63.56492" lon="13.17029">
        <time>2026-03-06T14:32:00Z</time>
      </trkpt>
      <trkpt lat="63.56687" lon="13.17453">
        <time>2026-03-06T14:42:00Z</time>
      </trkpt>
      <trkpt lat="63.57057" lon="13.17773">
        <time>2026-03-06T14:52:00Z</time>
      </trkpt>
      <trkpt lat="63.57394" lon="13.17284">
        <time>2026-03-06T15:02:00Z</time>
      </trkpt>
      <trkpt lat="63.57703" lon="13.17795">
        <time>2026-03-06T15:12:00Z</time>
      </trkpt>
      <trkpt lat="63.58203" lon="13.18666">
        <time>2026-03-06T15:22:00Z</time>
      </trkpt>
      <trkpt lat="63.58695" lon="13.19069">
        <time>2026-03-06T15:32:00Z</time>
      </trkpt>
      <trkpt lat="63.59158" lon="13.18908">
        <time>2026-03-06T15:42:00Z</time>
      </trkpt>
      <trkpt lat="63.59555" lon="13.18224">
        <time>2026-03-06T15:52:00Z</time>
      </trkpt>
      <trkpt lat="63.60145" lon="13.17994">
        <time>2026-03-06T16:02:00Z</time>
      </trkpt>
      <trkpt lat="63.60431" lon="13.19295">
        <time>2026-03-06T16:12:00Z</time>
      </trkpt>
      <trkpt lat="63.61096" lon="13.20481">
        <time>2026-03-06T16:22:00Z</time>
      </trkpt>
      <trkpt lat="63.61488" lon="13.21065">
        <time>2026-03-06T16:32:00Z</time>
      </trkpt>
      <trkpt lat="63.61785" lon="13.21043">
        <time>2026-03-06T16:42:00Z</time>
      </trkpt>
      <trkpt lat="63.61992" lon="13.21043">
        <time>2026-03-06T16:52:00Z</time>
      </trkpt>
      <trkpt lat="63.62388" lon="13.21784">
        <time>2026-03-06T17:02:00Z</time>
      </trkpt>
      <trkpt lat="63.62789" lon="13.22226">
        <time>2026-03-06T17:12:00Z</time>
      </trkpt>
      <trkpt lat="63.63154" lon="13.22372">
        <time>2026-03-06T17:22:00Z</time>
      </trkpt>
      <trkpt lat="63.634" lon="13.22648">
        <time>2026-03-06T17:31:00Z</time>
      </trkpt>
      <trkpt lat="63.63388" lon="13.22668">
        <time>2026-03-07T07:54:00Z</time>
      </trkpt>
      <trkpt lat="63.63476" lon="13.22781">
        <time>2026-03-07T08:04:00Z</time>
      </trkpt>
      <trkpt lat="63.63774" lon="13.23283">
        <time>2026-03-07T08:14:00Z</time>
      </trkpt>
      <trkpt lat="63.63937" lon="13.2406">
        <time>2026-03-07T08:24:00Z</time>
      </trkpt>
      <trkpt lat="63.63991" lon="13.24912">
        <time>2026-03-07T08:34:00Z</time>
      </trkpt>
      <trkpt lat="63.63901" lon="13.26082">
        <time>2026-03-07T08:44:00Z</time>
      </trkpt>
      <trkpt lat="63.64135" lon="13.2729">
        <time>2026-03-07T08:54:00Z</time>
      </trkpt>
      <trkpt lat="63.64089" lon="13.28412">
        <time>2026-03-07T09:04:00Z</time>
      </trkpt>
      <trkpt lat="63.64083" lon="13.2918">
        <time>2026-03-07T09:14:00Z</time>
      </trkpt>
      <trkpt lat="63.64584" lon="13.28822">
        <time>2026-03-07T09:24:00Z</time>
      </trkpt>
      <trkpt lat="63.64968" lon="13.28665">
        <time>2026-03-07T09:34:00Z</time>
      </trkpt>
      <trkpt lat="63.65449" lon="13.28609">
        <time>2026-03-07T09:44:00Z</time>
      </trkpt>
      <trkpt lat="63.65972" lon="13.29026">
        <time>2026-03-07T09:54:00Z</time>
      </trkpt>
      <trkpt lat="63.66434" lon="13.28961">
        <time>2026-03-07T10:04:00Z</time>
      </trkpt>
      <trkpt lat="63.66803" lon="13.29779">
        <time>2026-03-07T10:14:00Z</time>
      </trkpt>
      <trkpt lat="63.66967" lon="13.30682">
        <time>2026-03-07T10:24:00Z</time>
      </trkpt>
      <trkpt lat="63.67353" lon="13.31373">
        <time>2026-03-07T10:34:00Z</time>
      </trkpt>
      <trkpt lat="63.67459" lon="13.31734">
        <time>2026-03-07T10:44:00Z</time>
      </trkpt>
      <trkpt lat="63.67881" lon="13.31665">
        <time>2026-03-07T10:54:00Z</time>
      </trkpt>
      <trkpt lat="63.68072" lon="13.32416">
        <time>2026-03-07T11:04:00Z</time>
      </trkpt>
      <trkpt lat="63.67991" lon="13.33">
        <time>2026-03-07T11:14:00Z</time>
      </trkpt>
      <trkpt lat="63.68233" lon="13.33729">
        <time>2026-03-07T11:24:00Z</time>
      </trkpt>
      <trkpt lat="63.684" lon="13.34727">
        <time>2026-03-07T11:34:00Z</time>
      </trkpt>
      <trkpt lat="63.68565" lon="13.35952">
        <time>2026-03-07T11:44:00Z</time>
      </trkpt>
      <trkpt lat="63.6857" lon="13.36954">
        <time>2026-03-07T11:54:00Z</time>
      </trkpt>
      <trkpt lat="63.68774" lon="13.38044">
        <time>2026-03-07T12:04:00Z</time>
      </trkpt>
      <trkpt lat="63.68783" lon="13.39349">
        <time>2026-03-07T12:14:00Z</time>
      </trkpt>
      <trkpt lat="63.68891" lon="13.40619">
        <time>2026-03-07T12:24:00Z</time>
      </trkpt>
      <trkpt lat="63.68921" lon="13.42031">
        <time>2026-03-07T12:34:00Z</time>
      </trkpt>
      <trkpt lat="63.68807" lon="13.43293">
        <time>2026-03-07T12:44:00Z</time>
      </trkpt>
      <trkpt lat="63.6883" lon="13.43696">
        <time>2026-03-07T12:54:00Z</time>
      </trkpt>
      <trkpt lat="63.69248" lon="13.4469">
        <time>2026-03-07T13:04:00Z</time>
      </trkpt>
      <trkpt lat="63.69264" lon="13.45733">
        <time>2026-03-07T13:14:00Z</time>
      </trkpt>
      <trkpt lat="63.69178" lon="13.46793">
        <time>2026-03-07T13:24:00Z</time>
      </trkpt>
      <trkpt lat="63.69103" lon="13.4791">
        <time>2026-03-07T13:34:00Z</time>
      </trkpt>
      <trkpt lat="63.68975" lon="13.48964">
        <time>2026-03-07T13:44:00Z</time>
      </trkpt>
      <trkpt lat="63.69" lon="13.50086">
        <time>2026-03-07T13:54:00Z</time>
      </trkpt>
      <trkpt lat="63.68904" lon="13.51163">
        <time>2026-03-07T14:04:00Z</time>
      </trkpt>
      <trkpt lat="63.68951" lon="13.51809">
        <time>2026-03-07T14:14:00Z</time>
      </trkpt>
      <trkpt lat="63.69118" lon="13.52822">
        <time>2026-03-07T14:24:00Z</time>
      </trkpt>
      <trkpt lat="63.69324" lon="13.53756">
        <time>2026-03-07T14:34:00Z</time>
      </trkpt>
      <trkpt lat="63.69288" lon="13.54768">
        <time>2026-03-07T14:44:00Z</time>
      </trkpt>
      <trkpt lat="63.69367" lon="13.56011">
        <time>2026-03-07T14:54:00Z</time>
      </trkpt>
      <trkpt lat="63.69306" lon="13.56772">
        <time>2026-03-07T15:04:00Z</time>
      </trkpt>
      <trkpt lat="63.69113" lon="13.57957">
        <time>2026-03-07T15:14:00Z</time>
      </trkpt>
      <trkpt lat="63.69097" lon="13.59195">
        <time>2026-03-07T15:24:00Z</time>
      </trkpt>
      <trkpt lat="63.69428" lon="13.5992">
        <time>2026-03-07T15:34:00Z</time>
      </trkpt>
      <trkpt lat="63.69544" lon="13.61103">
        <time>2026-03-07T15:44:00Z</time>
      </trkpt>
      <trkpt lat="63.69534" lon="13.62377">
        <time>2026-03-07T15:54:00Z</time>
      </trkpt>
      <trkpt lat="63.69634" lon="13.62598">
        <time>2026-03-07T16:03:00Z</time>
      </trkpt>
    </trkseg>
  </trk>
</gpx>
