<?xml version="1.0" encoding="UTF-8"?>
<gpx xmlns="http://www.topografix.com/GPX/1/1" version="1.1" creator="VitaBandet">
  <metadata>
    <name>Helags→Olden · Erik Hägglund (undersaker)</name>
  </metadata>
  <wpt lat="62.90975" lon="12.52626">
    <name>Helags</name>
  </wpt>
  <wpt lat="63.6964" lon="13.62918">
    <name>Olden</name>
  </wpt>
  <trk>
    <name>Helags→Olden · Erik Hägglund (undersaker)</name>
    <trkseg>
      <trkpt lat="62.90975" lon="12.52626">
        <time>2026-01-23T14:54:00Z</time>
      </trkpt>
      <trkpt lat="62.91205" lon="12.53698">
        <time>2026-01-23T15:04:00Z</time>
      </trkpt>
      <trkpt lat="62.91174" lon="12.54025">
        <time>2026-01-23T15:14:00Z</time>
      </trkpt>
      <trkpt lat="62.91106" lon="12.54529">
        <time>2026-01-23T15:24:00Z</time>
      </trkpt>
      <trkpt lat="62.91032" lon="12.55707">
        <time>2026-01-23T15:34:00Z</time>
      </trkpt>
      <trkpt lat="62.91051" lon="12.56702">
        <time>2026-01-23T15:44:00Z</time>
      </trkpt>
      <trkpt lat="62.91064" lon="12.57657">
        <time>2026-01-23T15:54:00Z</time>
      </trkpt>
      <trkpt lat="62.91367" lon="12.58838">
        <time>2026-01-23T16:04:00Z</time>
      </trkpt>
      <trkpt lat="62.9162" lon="12.59799">
        <time>2026-01-23T16:14:00Z</time>
      </trkpt>
      <trkpt lat="62.91856" lon="12.61067">
        <time>2026-01-23T16:24:00Z</time>
      </trkpt>
      <trkpt lat="62.9208" lon="12.61567">
        <time>2026-01-23T16:34:00Z</time>
      </trkpt>
      <trkpt lat="62.92275" lon="12.62065">
        <time>2026-01-23T16:44:00Z</time>
      </trkpt>
      <trkpt lat="62.92633" lon="12.62945">
        <time>2026-01-23T16:54:00Z</time>
      </trkpt>
      <trkpt lat="62.93114" lon="12.63494">
        <time>2026-01-23T17:04:00Z</time>
      </trkpt>
      <trkpt lat="62.93536" lon="12.6397">
        <time>2026-01-23T17:14:00Z</time>
      </trkpt>
      <trkpt lat="62.9399" lon="12.6414">
        <time>2026-01-23T17:24:00Z</time>
      </trkpt>
      <trkpt lat="62.94446" lon="12.64198">
        <time>2026-01-23T17:34:00Z</time>
      </trkpt>
      <trkpt lat="62.95018" lon="12.64">
        <time>2026-01-23T17:44:00Z</time>
      </trkpt>
      <trkpt lat="62.95422" lon="12.6408">
        <time>2026-01-23T17:54:00Z</time>
      </trkpt>
      <trkpt lat="62.95813" lon="12.64543">
        <time>2026-01-23T18:04:00Z</time>
      </trkpt>
      <trkpt lat="62.96187" lon="12.64981">
        <time>2026-01-23T18:14:00Z</time>
      </trkpt>
      <trkpt lat="62.967" lon="12.65247">
        <time>2026-01-23T18:24:00Z</time>
      </trkpt>
      <trkpt lat="62.97277" lon="12.65554">
        <time>2026-01-23T18:34:00Z</time>
      </trkpt>
      <trkpt lat="62.97605" lon="12.65683">
        <time>2026-01-23T18:44:00Z</time>
      </trkpt>
      <trkpt lat="62.97607" lon="12.65685">
        <time>2026-01-23T18:45:00Z</time>
      </trkpt>
      <trkpt lat="62.97568" lon="12.65721">
        <time>2026-01-24T08:50:00Z</time>
      </trkpt>
      <trkpt lat="62.97571" lon="12.65689">
        <time>2026-01-24T09:00:00Z</time>
      </trkpt>
      <trkpt lat="62.97886" lon="12.66434">
        <time>2026-01-24T09:20:00Z</time>
      </trkpt>
      <trkpt lat="62.98127" lon="12.67043">
        <time>2026-01-24T09:30:00Z</time>
      </trkpt>
      <trkpt lat="62.9832" lon="12.67515">
        <time>2026-01-24T09:40:00Z</time>
      </trkpt>
      <trkpt lat="62.9849" lon="12.67946">
        <time>2026-01-24T09:50:00Z</time>
      </trkpt>
      <trkpt lat="62.98655" lon="12.68367">
        <time>2026-01-24T10:00:00Z</time>
      </trkpt>
      <trkpt lat="62.98798" lon="12.68727">
        <time>2026-01-24T10:10:00Z</time>
      </trkpt>
      <trkpt lat="62.98878" lon="12.68961">
        <time>2026-01-24T10:20:00Z</time>
      </trkpt>
      <trkpt lat="62.99092" lon="12.69719">
        <time>2026-01-24T10:30:00Z</time>
      </trkpt>
      <trkpt lat="62.99263" lon="12.70699">
        <time>2026-01-24T10:40:00Z</time>
      </trkpt>
      <trkpt lat="62.9943" lon="12.71691">
        <time>2026-01-24T10:50:00Z</time>
      </trkpt>
      <trkpt lat="62.99623" lon="12.72894">
        <time>2026-01-24T11:00:00Z</time>
      </trkpt>
      <trkpt lat="62.999" lon="12.73766">
        <time>2026-01-24T11:10:00Z</time>
      </trkpt>
      <trkpt lat="63.00227" lon="12.74259">
        <time>2026-01-24T11:20:00Z</time>
      </trkpt>
      <trkpt lat="63.00862" lon="12.74982">
        <time>2026-01-24T11:30:00Z</time>
      </trkpt>
      <trkpt lat="63.01381" lon="12.75594">
        <time>2026-01-24T11:40:00Z</time>
      </trkpt>
      <trkpt lat="63.02019" lon="12.76429">
        <time>2026-01-24T11:50:00Z</time>
      </trkpt>
      <trkpt lat="63.02218" lon="12.76439">
        <time>2026-01-24T12:00:00Z</time>
      </trkpt>
      <trkpt lat="63.02736" lon="12.76875">
        <time>2026-01-24T12:10:00Z</time>
      </trkpt>
      <trkpt lat="63.03147" lon="12.77555">
        <time>2026-01-24T12:20:00Z</time>
      </trkpt>
      <trkpt lat="63.03442" lon="12.78499">
        <time>2026-01-24T12:30:00Z</time>
      </trkpt>
      <trkpt lat="63.03723" lon="12.79254">
        <time>2026-01-24T12:40:00Z</time>
      </trkpt>
      <trkpt lat="63.04035" lon="12.7969">
        <time>2026-01-24T12:50:00Z</time>
      </trkpt>
      <trkpt lat="63.04093" lon="12.80008">
        <time>2026-01-24T13:00:00Z</time>
      </trkpt>
      <trkpt lat="63.04097" lon="12.80018">
        <time>2026-01-24T13:03:00Z</time>
      </trkpt>
      <trkpt lat="63.04095" lon="12.79978">
        <time>2026-01-25T08:49:00Z</time>
      </trkpt>
      <trkpt lat="63.04097" lon="12.79984">
        <time>2026-01-25T08:59:00Z</time>
      </trkpt>
      <trkpt lat="63.04175" lon="12.7983">
        <time>2026-01-25T09:09:00Z</time>
      </trkpt>
      <trkpt lat="63.04588" lon="12.79426">
        <time>2026-01-25T09:19:00Z</time>
      </trkpt>
      <trkpt lat="63.05211" lon="12.79379">
        <time>2026-01-25T09:29:00Z</time>
      </trkpt>
      <trkpt lat="63.05805" lon="12.79596">
        <time>2026-01-25T09:39:00Z</time>
      </trkpt>
      <trkpt lat="63.06285" lon="12.79883">
        <time>2026-01-25T09:49:00Z</time>
      </trkpt>
      <trkpt lat="63.06785" lon="12.80598">
        <time>2026-01-25T09:59:00Z</time>
      </trkpt>
      <trkpt lat="63.07339" lon="12.81181">
        <time>2026-01-25T10:09:00Z</time>
      </trkpt>
      <trkpt lat="63.07655" lon="12.81495">
        <time>2026-01-25T10:19:00Z</time>
      </trkpt>
      <trkpt lat="63.0795" lon="12.81954">
        <time>2026-01-25T10:29:00Z</time>
      </trkpt>
      <trkpt lat="63.08418" lon="12.81984">
        <time>2026-01-25T10:39:00Z</time>
      </trkpt>
      <trkpt lat="63.08711" lon="12.81954">
        <time>2026-01-25T10:49:00Z</time>
      </trkpt>
      <trkpt lat="63.09109" lon="12.81623">
        <time>2026-01-25T10:59:00Z</time>
      </trkpt>
      <trkpt lat="63.09482" lon="12.81147">
        <time>2026-01-25T11:09:00Z</time>
      </trkpt>
      <trkpt lat="63.10126" lon="12.81344">
        <time>2026-01-25T11:19:00Z</time>
      </trkpt>
      <trkpt lat="63.10813" lon="12.81808">
        <time>2026-01-25T11:29:00Z</time>
      </trkpt>
      <trkpt lat="63.11191" lon="12.82595">
        <time>2026-01-25T11:39:00Z</time>
      </trkpt>
      <trkpt lat="63.11203" lon="12.83628">
        <time>2026-01-25T11:49:00Z</time>
      </trkpt>
      <trkpt lat="63.11545" lon="12.84357">
        <time>2026-01-25T11:59:00Z</time>
      </trkpt>
      <trkpt lat="63.11663" lon="12.85619">
        <time>2026-01-25T12:09:00Z</time>
      </trkpt>
      <trkpt lat="63.11957" lon="12.86325">
        <time>2026-01-25T12:19:00Z</time>
      </trkpt>
      <trkpt lat="63.12411" lon="12.86636">
        <time>2026-01-25T12:29:00Z</time>
      </trkpt>
      <trkpt lat="63.12857" lon="12.87196">
        <time>2026-01-25T12:39:00Z</time>
      </trkpt>
      <trkpt lat="63.13339" lon="12.8767">
        <time>2026-01-25T12:49:00Z</time>
      </trkpt>
      <trkpt lat="63.13395" lon="12.88681">
        <time>2026-01-25T12:59:00Z</time>
      </trkpt>
      <trkpt lat="63.13642" lon="12.89567">
        <time>2026-01-25T13:09:00Z</time>
      </trkpt>
      <trkpt lat="63.1402" lon="12.90213">
        <time>2026-01-25T13:19:00Z</time>
      </trkpt>
      <trkpt lat="63.14603" lon="12.90606">
        <time>2026-01-25T13:29:00Z</time>
      </trkpt>
      <trkpt lat="63.14892" lon="12.91696">
        <time>2026-01-25T13:39:00Z</time>
      </trkpt>
      <trkpt lat="63.14883" lon="12.92749">
        <time>2026-01-25T13:49:00Z</time>
      </trkpt>
      <trkpt lat="63.14931" lon="12.93676">
        <time>2026-01-25T13:59:00Z</time>
      </trkpt>
      <trkpt lat="63.14804" lon="12.94796">
        <time>2026-01-25T14:09:00Z</time>
      </trkpt>
      <trkpt lat="63.14804" lon="12.96017">
        <time>2026-01-25T14:19:00Z</time>
      </trkpt>
      <trkpt lat="63.14882" lon="12.96635">
        <time>2026-01-25T14:27:00Z</time>
      </trkpt>
      <trkpt lat="63.14896" lon="12.96635">
        <time>2026-01-27T09:17:00Z</time>
      </trkpt>
      <trkpt lat="63.14911" lon="12.97054">
        <time>2026-01-27T09:27:00Z</time>
      </trkpt>
      <trkpt lat="63.14959" lon="12.98039">
        <time>2026-01-27T09:37:00Z</time>
      </trkpt>
      <trkpt lat="63.15187" lon="12.98981">
        <time>2026-01-27T09:47:00Z</time>
      </trkpt>
      <trkpt lat="63.15366" lon="13.00232">
        <time>2026-01-27T09:57:00Z</time>
      </trkpt>
      <trkpt lat="63.15506" lon="13.01367">
        <time>2026-01-27T10:07:00Z</time>
      </trkpt>
      <trkpt lat="63.15673" lon="13.02538">
        <time>2026-01-27T10:17:00Z</time>
      </trkpt>
      <trkpt lat="63.15735" lon="13.03339">
        <time>2026-01-27T10:27:00Z</time>
      </trkpt>
      <trkpt lat="63.16036" lon="13.04472">
        <time>2026-01-27T10:37:00Z</time>
      </trkpt>
      <trkpt lat="63.16368" lon="13.05467">
        <time>2026-01-27T10:47:00Z</time>
      </trkpt>
      <trkpt lat="63.16677" lon="13.05999">
        <time>2026-01-27T10:57:00Z</time>
      </trkpt>
      <trkpt lat="63.16704" lon="13.06107">
        <time>2026-01-27T11:07:00Z</time>
      </trkpt>
      <trkpt lat="63.17106" lon="13.06126">
        <time>2026-01-27T11:17:00Z</time>
      </trkpt>
      <trkpt lat="63.17602" lon="13.06107">
        <time>2026-01-27T11:27:00Z</time>
      </trkpt>
      <trkpt lat="63.18017" lon="13.0636">
        <time>2026-01-27T11:37:00Z</time>
      </trkpt>
      <trkpt lat="63.18713" lon="13.06186">
        <time>2026-01-27T11:47:00Z</time>
      </trkpt>
      <trkpt lat="63.18928" lon="13.05926">
        <time>2026-01-27T11:57:00Z</time>
      </trkpt>
      <trkpt lat="63.18698" lon="13.06197">
        <time>2026-01-27T12:07:00Z</time>
      </trkpt>
      <trkpt lat="63.19147" lon="13.05688">
        <time>2026-01-27T12:17:00Z</time>
      </trkpt>
      <trkpt lat="63.19746" lon="13.05373">
        <time>2026-01-27T12:27:00Z</time>
      </trkpt>
      <trkpt lat="63.20339" lon="13.05259">
        <time>2026-01-27T12:37:00Z</time>
      </trkpt>
      <trkpt lat="63.20667" lon="13.05583">
        <time>2026-01-27T12:47:00Z</time>
      </trkpt>
      <trkpt lat="63.2058" lon="13.0639">
        <time>2026-01-27T12:57:00Z</time>
      </trkpt>
      <trkpt lat="63.2046" lon="13.0772">
        <time>2026-01-27T13:07:00Z</time>
      </trkpt>
      <trkpt lat="63.20363" lon="13.08853">
        <time>2026-01-27T13:17:00Z</time>
      </trkpt>
      <trkpt lat="63.20257" lon="13.09975">
        <time>2026-01-27T13:27:00Z</time>
      </trkpt>
      <trkpt lat="63.20294" lon="13.11128">
        <time>2026-01-27T13:37:00Z</time>
      </trkpt>
      <trkpt lat="63.2042" lon="13.12357">
        <time>2026-01-27T13:47:00Z</time>
      </trkpt>
      <trkpt lat="63.20534" lon="13.1364">
        <time>2026-01-27T13:57:00Z</time>
      </trkpt>
      <trkpt lat="63.20605" lon="13.14904">
        <time>2026-01-27T14:07:00Z</time>
      </trkpt>
      <trkpt lat="63.20618" lon="13.15679">
        <time>2026-01-27T14:17:00Z</time>
      </trkpt>
      <trkpt lat="63.20594" lon="13.16338">
        <time>2026-01-27T14:27:00Z</time>
      </trkpt>
      <trkpt lat="63.20941" lon="13.17095">
        <time>2026-01-27T14:37:00Z</time>
      </trkpt>
      <trkpt lat="63.21443" lon="13.17065">
        <time>2026-01-27T14:47:00Z</time>
      </trkpt>
      <trkpt lat="63.21999" lon="13.17011">
        <time>2026-01-27T14:57:00Z</time>
      </trkpt>
      <trkpt lat="63.22341" lon="13.18018">
        <time>2026-01-27T15:07:00Z</time>
      </trkpt>
      <trkpt lat="63.2399" lon="13.26227">
        <time>2026-01-27T16:38:00Z</time>
      </trkpt>
      <trkpt lat="63.2399" lon="13.26227">
        <time>2026-01-27T16:39:00Z</time>
      </trkpt>
      <trkpt lat="63.23988" lon="13.26221">
        <time>2026-01-28T08:37:00Z</time>
      </trkpt>
      <trkpt lat="63.24127" lon="13.2567">
        <time>2026-01-28T08:47:00Z</time>
      </trkpt>
      <trkpt lat="63.24475" lon="13.25878">
        <time>2026-01-28T08:57:00Z</time>
      </trkpt>
      <trkpt lat="63.24856" lon="13.26047">
        <time>2026-01-28T09:07:00Z</time>
      </trkpt>
      <trkpt lat="63.25128" lon="13.26335">
        <time>2026-01-28T09:17:00Z</time>
      </trkpt>
      <trkpt lat="63.25375" lon="13.26603">
        <time>2026-01-28T09:27:00Z</time>
      </trkpt>
      <trkpt lat="63.25899" lon="13.27054">
        <time>2026-01-28T09:37:00Z</time>
      </trkpt>
      <trkpt lat="63.26509" lon="13.27122">
        <time>2026-01-28T09:47:00Z</time>
      </trkpt>
      <trkpt lat="63.27197" lon="13.27281">
        <time>2026-01-28T09:57:00Z</time>
      </trkpt>
      <trkpt lat="63.27811" lon="13.27418">
        <time>2026-01-28T10:07:00Z</time>
      </trkpt>
      <trkpt lat="63.28302" lon="13.27841">
        <time>2026-01-28T10:17:00Z</time>
      </trkpt>
      <trkpt lat="63.28766" lon="13.27504">
        <time>2026-01-28T10:27:00Z</time>
      </trkpt>
      <trkpt lat="63.29659" lon="13.2747">
        <time>2026-01-28T10:37:00Z</time>
      </trkpt>
      <trkpt lat="63.30381" lon="13.27657">
        <time>2026-01-28T10:47:00Z</time>
      </trkpt>
      <trkpt lat="63.30586" lon="13.26661">
        <time>2026-01-28T10:57:00Z</time>
      </trkpt>
      <trkpt lat="63.30813" lon="13.25285">
        <time>2026-01-28T11:07:00Z</time>
      </trkpt>
      <trkpt lat="63.31254" lon="13.24706">
        <time>2026-01-28T11:17:00Z</time>
      </trkpt>
      <trkpt lat="63.3137" lon="13.23623">
        <time>2026-01-28T11:27:00Z</time>
      </trkpt>
      <trkpt lat="63.31611" lon="13.23608">
        <time>2026-01-28T11:37:00Z</time>
      </trkpt>
      <trkpt lat="63.31634" lon="13.23668">
        <time>2026-01-28T11:47:00Z</time>
      </trkpt>
      <trkpt lat="63.3162" lon="13.23668">
        <time>2026-01-28T11:53:00Z</time>
      </trkpt>
      <trkpt lat="63.31616" lon="13.23674">
        <time>2026-01-29T08:47:00Z</time>
      </trkpt>
      <trkpt lat="63.31647" lon="13.2364">
        <time>2026-01-29T08:57:00Z</time>
      </trkpt>
      <trkpt lat="63.31828" lon="13.23895">
        <time>2026-01-29T09:07:00Z</time>
      </trkpt>
      <trkpt lat="63.32175" lon="13.24047">
        <time>2026-01-29T09:17:00Z</time>
      </trkpt>
      <trkpt lat="63.32556" lon="13.24298">
        <time>2026-01-29T09:27:00Z</time>
      </trkpt>
      <trkpt lat="63.33077" lon="13.24901">
        <time>2026-01-29T09:37:00Z</time>
      </trkpt>
      <trkpt lat="63.33123" lon="13.26024">
        <time>2026-01-29T09:47:00Z</time>
      </trkpt>
      <trkpt lat="63.33529" lon="13.26307">
        <time>2026-01-29T09:57:00Z</time>
      </trkpt>
      <trkpt lat="63.34096" lon="13.26987">
        <time>2026-01-29T10:07:00Z</time>
      </trkpt>
      <trkpt lat="63.34604" lon="13.27498">
        <time>2026-01-29T10:17:00Z</time>
      </trkpt>
      <trkpt lat="63.34948" lon="13.27603">
        <time>2026-01-29T10:27:00Z</time>
      </trkpt>
      <trkpt lat="63.35383" lon="13.26697">
        <time>2026-01-29T10:37:00Z</time>
      </trkpt>
      <trkpt lat="63.35794" lon="13.25755">
        <time>2026-01-29T10:47:00Z</time>
      </trkpt>
      <trkpt lat="63.36105" lon="13.24543">
        <time>2026-01-29T10:57:00Z</time>
      </trkpt>
      <trkpt lat="63.36366" lon="13.23837">
        <time>2026-01-29T11:07:00Z</time>
      </trkpt>
      <trkpt lat="63.36943" lon="13.2312">
        <time>2026-01-29T11:17:00Z</time>
      </trkpt>
      <trkpt lat="63.37472" lon="13.22316">
        <time>2026-01-29T11:27:00Z</time>
      </trkpt>
      <trkpt lat="63.3784" lon="13.22026">
        <time>2026-01-29T11:37:00Z</time>
      </trkpt>
      <trkpt lat="63.3821" lon="13.21638">
        <time>2026-01-29T11:47:00Z</time>
      </trkpt>
      <trkpt lat="63.38579" lon="13.21464">
        <time>2026-01-29T11:57:00Z</time>
      </trkpt>
      <trkpt lat="63.38971" lon="13.20977">
        <time>2026-01-29T12:07:00Z</time>
      </trkpt>
      <trkpt lat="63.39283" lon="13.20086">
        <time>2026-01-29T12:17:00Z</time>
      </trkpt>
      <trkpt lat="63.39711" lon="13.19535">
        <time>2026-01-29T12:27:00Z</time>
      </trkpt>
      <trkpt lat="63.39991" lon="13.19803">
        <time>2026-01-29T12:37:00Z</time>
      </trkpt>
      <trkpt lat="63.40256" lon="13.20756">
        <time>2026-01-29T12:47:00Z</time>
      </trkpt>
      <trkpt lat="63.40427" lon="13.21">
        <time>2026-01-29T12:57:00Z</time>
      </trkpt>
      <trkpt lat="63.40583" lon="13.21661">
        <time>2026-01-29T13:07:00Z</time>
      </trkpt>
      <trkpt lat="63.40878" lon="13.22318">
        <time>2026-01-29T13:17:00Z</time>
      </trkpt>
      <trkpt lat="63.411" lon="13.2258">
        <time>2026-01-29T13:27:00Z</time>
      </trkpt>
      <trkpt lat="63.41698" lon="13.22513">
        <time>2026-01-29T13:37:00Z</time>
      </trkpt>
      <trkpt lat="63.4261" lon="13.22764">
        <time>2026-01-29T13:47:00Z</time>
      </trkpt>
      <trkpt lat="63.43311" lon="13.22208">
        <time>2026-01-29T13:57:00Z</time>
      </trkpt>
      <trkpt lat="63.43921" lon="13.21756">
        <time>2026-01-29T14:07:00Z</time>
      </trkpt>
      <trkpt lat="63.44184" lon="13.22517">
        <time>2026-01-29T14:17:00Z</time>
      </trkpt>
      <trkpt lat="63.44674" lon="13.22522">
        <time>2026-01-29T14:27:00Z</time>
      </trkpt>
      <trkpt lat="63.44959" lon="13.21505">
        <time>2026-01-29T14:37:00Z</time>
      </trkpt>
      <trkpt lat="63.45194" lon="13.20771">
        <time>2026-01-29T14:47:00Z</time>
      </trkpt>
      <trkpt lat="63.45517" lon="13.20803">
        <time>2026-01-29T14:57:00Z</time>
      </trkpt>
      <trkpt lat="63.46119" lon="13.21337">
        <time>2026-01-29T15:07:00Z</time>
      </trkpt>
      <trkpt lat="63.46683" lon="13.21857">
        <time>2026-01-29T15:17:00Z</time>
      </trkpt>
      <trkpt lat="63.47081" lon="13.22547">
        <time>2026-01-29T15:27:00Z</time>
      </trkpt>
      <trkpt lat="63.4737" lon="13.22921">
        <time>2026-01-29T15:37:00Z</time>
      </trkpt>
      <trkpt lat="63.47442" lon="13.23386">
        <time>2026-01-29T15:47:00Z</time>
      </trkpt>
      <trkpt lat="63.47442" lon="13.23386">
        <time>2026-01-29T15:47:00Z</time>
      </trkpt>
      <trkpt lat="63.47447" lon="13.23376">
        <time>2026-01-30T09:00:00Z</time>
      </trkpt>
      <trkpt lat="63.47467" lon="13.23348">
        <time>2026-01-30T09:10:00Z</time>
      </trkpt>
      <trkpt lat="63.47667" lon="13.23846">
        <time>2026-01-30T09:20:00Z</time>
      </trkpt>
      <trkpt lat="63.48003" lon="13.24408">
        <time>2026-01-30T09:30:00Z</time>
      </trkpt>
      <trkpt lat="63.48573" lon="13.24637">
        <time>2026-01-30T09:40:00Z</time>
      </trkpt>
      <trkpt lat="63.49038" lon="13.24642">
        <time>2026-01-30T09:50:00Z</time>
      </trkpt>
      <trkpt lat="63.4943" lon="13.24803">
        <time>2026-01-30T10:00:00Z</time>
      </trkpt>
      <trkpt lat="63.49925" lon="13.24816">
        <time>2026-01-30T10:10:00Z</time>
      </trkpt>
      <trkpt lat="63.50445" lon="13.24702">
        <time>2026-01-30T10:20:00Z</time>
      </trkpt>
      <trkpt lat="63.50976" lon="13.24659">
        <time>2026-01-30T10:30:00Z</time>
      </trkpt>
      <trkpt lat="63.51433" lon="13.25077">
        <time>2026-01-30T10:40:00Z</time>
      </trkpt>
      <trkpt lat="63.51821" lon="13.25363">
        <time>2026-01-30T10:50:00Z</time>
      </trkpt>
      <trkpt lat="63.52083" lon="13.25564">
        <time>2026-01-30T11:00:00Z</time>
      </trkpt>
      <trkpt lat="63.52312" lon="13.25946">
        <time>2026-01-30T11:10:00Z</time>
      </trkpt>
      <trkpt lat="63.52855" lon="13.25925">
        <time>2026-01-30T11:20:00Z</time>
      </trkpt>
      <trkpt lat="63.53324" lon="13.26341">
        <time>2026-01-30T11:30:00Z</time>
      </trkpt>
      <trkpt lat="63.53632" lon="13.26225">
        <time>2026-01-30T11:40:00Z</time>
      </trkpt>
      <trkpt lat="63.53926" lon="13.26318">
        <time>2026-01-30T11:50:00Z</time>
      </trkpt>
      <trkpt lat="63.54374" lon="13.2641">
        <time>2026-01-30T12:00:00Z</time>
      </trkpt>
      <trkpt lat="63.54894" lon="13.26429">
        <time>2026-01-30T12:10:00Z</time>
      </trkpt>
      <trkpt lat="63.5502" lon="13.25783">
        <time>2026-01-30T12:20:00Z</time>
      </trkpt>
      <trkpt lat="63.55351" lon="13.2544">
        <time>2026-01-30T12:30:00Z</time>
      </trkpt>
      <trkpt lat="63.55876" lon="13.25146">
        <time>2026-01-30T12:40:00Z</time>
      </trkpt>
      <trkpt lat="63.56098" lon="13.25408">
        <time>2026-01-30T12:50:00Z</time>
      </trkpt>
      <trkpt lat="63.56595" lon="13.24994">
        <time>2026-01-30T13:00:00Z</time>
      </trkpt>
      <trkpt lat="63.56853" lon="13.24307">
        <time>2026-01-30T13:10:00Z</time>
      </trkpt>
      <trkpt lat="63.57141" lon="13.23794">
        <time>2026-01-30T13:20:00Z</time>
      </trkpt>
      <trkpt lat="63.57485" lon="13.22882">
        <time>2026-01-30T13:30:00Z</time>
      </trkpt>
      <trkpt lat="63.57831" lon="13.2246">
        <time>2026-01-30T13:40:00Z</time>
      </trkpt>
      <trkpt lat="63.58018" lon="13.21453">
        <time>2026-01-30T13:50:00Z</time>
      </trkpt>
      <trkpt lat="63.58491" lon="13.20138">
        <time>2026-01-30T14:00:00Z</time>
      </trkpt>
      <trkpt lat="63.58902" lon="13.19226">
        <time>2026-01-30T14:10:00Z</time>
      </trkpt>
      <trkpt lat="63.59282" lon="13.18702">
        <time>2026-01-30T14:20:00Z</time>
      </trkpt>
      <trkpt lat="63.59864" lon="13.17732">
        <time>2026-01-30T14:30:00Z</time>
      </trkpt>
      <trkpt lat="63.60161" lon="13.18183">
        <time>2026-01-30T14:40:00Z</time>
      </trkpt>
      <trkpt lat="63.60657" lon="13.19696">
        <time>2026-01-30T14:50:00Z</time>
      </trkpt>
      <trkpt lat="63.61168" lon="13.20803">
        <time>2026-01-30T15:00:00Z</time>
      </trkpt>
      <trkpt lat="63.61566" lon="13.20985">
        <time>2026-01-30T15:10:00Z</time>
      </trkpt>
      <trkpt lat="63.61876" lon="13.2091">
        <time>2026-01-30T15:20:00Z</time>
      </trkpt>
      <trkpt lat="63.62093" lon="13.21361">
        <time>2026-01-30T15:30:00Z</time>
      </trkpt>
      <trkpt lat="63.62447" lon="13.21824">
        <time>2026-01-30T15:40:00Z</time>
      </trkpt>
      <trkpt lat="63.62818" lon="13.2223">
        <time>2026-01-30T15:50:00Z</time>
      </trkpt>
      <trkpt lat="63.63139" lon="13.22348">
        <time>2026-01-30T16:00:00Z</time>
      </trkpt>
      <trkpt lat="63.63164" lon="13.22384">
        <time>2026-01-30T16:03:00Z</time>
      </trkpt>
      <trkpt lat="63.63167" lon="13.22387">
        <time>2026-01-31T08:37:00Z</time>
      </trkpt>
      <trkpt lat="63.63166" lon="13.22382">
        <time>2026-01-31T08:47:00Z</time>
      </trkpt>
      <trkpt lat="63.63535" lon="13.2288">
        <time>2026-01-31T08:57:00Z</time>
      </trkpt>
      <trkpt lat="63.6381" lon="13.23436">
        <time>2026-01-31T09:07:00Z</time>
      </trkpt>
      <trkpt lat="63.63975" lon="13.24425">
        <time>2026-01-31T09:17:00Z</time>
      </trkpt>
      <trkpt lat="63.6394" lon="13.25507">
        <time>2026-01-31T09:27:00Z</time>
      </trkpt>
      <trkpt lat="63.64163" lon="13.27039">
        <time>2026-01-31T09:37:00Z</time>
      </trkpt>
      <trkpt lat="63.64037" lon="13.28886">
        <time>2026-01-31T09:47:00Z</time>
      </trkpt>
      <trkpt lat="63.64367" lon="13.28903">
        <time>2026-01-31T09:57:00Z</time>
      </trkpt>
      <trkpt lat="63.64893" lon="13.28687">
        <time>2026-01-31T10:07:00Z</time>
      </trkpt>
      <trkpt lat="63.65404" lon="13.28571">
        <time>2026-01-31T10:17:00Z</time>
      </trkpt>
      <trkpt lat="63.65964" lon="13.29026">
        <time>2026-01-31T10:27:00Z</time>
      </trkpt>
      <trkpt lat="63.6642" lon="13.28933">
        <time>2026-01-31T10:37:00Z</time>
      </trkpt>
      <trkpt lat="63.66793" lon="13.29742">
        <time>2026-01-31T10:47:00Z</time>
      </trkpt>
      <trkpt lat="63.66964" lon="13.30671">
        <time>2026-01-31T10:57:00Z</time>
      </trkpt>
      <trkpt lat="63.67305" lon="13.31154">
        <time>2026-01-31T11:07:00Z</time>
      </trkpt>
      <trkpt lat="63.67667" lon="13.31691">
        <time>2026-01-31T11:17:00Z</time>
      </trkpt>
      <trkpt lat="63.68098" lon="13.31991">
        <time>2026-01-31T11:27:00Z</time>
      </trkpt>
      <trkpt lat="63.67996" lon="13.33006">
        <time>2026-01-31T11:37:00Z</time>
      </trkpt>
      <trkpt lat="63.68285" lon="13.33602">
        <time>2026-01-31T11:47:00Z</time>
      </trkpt>
      <trkpt lat="63.68398" lon="13.34723">
        <time>2026-01-31T11:57:00Z</time>
      </trkpt>
      <trkpt lat="63.68563" lon="13.3592">
        <time>2026-01-31T12:07:00Z</time>
      </trkpt>
      <trkpt lat="63.68551" lon="13.36212">
        <time>2026-01-31T12:17:00Z</time>
      </trkpt>
      <trkpt lat="63.68722" lon="13.3721">
        <time>2026-01-31T12:27:00Z</time>
      </trkpt>
      <trkpt lat="63.68757" lon="13.38102">
        <time>2026-01-31T12:37:00Z</time>
      </trkpt>
      <trkpt lat="63.6881" lon="13.39482">
        <time>2026-01-31T12:47:00Z</time>
      </trkpt>
      <trkpt lat="63.68901" lon="13.40769">
        <time>2026-01-31T12:57:00Z</time>
      </trkpt>
      <trkpt lat="63.68923" lon="13.42089">
        <time>2026-01-31T13:07:00Z</time>
      </trkpt>
      <trkpt lat="63.68809" lon="13.43211">
        <time>2026-01-31T13:17:00Z</time>
      </trkpt>
      <trkpt lat="63.68802" lon="13.43636">
        <time>2026-01-31T13:27:00Z</time>
      </trkpt>
      <trkpt lat="63.69144" lon="13.44479">
        <time>2026-01-31T13:37:00Z</time>
      </trkpt>
      <trkpt lat="63.69283" lon="13.45655">
        <time>2026-01-31T13:47:00Z</time>
      </trkpt>
      <trkpt lat="63.69192" lon="13.46726">
        <time>2026-01-31T13:57:00Z</time>
      </trkpt>
      <trkpt lat="63.69174" lon="13.47655">
        <time>2026-01-31T14:07:00Z</time>
      </trkpt>
      <trkpt lat="63.68995" lon="13.48818">
        <time>2026-01-31T14:17:00Z</time>
      </trkpt>
      <trkpt lat="63.68977" lon="13.49226">
        <time>2026-01-31T14:27:00Z</time>
      </trkpt>
      <trkpt lat="63.68917" lon="13.5099">
        <time>2026-01-31T14:37:00Z</time>
      </trkpt>
      <trkpt lat="63.6888" lon="13.51781">
        <time>2026-01-31T14:47:00Z</time>
      </trkpt>
      <trkpt lat="63.69078" lon="13.53062">
        <time>2026-01-31T14:57:00Z</time>
      </trkpt>
      <trkpt lat="63.69139" lon="13.54084">
        <time>2026-01-31T15:07:00Z</time>
      </trkpt>
      <trkpt lat="63.69335" lon="13.55247">
        <time>2026-01-31T15:17:00Z</time>
      </trkpt>
      <trkpt lat="63.69343" lon="13.56391">
        <time>2026-01-31T15:27:00Z</time>
      </trkpt>
      <trkpt lat="63.69148" lon="13.57691">
        <time>2026-01-31T15:37:00Z</time>
      </trkpt>
      <trkpt lat="63.69052" lon="13.58856">
        <time>2026-01-31T15:47:00Z</time>
      </trkpt>
      <trkpt lat="63.69381" lon="13.59809">
        <time>2026-01-31T15:57:00Z</time>
      </trkpt>
      <trkpt lat="63.69568" lon="13.60536">
        <time>2026-01-31T16:07:00Z</time>
      </trkpt>
      <trkpt lat="63.69502" lon="13.61987">
        <time>2026-01-31T16:17:00Z</time>
      </trkpt>
      <trkpt lat="63.6964" lon="13.62918">
        <time>2026-01-31T16:27:00Z</time>
      </trkpt>
    </trkseg>
  </trk>
</gpx>
