<?xml version="1.0" encoding="UTF-8"?>
<gpx xmlns="http://www.topografix.com/GPX/1/1" version="1.1" creator="VitaBandet">
  <metadata>
    <name>Helags→Olden · Noah Lund Bovin (undersaker)</name>
  </metadata>
  <wpt lat="62.91196" lon="12.52829">
    <name>Helags</name>
  </wpt>
  <wpt lat="63.69934" lon="13.62922">
    <name>Olden</name>
  </wpt>
  <trk>
    <name>Helags→Olden · Noah Lund Bovin (undersaker)</name>
    <trkseg>
      <trkpt lat="62.91196" lon="12.52829">
        <time>2026-03-05T12:11:00Z</time>
      </trkpt>
      <trkpt lat="62.90271" lon="12.52001">
        <time>2026-03-05T12:21:00Z</time>
      </trkpt>
      <trkpt lat="62.90922" lon="12.52565">
        <time>2026-03-05T12:31:00Z</time>
      </trkpt>
      <trkpt lat="62.91157" lon="12.54108">
        <time>2026-03-05T12:41:00Z</time>
      </trkpt>
      <trkpt lat="62.91029" lon="12.55876">
        <time>2026-03-05T12:51:00Z</time>
      </trkpt>
      <trkpt lat="62.91067" lon="12.57653">
        <time>2026-03-05T13:01:00Z</time>
      </trkpt>
      <trkpt lat="62.91468" lon="12.59252">
        <time>2026-03-05T13:11:00Z</time>
      </trkpt>
      <trkpt lat="62.91743" lon="12.60676">
        <time>2026-03-05T13:21:00Z</time>
      </trkpt>
      <trkpt lat="62.92026" lon="12.61455">
        <time>2026-03-05T13:31:00Z</time>
      </trkpt>
      <trkpt lat="62.92313" lon="12.62176">
        <time>2026-03-05T13:41:00Z</time>
      </trkpt>
      <trkpt lat="62.92699" lon="12.63017">
        <time>2026-03-05T13:51:00Z</time>
      </trkpt>
      <trkpt lat="62.93209" lon="12.63601">
        <time>2026-03-05T14:01:00Z</time>
      </trkpt>
      <trkpt lat="62.93785" lon="12.6412">
        <time>2026-03-05T14:11:00Z</time>
      </trkpt>
      <trkpt lat="62.94377" lon="12.64183">
        <time>2026-03-05T14:21:00Z</time>
      </trkpt>
      <trkpt lat="62.94965" lon="12.64022">
        <time>2026-03-05T14:31:00Z</time>
      </trkpt>
      <trkpt lat="62.95438" lon="12.64095">
        <time>2026-03-05T14:41:00Z</time>
      </trkpt>
      <trkpt lat="62.95904" lon="12.64655">
        <time>2026-03-05T14:51:00Z</time>
      </trkpt>
      <trkpt lat="62.96471" lon="12.65153">
        <time>2026-03-05T15:01:00Z</time>
      </trkpt>
      <trkpt lat="62.97195" lon="12.65588">
        <time>2026-03-05T15:11:00Z</time>
      </trkpt>
      <trkpt lat="62.97584" lon="12.65625">
        <time>2026-03-05T15:19:00Z</time>
      </trkpt>
      <trkpt lat="62.97585" lon="12.65683">
        <time>2026-03-06T07:59:00Z</time>
      </trkpt>
      <trkpt lat="62.98001" lon="12.66708">
        <time>2026-03-06T08:09:00Z</time>
      </trkpt>
      <trkpt lat="62.98389" lon="12.6768">
        <time>2026-03-06T08:19:00Z</time>
      </trkpt>
      <trkpt lat="62.98683" lon="12.68429">
        <time>2026-03-06T08:29:00Z</time>
      </trkpt>
      <trkpt lat="62.99024" lon="12.6945">
        <time>2026-03-06T08:39:00Z</time>
      </trkpt>
      <trkpt lat="62.99279" lon="12.70792">
        <time>2026-03-06T08:49:00Z</time>
      </trkpt>
      <trkpt lat="62.9955" lon="12.72442">
        <time>2026-03-06T08:59:00Z</time>
      </trkpt>
      <trkpt lat="62.99899" lon="12.73755">
        <time>2026-03-06T09:09:00Z</time>
      </trkpt>
      <trkpt lat="63.00326" lon="12.74364">
        <time>2026-03-06T09:19:00Z</time>
      </trkpt>
      <trkpt lat="63.00874" lon="12.74989">
        <time>2026-03-06T09:29:00Z</time>
      </trkpt>
      <trkpt lat="63.01369" lon="12.75587">
        <time>2026-03-06T09:39:00Z</time>
      </trkpt>
      <trkpt lat="63.0184" lon="12.7625">
        <time>2026-03-06T09:49:00Z</time>
      </trkpt>
      <trkpt lat="63.02515" lon="12.766">
        <time>2026-03-06T09:59:00Z</time>
      </trkpt>
      <trkpt lat="63.03053" lon="12.7731">
        <time>2026-03-06T10:09:00Z</time>
      </trkpt>
      <trkpt lat="63.03518" lon="12.78727">
        <time>2026-03-06T10:19:00Z</time>
      </trkpt>
      <trkpt lat="63.03907" lon="12.79452">
        <time>2026-03-06T10:29:00Z</time>
      </trkpt>
      <trkpt lat="63.04546" lon="12.79443">
        <time>2026-03-06T10:39:00Z</time>
      </trkpt>
      <trkpt lat="63.05164" lon="12.79362">
        <time>2026-03-06T10:49:00Z</time>
      </trkpt>
      <trkpt lat="63.05731" lon="12.79512">
        <time>2026-03-06T10:59:00Z</time>
      </trkpt>
      <trkpt lat="63.06318" lon="12.7993">
        <time>2026-03-06T11:09:00Z</time>
      </trkpt>
      <trkpt lat="63.06984" lon="12.80793">
        <time>2026-03-06T11:19:00Z</time>
      </trkpt>
      <trkpt lat="63.0744" lon="12.81287">
        <time>2026-03-06T11:29:00Z</time>
      </trkpt>
      <trkpt lat="63.08012" lon="12.81943">
        <time>2026-03-06T11:39:00Z</time>
      </trkpt>
      <trkpt lat="63.08659" lon="12.81984">
        <time>2026-03-06T11:49:00Z</time>
      </trkpt>
      <trkpt lat="63.09048" lon="12.81684">
        <time>2026-03-06T11:59:00Z</time>
      </trkpt>
      <trkpt lat="63.09473" lon="12.81147">
        <time>2026-03-06T12:09:00Z</time>
      </trkpt>
      <trkpt lat="63.09897" lon="12.81035">
        <time>2026-03-06T12:19:00Z</time>
      </trkpt>
      <trkpt lat="63.11027" lon="12.82168">
        <time>2026-03-06T12:29:00Z</time>
      </trkpt>
      <trkpt lat="63.11189" lon="12.83372">
        <time>2026-03-06T12:39:00Z</time>
      </trkpt>
      <trkpt lat="63.11545" lon="12.84344">
        <time>2026-03-06T12:49:00Z</time>
      </trkpt>
      <trkpt lat="63.1166" lon="12.85816">
        <time>2026-03-06T12:59:00Z</time>
      </trkpt>
      <trkpt lat="63.11997" lon="12.86316">
        <time>2026-03-06T13:09:00Z</time>
      </trkpt>
      <trkpt lat="63.1247" lon="12.86859">
        <time>2026-03-06T13:19:00Z</time>
      </trkpt>
      <trkpt lat="63.13077" lon="12.87269">
        <time>2026-03-06T13:29:00Z</time>
      </trkpt>
      <trkpt lat="63.13395" lon="12.88561">
        <time>2026-03-06T13:39:00Z</time>
      </trkpt>
      <trkpt lat="63.13789" lon="12.89902">
        <time>2026-03-06T13:49:00Z</time>
      </trkpt>
      <trkpt lat="63.14355" lon="12.90355">
        <time>2026-03-06T13:59:00Z</time>
      </trkpt>
      <trkpt lat="63.14896" lon="12.91479">
        <time>2026-03-06T14:09:00Z</time>
      </trkpt>
      <trkpt lat="63.14883" lon="12.92762">
        <time>2026-03-06T14:19:00Z</time>
      </trkpt>
      <trkpt lat="63.14858" lon="12.93743">
        <time>2026-03-06T14:29:00Z</time>
      </trkpt>
      <trkpt lat="63.14534" lon="12.9515">
        <time>2026-03-06T14:39:00Z</time>
      </trkpt>
      <trkpt lat="63.14543" lon="12.95901">
        <time>2026-03-06T14:49:00Z</time>
      </trkpt>
      <trkpt lat="63.14885" lon="12.96631">
        <time>2026-03-06T14:59:00Z</time>
      </trkpt>
      <trkpt lat="63.14881" lon="12.96622">
        <time>2026-03-06T15:08:00Z</time>
      </trkpt>
      <trkpt lat="63.14853" lon="12.96732">
        <time>2026-03-06T19:04:00Z</time>
      </trkpt>
      <trkpt lat="63.14857" lon="12.9668">
        <time>2026-03-07T02:38:00Z</time>
      </trkpt>
      <trkpt lat="63.14885" lon="12.96663">
        <time>2026-03-07T03:07:00Z</time>
      </trkpt>
      <trkpt lat="63.14862" lon="12.96723">
        <time>2026-03-07T07:33:00Z</time>
      </trkpt>
      <trkpt lat="63.14863" lon="12.96712">
        <time>2026-03-07T08:33:00Z</time>
      </trkpt>
      <trkpt lat="63.14896" lon="12.96689">
        <time>2026-03-07T09:28:00Z</time>
      </trkpt>
      <trkpt lat="63.14885" lon="12.96637">
        <time>2026-03-07T09:50:00Z</time>
      </trkpt>
      <trkpt lat="63.14889" lon="12.96655">
        <time>2026-03-07T09:50:00Z</time>
      </trkpt>
      <trkpt lat="63.1494" lon="12.978">
        <time>2026-03-07T10:00:00Z</time>
      </trkpt>
      <trkpt lat="63.15161" lon="12.98828">
        <time>2026-03-07T10:10:00Z</time>
      </trkpt>
      <trkpt lat="63.15374" lon="13.00236">
        <time>2026-03-07T10:20:00Z</time>
      </trkpt>
      <trkpt lat="63.15564" lon="13.01493">
        <time>2026-03-07T10:30:00Z</time>
      </trkpt>
      <trkpt lat="63.15715" lon="13.03034">
        <time>2026-03-07T10:40:00Z</time>
      </trkpt>
      <trkpt lat="63.1602" lon="13.04435">
        <time>2026-03-07T10:50:00Z</time>
      </trkpt>
      <trkpt lat="63.16425" lon="13.05497">
        <time>2026-03-07T11:00:00Z</time>
      </trkpt>
      <trkpt lat="63.16722" lon="13.06126">
        <time>2026-03-07T11:10:00Z</time>
      </trkpt>
      <trkpt lat="63.17147" lon="13.06115">
        <time>2026-03-07T11:20:00Z</time>
      </trkpt>
      <trkpt lat="63.17515" lon="13.06096">
        <time>2026-03-07T11:30:00Z</time>
      </trkpt>
      <trkpt lat="63.18134" lon="13.06444">
        <time>2026-03-07T11:40:00Z</time>
      </trkpt>
      <trkpt lat="63.18634" lon="13.0624">
        <time>2026-03-07T11:50:00Z</time>
      </trkpt>
      <trkpt lat="63.19181" lon="13.05613">
        <time>2026-03-07T12:00:00Z</time>
      </trkpt>
      <trkpt lat="63.19606" lon="13.05422">
        <time>2026-03-07T12:10:00Z</time>
      </trkpt>
      <trkpt lat="63.20153" lon="13.05317">
        <time>2026-03-07T12:20:00Z</time>
      </trkpt>
      <trkpt lat="63.20767" lon="13.05135">
        <time>2026-03-07T12:30:00Z</time>
      </trkpt>
      <trkpt lat="63.20905" lon="13.05615">
        <time>2026-03-07T12:40:00Z</time>
      </trkpt>
      <trkpt lat="63.20907" lon="13.05613">
        <time>2026-03-07T12:50:00Z</time>
      </trkpt>
      <trkpt lat="63.20738" lon="13.06579">
        <time>2026-03-07T13:20:00Z</time>
      </trkpt>
      <trkpt lat="63.20504" lon="13.08171">
        <time>2026-03-07T13:30:00Z</time>
      </trkpt>
      <trkpt lat="63.20478" lon="13.09724">
        <time>2026-03-07T13:40:00Z</time>
      </trkpt>
      <trkpt lat="63.20318" lon="13.11214">
        <time>2026-03-07T13:50:00Z</time>
      </trkpt>
      <trkpt lat="63.20423" lon="13.124">
        <time>2026-03-07T14:00:00Z</time>
      </trkpt>
      <trkpt lat="63.20484" lon="13.13065">
        <time>2026-03-07T14:10:00Z</time>
      </trkpt>
      <trkpt lat="63.20579" lon="13.14514">
        <time>2026-03-07T14:20:00Z</time>
      </trkpt>
      <trkpt lat="63.20604" lon="13.16205">
        <time>2026-03-07T14:30:00Z</time>
      </trkpt>
      <trkpt lat="63.20869" lon="13.17119">
        <time>2026-03-07T14:40:00Z</time>
      </trkpt>
      <trkpt lat="63.21374" lon="13.17078">
        <time>2026-03-07T14:50:00Z</time>
      </trkpt>
      <trkpt lat="63.21922" lon="13.16921">
        <time>2026-03-07T15:00:00Z</time>
      </trkpt>
      <trkpt lat="63.22336" lon="13.18009">
        <time>2026-03-07T15:10:00Z</time>
      </trkpt>
      <trkpt lat="63.22082" lon="13.19161">
        <time>2026-03-07T15:20:00Z</time>
      </trkpt>
      <trkpt lat="63.22326" lon="13.19979">
        <time>2026-03-07T15:30:00Z</time>
      </trkpt>
      <trkpt lat="63.22672" lon="13.2117">
        <time>2026-03-07T15:40:00Z</time>
      </trkpt>
      <trkpt lat="63.22885" lon="13.22065">
        <time>2026-03-07T15:50:00Z</time>
      </trkpt>
      <trkpt lat="63.23305" lon="13.22756">
        <time>2026-03-07T16:00:00Z</time>
      </trkpt>
      <trkpt lat="63.23533" lon="13.24241">
        <time>2026-03-07T16:10:00Z</time>
      </trkpt>
      <trkpt lat="63.23993" lon="13.25496">
        <time>2026-03-07T16:20:00Z</time>
      </trkpt>
      <trkpt lat="63.24434" lon="13.25888">
        <time>2026-03-07T16:30:00Z</time>
      </trkpt>
      <trkpt lat="63.24983" lon="13.26075">
        <time>2026-03-07T16:40:00Z</time>
      </trkpt>
      <trkpt lat="63.25376" lon="13.26599">
        <time>2026-03-07T16:50:00Z</time>
      </trkpt>
      <trkpt lat="63.26007" lon="13.2726">
        <time>2026-03-07T17:00:00Z</time>
      </trkpt>
      <trkpt lat="63.26735" lon="13.27354">
        <time>2026-03-07T17:10:00Z</time>
      </trkpt>
      <trkpt lat="63.27578" lon="13.27294">
        <time>2026-03-07T17:20:00Z</time>
      </trkpt>
      <trkpt lat="63.28232" lon="13.27783">
        <time>2026-03-07T17:30:00Z</time>
      </trkpt>
      <trkpt lat="63.2892" lon="13.26972">
        <time>2026-03-07T17:40:00Z</time>
      </trkpt>
      <trkpt lat="63.30015" lon="13.27723">
        <time>2026-03-07T17:50:00Z</time>
      </trkpt>
      <trkpt lat="63.30338" lon="13.27257">
        <time>2026-03-07T18:00:00Z</time>
      </trkpt>
      <trkpt lat="63.30327" lon="13.2712">
        <time>2026-03-07T18:03:00Z</time>
      </trkpt>
      <trkpt lat="63.30332" lon="13.27139">
        <time>2026-03-08T08:27:00Z</time>
      </trkpt>
      <trkpt lat="63.3033" lon="13.27142">
        <time>2026-03-08T08:28:00Z</time>
      </trkpt>
      <trkpt lat="63.30475" lon="13.27365">
        <time>2026-03-08T08:38:00Z</time>
      </trkpt>
      <trkpt lat="63.30644" lon="13.26077">
        <time>2026-03-08T08:48:00Z</time>
      </trkpt>
      <trkpt lat="63.31014" lon="13.25071">
        <time>2026-03-08T08:58:00Z</time>
      </trkpt>
      <trkpt lat="63.31237" lon="13.23955">
        <time>2026-03-08T09:08:00Z</time>
      </trkpt>
      <trkpt lat="63.31541" lon="13.23539">
        <time>2026-03-08T09:18:00Z</time>
      </trkpt>
      <trkpt lat="63.31794" lon="13.23871">
        <time>2026-03-08T09:28:00Z</time>
      </trkpt>
      <trkpt lat="63.32196" lon="13.24009">
        <time>2026-03-08T09:38:00Z</time>
      </trkpt>
      <trkpt lat="63.32523" lon="13.24253">
        <time>2026-03-08T09:48:00Z</time>
      </trkpt>
      <trkpt lat="63.32932" lon="13.24627">
        <time>2026-03-08T09:58:00Z</time>
      </trkpt>
      <trkpt lat="63.33156" lon="13.25764">
        <time>2026-03-08T10:08:00Z</time>
      </trkpt>
      <trkpt lat="63.33477" lon="13.26333">
        <time>2026-03-08T10:18:00Z</time>
      </trkpt>
      <trkpt lat="63.34004" lon="13.26571">
        <time>2026-03-08T10:28:00Z</time>
      </trkpt>
      <trkpt lat="63.34734" lon="13.26423">
        <time>2026-03-08T10:38:00Z</time>
      </trkpt>
      <trkpt lat="63.35298" lon="13.26163">
        <time>2026-03-08T10:48:00Z</time>
      </trkpt>
      <trkpt lat="63.35768" lon="13.25758">
        <time>2026-03-08T10:58:00Z</time>
      </trkpt>
      <trkpt lat="63.35962" lon="13.25137">
        <time>2026-03-08T11:08:00Z</time>
      </trkpt>
      <trkpt lat="63.36358" lon="13.24249">
        <time>2026-03-08T11:18:00Z</time>
      </trkpt>
      <trkpt lat="63.36819" lon="13.23288">
        <time>2026-03-08T11:28:00Z</time>
      </trkpt>
      <trkpt lat="63.37465" lon="13.22322">
        <time>2026-03-08T11:38:00Z</time>
      </trkpt>
      <trkpt lat="63.37899" lon="13.22013">
        <time>2026-03-08T11:48:00Z</time>
      </trkpt>
      <trkpt lat="63.38244" lon="13.21747">
        <time>2026-03-08T11:58:00Z</time>
      </trkpt>
      <trkpt lat="63.3847" lon="13.21584">
        <time>2026-03-08T12:08:00Z</time>
      </trkpt>
      <trkpt lat="63.38952" lon="13.2102">
        <time>2026-03-08T12:18:00Z</time>
      </trkpt>
      <trkpt lat="63.39309" lon="13.20013">
        <time>2026-03-08T12:28:00Z</time>
      </trkpt>
      <trkpt lat="63.39747" lon="13.19322">
        <time>2026-03-08T12:38:00Z</time>
      </trkpt>
      <trkpt lat="63.4011" lon="13.20254">
        <time>2026-03-08T12:48:00Z</time>
      </trkpt>
      <trkpt lat="63.40263" lon="13.20788">
        <time>2026-03-08T12:58:00Z</time>
      </trkpt>
      <trkpt lat="63.40428" lon="13.21003">
        <time>2026-03-08T13:08:00Z</time>
      </trkpt>
      <trkpt lat="63.40653" lon="13.21912">
        <time>2026-03-08T13:18:00Z</time>
      </trkpt>
      <trkpt lat="63.40907" lon="13.2238">
        <time>2026-03-08T13:28:00Z</time>
      </trkpt>
      <trkpt lat="63.41585" lon="13.22565">
        <time>2026-03-08T13:38:00Z</time>
      </trkpt>
      <trkpt lat="63.42384" lon="13.22438">
        <time>2026-03-08T13:48:00Z</time>
      </trkpt>
      <trkpt lat="63.42824" lon="13.2256">
        <time>2026-03-08T13:58:00Z</time>
      </trkpt>
      <trkpt lat="63.43375" lon="13.22213">
        <time>2026-03-08T14:08:00Z</time>
      </trkpt>
      <trkpt lat="63.43543" lon="13.22318">
        <time>2026-03-08T14:18:00Z</time>
      </trkpt>
      <trkpt lat="63.43942" lon="13.21719">
        <time>2026-03-08T14:28:00Z</time>
      </trkpt>
      <trkpt lat="63.44308" lon="13.22749">
        <time>2026-03-08T14:38:00Z</time>
      </trkpt>
      <trkpt lat="63.4482" lon="13.22002">
        <time>2026-03-08T14:48:00Z</time>
      </trkpt>
      <trkpt lat="63.45142" lon="13.2087">
        <time>2026-03-08T14:58:00Z</time>
      </trkpt>
      <trkpt lat="63.45399" lon="13.19966">
        <time>2026-03-08T15:08:00Z</time>
      </trkpt>
      <trkpt lat="63.45521" lon="13.2087">
        <time>2026-03-08T15:18:00Z</time>
      </trkpt>
      <trkpt lat="63.46093" lon="13.21316">
        <time>2026-03-08T15:28:00Z</time>
      </trkpt>
      <trkpt lat="63.46615" lon="13.21503">
        <time>2026-03-08T15:38:00Z</time>
      </trkpt>
      <trkpt lat="63.46618" lon="13.21503">
        <time>2026-03-08T15:48:00Z</time>
      </trkpt>
      <trkpt lat="63.46615" lon="13.21492">
        <time>2026-03-08T16:00:00Z</time>
      </trkpt>
      <trkpt lat="63.46608" lon="13.21503">
        <time>2026-03-09T07:57:00Z</time>
      </trkpt>
      <trkpt lat="63.46606" lon="13.21503">
        <time>2026-03-09T07:57:00Z</time>
      </trkpt>
      <trkpt lat="63.46851" lon="13.22301">
        <time>2026-03-09T08:07:00Z</time>
      </trkpt>
      <trkpt lat="63.471" lon="13.22605">
        <time>2026-03-09T08:17:00Z</time>
      </trkpt>
      <trkpt lat="63.47368" lon="13.23026">
        <time>2026-03-09T08:27:00Z</time>
      </trkpt>
      <trkpt lat="63.47572" lon="13.23429">
        <time>2026-03-09T08:37:00Z</time>
      </trkpt>
      <trkpt lat="63.47867" lon="13.2423">
        <time>2026-03-09T08:47:00Z</time>
      </trkpt>
      <trkpt lat="63.48391" lon="13.24633">
        <time>2026-03-09T08:57:00Z</time>
      </trkpt>
      <trkpt lat="63.48764" lon="13.24676">
        <time>2026-03-09T09:07:00Z</time>
      </trkpt>
      <trkpt lat="63.49256" lon="13.24781">
        <time>2026-03-09T09:17:00Z</time>
      </trkpt>
      <trkpt lat="63.49908" lon="13.24826">
        <time>2026-03-09T09:27:00Z</time>
      </trkpt>
      <trkpt lat="63.50466" lon="13.24659">
        <time>2026-03-09T09:37:00Z</time>
      </trkpt>
      <trkpt lat="63.51091" lon="13.24771">
        <time>2026-03-09T09:47:00Z</time>
      </trkpt>
      <trkpt lat="63.51669" lon="13.25341">
        <time>2026-03-09T09:57:00Z</time>
      </trkpt>
      <trkpt lat="63.51889" lon="13.2529">
        <time>2026-03-09T10:07:00Z</time>
      </trkpt>
      <trkpt lat="63.5214" lon="13.25968">
        <time>2026-03-09T10:17:00Z</time>
      </trkpt>
      <trkpt lat="63.52672" lon="13.25876">
        <time>2026-03-09T10:27:00Z</time>
      </trkpt>
      <trkpt lat="63.53227" lon="13.26227">
        <time>2026-03-09T10:37:00Z</time>
      </trkpt>
      <trkpt lat="63.53617" lon="13.26305">
        <time>2026-03-09T10:47:00Z</time>
      </trkpt>
      <trkpt lat="63.53829" lon="13.26283">
        <time>2026-03-09T10:57:00Z</time>
      </trkpt>
      <trkpt lat="63.54224" lon="13.26532">
        <time>2026-03-09T11:07:00Z</time>
      </trkpt>
      <trkpt lat="63.54815" lon="13.26361">
        <time>2026-03-09T11:17:00Z</time>
      </trkpt>
      <trkpt lat="63.55021" lon="13.25893">
        <time>2026-03-09T11:27:00Z</time>
      </trkpt>
      <trkpt lat="63.55321" lon="13.25449">
        <time>2026-03-09T11:37:00Z</time>
      </trkpt>
      <trkpt lat="63.55774" lon="13.2506">
        <time>2026-03-09T11:47:00Z</time>
      </trkpt>
      <trkpt lat="63.56174" lon="13.25414">
        <time>2026-03-09T11:57:00Z</time>
      </trkpt>
      <trkpt lat="63.56663" lon="13.24818">
        <time>2026-03-09T12:07:00Z</time>
      </trkpt>
      <trkpt lat="63.56923" lon="13.24135">
        <time>2026-03-09T12:17:00Z</time>
      </trkpt>
      <trkpt lat="63.57401" lon="13.23105">
        <time>2026-03-09T12:27:00Z</time>
      </trkpt>
      <trkpt lat="63.57863" lon="13.22262">
        <time>2026-03-09T12:37:00Z</time>
      </trkpt>
      <trkpt lat="63.57959" lon="13.21505">
        <time>2026-03-09T12:47:00Z</time>
      </trkpt>
      <trkpt lat="63.58229" lon="13.20773">
        <time>2026-03-09T12:57:00Z</time>
      </trkpt>
      <trkpt lat="63.58694" lon="13.19805">
        <time>2026-03-09T13:07:00Z</time>
      </trkpt>
      <trkpt lat="63.59211" lon="13.18837">
        <time>2026-03-09T13:17:00Z</time>
      </trkpt>
      <trkpt lat="63.59892" lon="13.17752">
        <time>2026-03-09T13:27:00Z</time>
      </trkpt>
      <trkpt lat="63.60142" lon="13.18005">
        <time>2026-03-09T13:37:00Z</time>
      </trkpt>
      <trkpt lat="63.60483" lon="13.19387">
        <time>2026-03-09T13:47:00Z</time>
      </trkpt>
      <trkpt lat="63.61073" lon="13.20425">
        <time>2026-03-09T13:57:00Z</time>
      </trkpt>
      <trkpt lat="63.61478" lon="13.21131">
        <time>2026-03-09T14:07:00Z</time>
      </trkpt>
      <trkpt lat="63.61769" lon="13.21041">
        <time>2026-03-09T14:17:00Z</time>
      </trkpt>
      <trkpt lat="63.62242" lon="13.21616">
        <time>2026-03-09T14:27:00Z</time>
      </trkpt>
      <trkpt lat="63.62626" lon="13.22138">
        <time>2026-03-09T14:37:00Z</time>
      </trkpt>
      <trkpt lat="63.63176" lon="13.22404">
        <time>2026-03-09T14:47:00Z</time>
      </trkpt>
      <trkpt lat="63.63737" lon="13.23215">
        <time>2026-03-09T14:57:00Z</time>
      </trkpt>
      <trkpt lat="63.63972" lon="13.24337">
        <time>2026-03-09T15:07:00Z</time>
      </trkpt>
      <trkpt lat="63.63902" lon="13.26004">
        <time>2026-03-09T15:17:00Z</time>
      </trkpt>
      <trkpt lat="63.64025" lon="13.26575">
        <time>2026-03-09T15:27:00Z</time>
      </trkpt>
      <trkpt lat="63.64094" lon="13.28358">
        <time>2026-03-09T15:37:00Z</time>
      </trkpt>
      <trkpt lat="63.64567" lon="13.28837">
        <time>2026-03-09T15:47:00Z</time>
      </trkpt>
      <trkpt lat="63.65439" lon="13.28594">
        <time>2026-03-09T15:57:00Z</time>
      </trkpt>
      <trkpt lat="63.66078" lon="13.28742">
        <time>2026-03-09T16:07:00Z</time>
      </trkpt>
      <trkpt lat="63.66753" lon="13.29644">
        <time>2026-03-09T16:17:00Z</time>
      </trkpt>
      <trkpt lat="63.6714" lon="13.30798">
        <time>2026-03-09T16:27:00Z</time>
      </trkpt>
      <trkpt lat="63.67784" lon="13.31673">
        <time>2026-03-09T16:37:00Z</time>
      </trkpt>
      <trkpt lat="63.6802" lon="13.32815">
        <time>2026-03-09T16:47:00Z</time>
      </trkpt>
      <trkpt lat="63.68259" lon="13.34066">
        <time>2026-03-09T16:57:00Z</time>
      </trkpt>
      <trkpt lat="63.68488" lon="13.35418">
        <time>2026-03-09T17:07:00Z</time>
      </trkpt>
      <trkpt lat="63.68554" lon="13.36671">
        <time>2026-03-09T17:17:00Z</time>
      </trkpt>
      <trkpt lat="63.68769" lon="13.38072">
        <time>2026-03-09T17:27:00Z</time>
      </trkpt>
      <trkpt lat="63.68853" lon="13.39928">
        <time>2026-03-09T17:37:00Z</time>
      </trkpt>
      <trkpt lat="63.69033" lon="13.41053">
        <time>2026-03-09T17:45:00Z</time>
      </trkpt>
      <trkpt lat="63.69044" lon="13.41031">
        <time>2026-03-10T07:35:00Z</time>
      </trkpt>
      <trkpt lat="63.68922" lon="13.41988">
        <time>2026-03-10T07:45:00Z</time>
      </trkpt>
      <trkpt lat="63.68792" lon="13.43293">
        <time>2026-03-10T07:55:00Z</time>
      </trkpt>
      <trkpt lat="63.68963" lon="13.44095">
        <time>2026-03-10T08:05:00Z</time>
      </trkpt>
      <trkpt lat="63.69375" lon="13.45312">
        <time>2026-03-10T08:15:00Z</time>
      </trkpt>
      <trkpt lat="63.69204" lon="13.46657">
        <time>2026-03-10T08:25:00Z</time>
      </trkpt>
      <trkpt lat="63.69067" lon="13.48228">
        <time>2026-03-10T08:35:00Z</time>
      </trkpt>
      <trkpt lat="63.69014" lon="13.49612">
        <time>2026-03-10T08:45:00Z</time>
      </trkpt>
      <trkpt lat="63.68823" lon="13.51181">
        <time>2026-03-10T08:55:00Z</time>
      </trkpt>
      <trkpt lat="63.69096" lon="13.52326">
        <time>2026-03-10T09:05:00Z</time>
      </trkpt>
      <trkpt lat="63.69277" lon="13.53337">
        <time>2026-03-10T09:15:00Z</time>
      </trkpt>
      <trkpt lat="63.69296" lon="13.54852">
        <time>2026-03-10T09:25:00Z</time>
      </trkpt>
      <trkpt lat="63.69347" lon="13.56277">
        <time>2026-03-10T09:35:00Z</time>
      </trkpt>
      <trkpt lat="63.69106" lon="13.58002">
        <time>2026-03-10T09:45:00Z</time>
      </trkpt>
      <trkpt lat="63.69299" lon="13.59622">
        <time>2026-03-10T09:55:00Z</time>
      </trkpt>
      <trkpt lat="63.69548" lon="13.61043">
        <time>2026-03-10T10:05:00Z</time>
      </trkpt>
      <trkpt lat="63.69599" lon="13.62706">
        <time>2026-03-10T10:15:00Z</time>
      </trkpt>
      <trkpt lat="63.69934" lon="13.62922">
        <time>2026-03-10T10:25:00Z</time>
      </trkpt>
    </trkseg>
  </trk>
</gpx>
