<?xml version="1.0" encoding="UTF-8"?>
<gpx xmlns="http://www.topografix.com/GPX/1/1" version="1.1" creator="VitaBandet">
  <metadata>
    <name>Helags→Olden · Christian Kämmer (undersaker)</name>
  </metadata>
  <wpt lat="62.90443" lon="12.52141">
    <name>Helags</name>
  </wpt>
  <wpt lat="63.7025" lon="13.60603">
    <name>Olden</name>
  </wpt>
  <trk>
    <name>Helags→Olden · Christian Kämmer (undersaker)</name>
    <trkseg>
      <trkpt lat="62.90443" lon="12.52141">
        <time>2023-03-10T10:33:00Z</time>
      </trkpt>
      <trkpt lat="62.90443" lon="12.52141">
        <time>2023-03-10T10:33:00Z</time>
      </trkpt>
      <trkpt lat="62.91111" lon="12.5445">
        <time>2023-03-10T10:43:00Z</time>
      </trkpt>
      <trkpt lat="62.91111" lon="12.5445">
        <time>2023-03-10T10:43:00Z</time>
      </trkpt>
      <trkpt lat="62.91093" lon="12.57795">
        <time>2023-03-10T10:53:00Z</time>
      </trkpt>
      <trkpt lat="62.91093" lon="12.57795">
        <time>2023-03-10T10:53:00Z</time>
      </trkpt>
      <trkpt lat="62.91676" lon="12.60252">
        <time>2023-03-10T11:03:00Z</time>
      </trkpt>
      <trkpt lat="62.91676" lon="12.60252">
        <time>2023-03-10T11:03:00Z</time>
      </trkpt>
      <trkpt lat="62.92146" lon="12.61711">
        <time>2023-03-10T11:13:00Z</time>
      </trkpt>
      <trkpt lat="62.92146" lon="12.61711">
        <time>2023-03-10T11:13:00Z</time>
      </trkpt>
      <trkpt lat="62.92631" lon="12.62932">
        <time>2023-03-10T11:23:00Z</time>
      </trkpt>
      <trkpt lat="62.92631" lon="12.62932">
        <time>2023-03-10T11:23:00Z</time>
      </trkpt>
      <trkpt lat="62.9297" lon="12.63331">
        <time>2023-03-10T11:33:00Z</time>
      </trkpt>
      <trkpt lat="62.9297" lon="12.63331">
        <time>2023-03-10T11:33:00Z</time>
      </trkpt>
      <trkpt lat="62.93802" lon="12.64097">
        <time>2023-03-10T11:43:00Z</time>
      </trkpt>
      <trkpt lat="62.93802" lon="12.64097">
        <time>2023-03-10T11:43:00Z</time>
      </trkpt>
      <trkpt lat="62.93941" lon="12.64125">
        <time>2023-03-10T11:53:00Z</time>
      </trkpt>
      <trkpt lat="62.93941" lon="12.64125">
        <time>2023-03-10T11:53:00Z</time>
      </trkpt>
      <trkpt lat="62.94826" lon="12.64046">
        <time>2023-03-10T12:03:00Z</time>
      </trkpt>
      <trkpt lat="62.94826" lon="12.64046">
        <time>2023-03-10T12:03:00Z</time>
      </trkpt>
      <trkpt lat="62.95624" lon="12.64327">
        <time>2023-03-10T12:13:00Z</time>
      </trkpt>
      <trkpt lat="62.95624" lon="12.64327">
        <time>2023-03-10T12:13:00Z</time>
      </trkpt>
      <trkpt lat="62.96233" lon="12.65031">
        <time>2023-03-10T12:23:00Z</time>
      </trkpt>
      <trkpt lat="62.96233" lon="12.65031">
        <time>2023-03-10T12:23:00Z</time>
      </trkpt>
      <trkpt lat="62.96955" lon="12.65402">
        <time>2023-03-10T12:33:00Z</time>
      </trkpt>
      <trkpt lat="62.96955" lon="12.65402">
        <time>2023-03-10T12:33:00Z</time>
      </trkpt>
      <trkpt lat="62.97587" lon="12.65681">
        <time>2023-03-10T12:43:00Z</time>
      </trkpt>
      <trkpt lat="62.97587" lon="12.65681">
        <time>2023-03-10T12:43:00Z</time>
      </trkpt>
      <trkpt lat="62.97559" lon="12.65657">
        <time>2023-03-10T12:55:00Z</time>
      </trkpt>
      <trkpt lat="62.97559" lon="12.65657">
        <time>2023-03-10T12:55:00Z</time>
      </trkpt>
      <trkpt lat="62.97672" lon="12.65904">
        <time>2023-03-10T13:25:00Z</time>
      </trkpt>
      <trkpt lat="62.97672" lon="12.65904">
        <time>2023-03-10T13:25:00Z</time>
      </trkpt>
      <trkpt lat="62.98128" lon="12.6708">
        <time>2023-03-10T13:35:00Z</time>
      </trkpt>
      <trkpt lat="62.98128" lon="12.6708">
        <time>2023-03-10T13:35:00Z</time>
      </trkpt>
      <trkpt lat="62.9853" lon="12.68005">
        <time>2023-03-10T13:45:00Z</time>
      </trkpt>
      <trkpt lat="62.9853" lon="12.68005">
        <time>2023-03-10T13:45:00Z</time>
      </trkpt>
      <trkpt lat="62.98879" lon="12.68957">
        <time>2023-03-10T13:55:00Z</time>
      </trkpt>
      <trkpt lat="62.98879" lon="12.68957">
        <time>2023-03-10T13:55:00Z</time>
      </trkpt>
      <trkpt lat="62.99129" lon="12.69887">
        <time>2023-03-10T14:05:00Z</time>
      </trkpt>
      <trkpt lat="62.99129" lon="12.69887">
        <time>2023-03-10T14:05:00Z</time>
      </trkpt>
      <trkpt lat="62.99207" lon="12.70305">
        <time>2023-03-10T14:15:00Z</time>
      </trkpt>
      <trkpt lat="62.99207" lon="12.70305">
        <time>2023-03-10T14:15:00Z</time>
      </trkpt>
      <trkpt lat="62.99501" lon="12.72146">
        <time>2023-03-10T14:25:00Z</time>
      </trkpt>
      <trkpt lat="62.99501" lon="12.72146">
        <time>2023-03-10T14:25:00Z</time>
      </trkpt>
      <trkpt lat="62.99955" lon="12.73781">
        <time>2023-03-10T14:35:00Z</time>
      </trkpt>
      <trkpt lat="62.99955" lon="12.73781">
        <time>2023-03-10T14:35:00Z</time>
      </trkpt>
      <trkpt lat="63.008" lon="12.74893">
        <time>2023-03-10T14:45:00Z</time>
      </trkpt>
      <trkpt lat="63.008" lon="12.74893">
        <time>2023-03-10T14:45:00Z</time>
      </trkpt>
      <trkpt lat="63.01636" lon="12.75792">
        <time>2023-03-10T14:55:00Z</time>
      </trkpt>
      <trkpt lat="63.01636" lon="12.75792">
        <time>2023-03-10T14:55:00Z</time>
      </trkpt>
      <trkpt lat="63.02636" lon="12.76757">
        <time>2023-03-10T15:05:00Z</time>
      </trkpt>
      <trkpt lat="63.02636" lon="12.76757">
        <time>2023-03-10T15:05:00Z</time>
      </trkpt>
      <trkpt lat="63.0339" lon="12.78255">
        <time>2023-03-10T15:15:00Z</time>
      </trkpt>
      <trkpt lat="63.0339" lon="12.78255">
        <time>2023-03-10T15:15:00Z</time>
      </trkpt>
      <trkpt lat="63.03861" lon="12.79465">
        <time>2023-03-10T15:25:00Z</time>
      </trkpt>
      <trkpt lat="63.03861" lon="12.79465">
        <time>2023-03-10T15:25:00Z</time>
      </trkpt>
      <trkpt lat="63.04042" lon="12.79974">
        <time>2023-03-10T15:35:00Z</time>
      </trkpt>
      <trkpt lat="63.04042" lon="12.79974">
        <time>2023-03-10T15:35:00Z</time>
      </trkpt>
      <trkpt lat="63.04044" lon="12.79942">
        <time>2023-03-10T15:49:00Z</time>
      </trkpt>
      <trkpt lat="63.04044" lon="12.79942">
        <time>2023-03-10T15:49:00Z</time>
      </trkpt>
      <trkpt lat="63.04097" lon="12.80021">
        <time>2023-03-11T08:02:00Z</time>
      </trkpt>
      <trkpt lat="63.04097" lon="12.80021">
        <time>2023-03-11T08:02:00Z</time>
      </trkpt>
      <trkpt lat="63.04789" lon="12.79431">
        <time>2023-03-11T08:12:00Z</time>
      </trkpt>
      <trkpt lat="63.04789" lon="12.79431">
        <time>2023-03-11T08:12:00Z</time>
      </trkpt>
      <trkpt lat="63.05683" lon="12.79461">
        <time>2023-03-11T08:22:00Z</time>
      </trkpt>
      <trkpt lat="63.05683" lon="12.79461">
        <time>2023-03-11T08:22:00Z</time>
      </trkpt>
      <trkpt lat="63.06636" lon="12.8045">
        <time>2023-03-11T08:32:00Z</time>
      </trkpt>
      <trkpt lat="63.06636" lon="12.8045">
        <time>2023-03-11T08:32:00Z</time>
      </trkpt>
      <trkpt lat="63.0726" lon="12.81107">
        <time>2023-03-11T08:42:00Z</time>
      </trkpt>
      <trkpt lat="63.0726" lon="12.81107">
        <time>2023-03-11T08:42:00Z</time>
      </trkpt>
      <trkpt lat="63.07731" lon="12.81759">
        <time>2023-03-11T08:52:00Z</time>
      </trkpt>
      <trkpt lat="63.07731" lon="12.81759">
        <time>2023-03-11T08:52:00Z</time>
      </trkpt>
      <trkpt lat="63.0857" lon="12.81997">
        <time>2023-03-11T09:02:00Z</time>
      </trkpt>
      <trkpt lat="63.0857" lon="12.81997">
        <time>2023-03-11T09:02:00Z</time>
      </trkpt>
      <trkpt lat="63.09158" lon="12.81553">
        <time>2023-03-11T09:12:00Z</time>
      </trkpt>
      <trkpt lat="63.09158" lon="12.81553">
        <time>2023-03-11T09:12:00Z</time>
      </trkpt>
      <trkpt lat="63.10412" lon="12.81422">
        <time>2023-03-11T09:22:00Z</time>
      </trkpt>
      <trkpt lat="63.10412" lon="12.81422">
        <time>2023-03-11T09:22:00Z</time>
      </trkpt>
      <trkpt lat="63.11192" lon="12.82596">
        <time>2023-03-11T09:32:00Z</time>
      </trkpt>
      <trkpt lat="63.11192" lon="12.82596">
        <time>2023-03-11T09:32:00Z</time>
      </trkpt>
      <trkpt lat="63.11658" lon="12.85587">
        <time>2023-03-11T09:42:00Z</time>
      </trkpt>
      <trkpt lat="63.11658" lon="12.85587">
        <time>2023-03-11T09:42:00Z</time>
      </trkpt>
      <trkpt lat="63.12722" lon="12.87081">
        <time>2023-03-11T09:52:00Z</time>
      </trkpt>
      <trkpt lat="63.12722" lon="12.87081">
        <time>2023-03-11T09:52:00Z</time>
      </trkpt>
      <trkpt lat="63.13392" lon="12.88385">
        <time>2023-03-11T10:02:00Z</time>
      </trkpt>
      <trkpt lat="63.13392" lon="12.88385">
        <time>2023-03-11T10:02:00Z</time>
      </trkpt>
      <trkpt lat="63.13893" lon="12.90018">
        <time>2023-03-11T10:12:00Z</time>
      </trkpt>
      <trkpt lat="63.13893" lon="12.90018">
        <time>2023-03-11T10:12:00Z</time>
      </trkpt>
      <trkpt lat="63.14848" lon="12.92033">
        <time>2023-03-11T10:22:00Z</time>
      </trkpt>
      <trkpt lat="63.14848" lon="12.92033">
        <time>2023-03-11T10:22:00Z</time>
      </trkpt>
      <trkpt lat="63.1476" lon="12.94417">
        <time>2023-03-11T10:32:00Z</time>
      </trkpt>
      <trkpt lat="63.1476" lon="12.94417">
        <time>2023-03-11T10:32:00Z</time>
      </trkpt>
      <trkpt lat="63.14728" lon="12.96415">
        <time>2023-03-11T10:42:00Z</time>
      </trkpt>
      <trkpt lat="63.14728" lon="12.96415">
        <time>2023-03-11T10:42:00Z</time>
      </trkpt>
      <trkpt lat="63.14881" lon="12.96631">
        <time>2023-03-11T10:52:00Z</time>
      </trkpt>
      <trkpt lat="63.14881" lon="12.96631">
        <time>2023-03-11T10:52:00Z</time>
      </trkpt>
      <trkpt lat="63.14898" lon="12.96629">
        <time>2023-03-11T11:08:00Z</time>
      </trkpt>
      <trkpt lat="63.14898" lon="12.96629">
        <time>2023-03-11T11:08:00Z</time>
      </trkpt>
      <trkpt lat="63.151" lon="12.98515">
        <time>2023-03-11T13:18:00Z</time>
      </trkpt>
      <trkpt lat="63.151" lon="12.98515">
        <time>2023-03-11T13:18:00Z</time>
      </trkpt>
      <trkpt lat="63.15403" lon="13.00824">
        <time>2023-03-11T13:28:00Z</time>
      </trkpt>
      <trkpt lat="63.15403" lon="13.00824">
        <time>2023-03-11T13:28:00Z</time>
      </trkpt>
      <trkpt lat="63.15839" lon="13.03914">
        <time>2023-03-11T13:38:00Z</time>
      </trkpt>
      <trkpt lat="63.15839" lon="13.03914">
        <time>2023-03-11T13:38:00Z</time>
      </trkpt>
      <trkpt lat="63.16627" lon="13.05496">
        <time>2023-03-11T13:48:00Z</time>
      </trkpt>
      <trkpt lat="63.16627" lon="13.05496">
        <time>2023-03-11T13:48:00Z</time>
      </trkpt>
      <trkpt lat="63.1738" lon="13.06077">
        <time>2023-03-11T13:58:00Z</time>
      </trkpt>
      <trkpt lat="63.1738" lon="13.06077">
        <time>2023-03-11T13:58:00Z</time>
      </trkpt>
      <trkpt lat="63.18635" lon="13.06247">
        <time>2023-03-11T14:08:00Z</time>
      </trkpt>
      <trkpt lat="63.18635" lon="13.06247">
        <time>2023-03-11T14:08:00Z</time>
      </trkpt>
      <trkpt lat="63.1919" lon="13.05579">
        <time>2023-03-11T14:18:00Z</time>
      </trkpt>
      <trkpt lat="63.1919" lon="13.05579">
        <time>2023-03-11T14:18:00Z</time>
      </trkpt>
      <trkpt lat="63.19422" lon="13.05283">
        <time>2023-03-11T14:28:00Z</time>
      </trkpt>
      <trkpt lat="63.19422" lon="13.05283">
        <time>2023-03-11T14:28:00Z</time>
      </trkpt>
      <trkpt lat="63.20198" lon="13.0509">
        <time>2023-03-11T14:38:00Z</time>
      </trkpt>
      <trkpt lat="63.20198" lon="13.0509">
        <time>2023-03-11T14:38:00Z</time>
      </trkpt>
      <trkpt lat="63.20238" lon="13.07519">
        <time>2023-03-11T14:48:00Z</time>
      </trkpt>
      <trkpt lat="63.20238" lon="13.07519">
        <time>2023-03-11T14:48:00Z</time>
      </trkpt>
      <trkpt lat="63.20369" lon="13.09828">
        <time>2023-03-11T14:58:00Z</time>
      </trkpt>
      <trkpt lat="63.20369" lon="13.09828">
        <time>2023-03-11T14:58:00Z</time>
      </trkpt>
      <trkpt lat="63.20328" lon="13.1157">
        <time>2023-03-11T15:08:00Z</time>
      </trkpt>
      <trkpt lat="63.20328" lon="13.1157">
        <time>2023-03-11T15:08:00Z</time>
      </trkpt>
      <trkpt lat="63.20419" lon="13.1354">
        <time>2023-03-11T15:18:00Z</time>
      </trkpt>
      <trkpt lat="63.20419" lon="13.1354">
        <time>2023-03-11T15:18:00Z</time>
      </trkpt>
      <trkpt lat="63.20603" lon="13.16038">
        <time>2023-03-11T15:28:00Z</time>
      </trkpt>
      <trkpt lat="63.20603" lon="13.16038">
        <time>2023-03-11T15:28:00Z</time>
      </trkpt>
      <trkpt lat="63.20626" lon="13.16166">
        <time>2023-03-11T15:34:00Z</time>
      </trkpt>
      <trkpt lat="63.20626" lon="13.16166">
        <time>2023-03-11T15:34:00Z</time>
      </trkpt>
      <trkpt lat="63.20637" lon="13.16235">
        <time>2023-03-12T09:26:00Z</time>
      </trkpt>
      <trkpt lat="63.20637" lon="13.16235">
        <time>2023-03-12T09:26:00Z</time>
      </trkpt>
      <trkpt lat="63.20872" lon="13.17169">
        <time>2023-03-12T09:36:00Z</time>
      </trkpt>
      <trkpt lat="63.20872" lon="13.17169">
        <time>2023-03-12T09:36:00Z</time>
      </trkpt>
      <trkpt lat="63.21745" lon="13.17057">
        <time>2023-03-12T09:46:00Z</time>
      </trkpt>
      <trkpt lat="63.21745" lon="13.17057">
        <time>2023-03-12T09:46:00Z</time>
      </trkpt>
      <trkpt lat="63.22335" lon="13.18048">
        <time>2023-03-12T09:56:00Z</time>
      </trkpt>
      <trkpt lat="63.22335" lon="13.18048">
        <time>2023-03-12T09:56:00Z</time>
      </trkpt>
      <trkpt lat="63.22073" lon="13.19553">
        <time>2023-03-12T10:06:00Z</time>
      </trkpt>
      <trkpt lat="63.22073" lon="13.19553">
        <time>2023-03-12T10:06:00Z</time>
      </trkpt>
      <trkpt lat="63.22085" lon="13.201">
        <time>2023-03-12T10:16:00Z</time>
      </trkpt>
      <trkpt lat="63.22085" lon="13.201">
        <time>2023-03-12T10:16:00Z</time>
      </trkpt>
      <trkpt lat="63.22693" lon="13.209">
        <time>2023-03-12T10:26:00Z</time>
      </trkpt>
      <trkpt lat="63.22693" lon="13.209">
        <time>2023-03-12T10:26:00Z</time>
      </trkpt>
      <trkpt lat="63.23129" lon="13.22462">
        <time>2023-03-12T10:36:00Z</time>
      </trkpt>
      <trkpt lat="63.23129" lon="13.22462">
        <time>2023-03-12T10:36:00Z</time>
      </trkpt>
      <trkpt lat="63.23565" lon="13.24434">
        <time>2023-03-12T10:46:00Z</time>
      </trkpt>
      <trkpt lat="63.23565" lon="13.24434">
        <time>2023-03-12T10:46:00Z</time>
      </trkpt>
      <trkpt lat="63.24078" lon="13.25754">
        <time>2023-03-12T10:56:00Z</time>
      </trkpt>
      <trkpt lat="63.24078" lon="13.25754">
        <time>2023-03-12T10:56:00Z</time>
      </trkpt>
      <trkpt lat="63.2448" lon="13.25889">
        <time>2023-03-12T11:06:00Z</time>
      </trkpt>
      <trkpt lat="63.2448" lon="13.25889">
        <time>2023-03-12T11:06:00Z</time>
      </trkpt>
      <trkpt lat="63.25061" lon="13.26279">
        <time>2023-03-12T11:16:00Z</time>
      </trkpt>
      <trkpt lat="63.25061" lon="13.26279">
        <time>2023-03-12T11:16:00Z</time>
      </trkpt>
      <trkpt lat="63.25474" lon="13.26749">
        <time>2023-03-12T11:26:00Z</time>
      </trkpt>
      <trkpt lat="63.25474" lon="13.26749">
        <time>2023-03-12T11:26:00Z</time>
      </trkpt>
      <trkpt lat="63.25931" lon="13.27086">
        <time>2023-03-12T11:36:00Z</time>
      </trkpt>
      <trkpt lat="63.25931" lon="13.27086">
        <time>2023-03-12T11:36:00Z</time>
      </trkpt>
      <trkpt lat="63.27356" lon="13.27322">
        <time>2023-03-12T11:46:00Z</time>
      </trkpt>
      <trkpt lat="63.27356" lon="13.27322">
        <time>2023-03-12T11:46:00Z</time>
      </trkpt>
      <trkpt lat="63.27487" lon="13.27275">
        <time>2023-03-12T11:56:00Z</time>
      </trkpt>
      <trkpt lat="63.27487" lon="13.27275">
        <time>2023-03-12T11:56:00Z</time>
      </trkpt>
      <trkpt lat="63.28959" lon="13.27007">
        <time>2023-03-12T12:06:00Z</time>
      </trkpt>
      <trkpt lat="63.28959" lon="13.27007">
        <time>2023-03-12T12:06:00Z</time>
      </trkpt>
      <trkpt lat="63.30441" lon="13.27511">
        <time>2023-03-12T12:16:00Z</time>
      </trkpt>
      <trkpt lat="63.30441" lon="13.27511">
        <time>2023-03-12T12:16:00Z</time>
      </trkpt>
      <trkpt lat="63.30806" lon="13.25314">
        <time>2023-03-12T12:26:00Z</time>
      </trkpt>
      <trkpt lat="63.30806" lon="13.25314">
        <time>2023-03-12T12:26:00Z</time>
      </trkpt>
      <trkpt lat="63.31403" lon="13.24376">
        <time>2023-03-12T12:36:00Z</time>
      </trkpt>
      <trkpt lat="63.31403" lon="13.24376">
        <time>2023-03-12T12:36:00Z</time>
      </trkpt>
      <trkpt lat="63.31448" lon="13.24166">
        <time>2023-03-12T12:46:00Z</time>
      </trkpt>
      <trkpt lat="63.31448" lon="13.24166">
        <time>2023-03-12T12:46:00Z</time>
      </trkpt>
      <trkpt lat="63.31393" lon="13.24185">
        <time>2023-03-12T12:57:00Z</time>
      </trkpt>
      <trkpt lat="63.31393" lon="13.24185">
        <time>2023-03-12T12:57:00Z</time>
      </trkpt>
      <trkpt lat="63.31513" lon="13.239">
        <time>2023-03-12T14:17:00Z</time>
      </trkpt>
      <trkpt lat="63.31513" lon="13.239">
        <time>2023-03-12T14:17:00Z</time>
      </trkpt>
      <trkpt lat="63.31506" lon="13.23872">
        <time>2023-03-12T14:27:00Z</time>
      </trkpt>
      <trkpt lat="63.31506" lon="13.23872">
        <time>2023-03-12T14:27:00Z</time>
      </trkpt>
      <trkpt lat="63.31726" lon="13.2382">
        <time>2023-03-12T14:37:00Z</time>
      </trkpt>
      <trkpt lat="63.31726" lon="13.2382">
        <time>2023-03-12T14:37:00Z</time>
      </trkpt>
      <trkpt lat="63.32243" lon="13.23921">
        <time>2023-03-12T14:47:00Z</time>
      </trkpt>
      <trkpt lat="63.32243" lon="13.23921">
        <time>2023-03-12T14:47:00Z</time>
      </trkpt>
      <trkpt lat="63.33008" lon="13.24788">
        <time>2023-03-12T14:57:00Z</time>
      </trkpt>
      <trkpt lat="63.33008" lon="13.24788">
        <time>2023-03-12T14:57:00Z</time>
      </trkpt>
      <trkpt lat="63.33693" lon="13.26576">
        <time>2023-03-12T15:07:00Z</time>
      </trkpt>
      <trkpt lat="63.33693" lon="13.26576">
        <time>2023-03-12T15:07:00Z</time>
      </trkpt>
      <trkpt lat="63.34644" lon="13.27554">
        <time>2023-03-12T15:17:00Z</time>
      </trkpt>
      <trkpt lat="63.34644" lon="13.27554">
        <time>2023-03-12T15:17:00Z</time>
      </trkpt>
      <trkpt lat="63.35584" lon="13.26271">
        <time>2023-03-12T15:27:00Z</time>
      </trkpt>
      <trkpt lat="63.35584" lon="13.26271">
        <time>2023-03-12T15:27:00Z</time>
      </trkpt>
      <trkpt lat="63.36176" lon="13.2417">
        <time>2023-03-12T15:37:00Z</time>
      </trkpt>
      <trkpt lat="63.36176" lon="13.2417">
        <time>2023-03-12T15:37:00Z</time>
      </trkpt>
      <trkpt lat="63.36693" lon="13.23224">
        <time>2023-03-12T15:47:00Z</time>
      </trkpt>
      <trkpt lat="63.36693" lon="13.23224">
        <time>2023-03-12T15:47:00Z</time>
      </trkpt>
      <trkpt lat="63.37507" lon="13.22245">
        <time>2023-03-12T15:57:00Z</time>
      </trkpt>
      <trkpt lat="63.37507" lon="13.22245">
        <time>2023-03-12T15:57:00Z</time>
      </trkpt>
      <trkpt lat="63.38071" lon="13.22031">
        <time>2023-03-12T16:07:00Z</time>
      </trkpt>
      <trkpt lat="63.38071" lon="13.22031">
        <time>2023-03-12T16:07:00Z</time>
      </trkpt>
      <trkpt lat="63.38714" lon="13.21406">
        <time>2023-03-12T16:17:00Z</time>
      </trkpt>
      <trkpt lat="63.38714" lon="13.21406">
        <time>2023-03-12T16:17:00Z</time>
      </trkpt>
      <trkpt lat="63.39134" lon="13.20673">
        <time>2023-03-12T16:27:00Z</time>
      </trkpt>
      <trkpt lat="63.39134" lon="13.20673">
        <time>2023-03-12T16:27:00Z</time>
      </trkpt>
      <trkpt lat="63.39636" lon="13.19771">
        <time>2023-03-12T16:37:00Z</time>
      </trkpt>
      <trkpt lat="63.39636" lon="13.19771">
        <time>2023-03-12T16:37:00Z</time>
      </trkpt>
      <trkpt lat="63.40154" lon="13.19662">
        <time>2023-03-12T16:47:00Z</time>
      </trkpt>
      <trkpt lat="63.40154" lon="13.19662">
        <time>2023-03-12T16:47:00Z</time>
      </trkpt>
      <trkpt lat="63.40022" lon="13.1922">
        <time>2023-03-12T16:51:00Z</time>
      </trkpt>
      <trkpt lat="63.40022" lon="13.1922">
        <time>2023-03-12T16:51:00Z</time>
      </trkpt>
      <trkpt lat="63.40024" lon="13.1928">
        <time>2023-03-13T08:04:00Z</time>
      </trkpt>
      <trkpt lat="63.40024" lon="13.1928">
        <time>2023-03-13T08:04:00Z</time>
      </trkpt>
      <trkpt lat="63.40156" lon="13.20454">
        <time>2023-03-13T08:14:00Z</time>
      </trkpt>
      <trkpt lat="63.40156" lon="13.20454">
        <time>2023-03-13T08:14:00Z</time>
      </trkpt>
      <trkpt lat="63.40522" lon="13.21576">
        <time>2023-03-13T08:24:00Z</time>
      </trkpt>
      <trkpt lat="63.40522" lon="13.21576">
        <time>2023-03-13T08:24:00Z</time>
      </trkpt>
      <trkpt lat="63.4089" lon="13.22409">
        <time>2023-03-13T08:34:00Z</time>
      </trkpt>
      <trkpt lat="63.4089" lon="13.22409">
        <time>2023-03-13T08:34:00Z</time>
      </trkpt>
      <trkpt lat="63.41379" lon="13.22698">
        <time>2023-03-13T08:44:00Z</time>
      </trkpt>
      <trkpt lat="63.41379" lon="13.22698">
        <time>2023-03-13T08:44:00Z</time>
      </trkpt>
      <trkpt lat="63.42552" lon="13.22812">
        <time>2023-03-13T08:54:00Z</time>
      </trkpt>
      <trkpt lat="63.42552" lon="13.22812">
        <time>2023-03-13T08:54:00Z</time>
      </trkpt>
      <trkpt lat="63.43561" lon="13.22361">
        <time>2023-03-13T09:04:00Z</time>
      </trkpt>
      <trkpt lat="63.43561" lon="13.22361">
        <time>2023-03-13T09:04:00Z</time>
      </trkpt>
      <trkpt lat="63.44329" lon="13.22803">
        <time>2023-03-13T09:14:00Z</time>
      </trkpt>
      <trkpt lat="63.44329" lon="13.22803">
        <time>2023-03-13T09:14:00Z</time>
      </trkpt>
      <trkpt lat="63.45009" lon="13.21434">
        <time>2023-03-13T09:24:00Z</time>
      </trkpt>
      <trkpt lat="63.45009" lon="13.21434">
        <time>2023-03-13T09:24:00Z</time>
      </trkpt>
      <trkpt lat="63.45378" lon="13.2063">
        <time>2023-03-13T09:34:00Z</time>
      </trkpt>
      <trkpt lat="63.45378" lon="13.2063">
        <time>2023-03-13T09:34:00Z</time>
      </trkpt>
      <trkpt lat="63.46361" lon="13.21563">
        <time>2023-03-13T09:44:00Z</time>
      </trkpt>
      <trkpt lat="63.46361" lon="13.21563">
        <time>2023-03-13T09:44:00Z</time>
      </trkpt>
      <trkpt lat="63.4711" lon="13.22679">
        <time>2023-03-13T09:54:00Z</time>
      </trkpt>
      <trkpt lat="63.4711" lon="13.22679">
        <time>2023-03-13T09:54:00Z</time>
      </trkpt>
      <trkpt lat="63.47342" lon="13.23059">
        <time>2023-03-13T10:04:00Z</time>
      </trkpt>
      <trkpt lat="63.47342" lon="13.23059">
        <time>2023-03-13T10:04:00Z</time>
      </trkpt>
      <trkpt lat="63.47335" lon="13.23042">
        <time>2023-03-13T10:14:00Z</time>
      </trkpt>
      <trkpt lat="63.47335" lon="13.23042">
        <time>2023-03-13T10:14:00Z</time>
      </trkpt>
      <trkpt lat="63.47418" lon="13.22539">
        <time>2023-03-13T11:04:00Z</time>
      </trkpt>
      <trkpt lat="63.47418" lon="13.22539">
        <time>2023-03-13T11:04:00Z</time>
      </trkpt>
      <trkpt lat="63.47657" lon="13.2163">
        <time>2023-03-13T11:14:00Z</time>
      </trkpt>
      <trkpt lat="63.47657" lon="13.2163">
        <time>2023-03-13T11:14:00Z</time>
      </trkpt>
      <trkpt lat="63.47891" lon="13.21261">
        <time>2023-03-13T11:24:00Z</time>
      </trkpt>
      <trkpt lat="63.47891" lon="13.21261">
        <time>2023-03-13T11:24:00Z</time>
      </trkpt>
      <trkpt lat="63.48415" lon="13.20722">
        <time>2023-03-13T11:34:00Z</time>
      </trkpt>
      <trkpt lat="63.48415" lon="13.20722">
        <time>2023-03-13T11:34:00Z</time>
      </trkpt>
      <trkpt lat="63.49122" lon="13.20443">
        <time>2023-03-13T11:44:00Z</time>
      </trkpt>
      <trkpt lat="63.49122" lon="13.20443">
        <time>2023-03-13T11:44:00Z</time>
      </trkpt>
      <trkpt lat="63.49892" lon="13.20694">
        <time>2023-03-13T11:54:00Z</time>
      </trkpt>
      <trkpt lat="63.49892" lon="13.20694">
        <time>2023-03-13T11:54:00Z</time>
      </trkpt>
      <trkpt lat="63.50828" lon="13.21273">
        <time>2023-03-13T12:04:00Z</time>
      </trkpt>
      <trkpt lat="63.50828" lon="13.21273">
        <time>2023-03-13T12:04:00Z</time>
      </trkpt>
      <trkpt lat="63.51539" lon="13.21473">
        <time>2023-03-13T12:14:00Z</time>
      </trkpt>
      <trkpt lat="63.51539" lon="13.21473">
        <time>2023-03-13T12:14:00Z</time>
      </trkpt>
      <trkpt lat="63.52274" lon="13.20911">
        <time>2023-03-13T12:24:00Z</time>
      </trkpt>
      <trkpt lat="63.52274" lon="13.20911">
        <time>2023-03-13T12:24:00Z</time>
      </trkpt>
      <trkpt lat="63.53058" lon="13.20705">
        <time>2023-03-13T12:34:00Z</time>
      </trkpt>
      <trkpt lat="63.53058" lon="13.20705">
        <time>2023-03-13T12:34:00Z</time>
      </trkpt>
      <trkpt lat="63.53473" lon="13.19692">
        <time>2023-03-13T12:44:00Z</time>
      </trkpt>
      <trkpt lat="63.53473" lon="13.19692">
        <time>2023-03-13T12:44:00Z</time>
      </trkpt>
      <trkpt lat="63.53947" lon="13.19295">
        <time>2023-03-13T12:54:00Z</time>
      </trkpt>
      <trkpt lat="63.53947" lon="13.19295">
        <time>2023-03-13T12:54:00Z</time>
      </trkpt>
      <trkpt lat="63.54085" lon="13.1819">
        <time>2023-03-13T13:04:00Z</time>
      </trkpt>
      <trkpt lat="63.54085" lon="13.1819">
        <time>2023-03-13T13:04:00Z</time>
      </trkpt>
      <trkpt lat="63.54435" lon="13.17735">
        <time>2023-03-13T13:14:00Z</time>
      </trkpt>
      <trkpt lat="63.54435" lon="13.17735">
        <time>2023-03-13T13:14:00Z</time>
      </trkpt>
      <trkpt lat="63.54427" lon="13.17731">
        <time>2023-03-13T13:24:00Z</time>
      </trkpt>
      <trkpt lat="63.54427" lon="13.17731">
        <time>2023-03-13T13:24:00Z</time>
      </trkpt>
      <trkpt lat="63.54489" lon="13.1734">
        <time>2023-03-13T13:44:00Z</time>
      </trkpt>
      <trkpt lat="63.54489" lon="13.1734">
        <time>2023-03-13T13:44:00Z</time>
      </trkpt>
      <trkpt lat="63.55093" lon="13.16742">
        <time>2023-03-13T13:54:00Z</time>
      </trkpt>
      <trkpt lat="63.55093" lon="13.16742">
        <time>2023-03-13T13:54:00Z</time>
      </trkpt>
      <trkpt lat="63.55972" lon="13.15782">
        <time>2023-03-13T14:04:00Z</time>
      </trkpt>
      <trkpt lat="63.55972" lon="13.15782">
        <time>2023-03-13T14:04:00Z</time>
      </trkpt>
      <trkpt lat="63.56349" lon="13.16767">
        <time>2023-03-13T14:14:00Z</time>
      </trkpt>
      <trkpt lat="63.56349" lon="13.16767">
        <time>2023-03-13T14:14:00Z</time>
      </trkpt>
      <trkpt lat="63.56958" lon="13.17905">
        <time>2023-03-13T14:24:00Z</time>
      </trkpt>
      <trkpt lat="63.56958" lon="13.17905">
        <time>2023-03-13T14:24:00Z</time>
      </trkpt>
      <trkpt lat="63.57501" lon="13.17201">
        <time>2023-03-13T14:34:00Z</time>
      </trkpt>
      <trkpt lat="63.57501" lon="13.17201">
        <time>2023-03-13T14:34:00Z</time>
      </trkpt>
      <trkpt lat="63.58169" lon="13.18514">
        <time>2023-03-13T14:44:00Z</time>
      </trkpt>
      <trkpt lat="63.58169" lon="13.18514">
        <time>2023-03-13T14:44:00Z</time>
      </trkpt>
      <trkpt lat="63.5889" lon="13.19038">
        <time>2023-03-13T14:54:00Z</time>
      </trkpt>
      <trkpt lat="63.5889" lon="13.19038">
        <time>2023-03-13T14:54:00Z</time>
      </trkpt>
      <trkpt lat="63.59404" lon="13.18432">
        <time>2023-03-13T15:04:00Z</time>
      </trkpt>
      <trkpt lat="63.59404" lon="13.18432">
        <time>2023-03-13T15:04:00Z</time>
      </trkpt>
      <trkpt lat="63.60166" lon="13.18439">
        <time>2023-03-13T15:14:00Z</time>
      </trkpt>
      <trkpt lat="63.60166" lon="13.18439">
        <time>2023-03-13T15:14:00Z</time>
      </trkpt>
      <trkpt lat="63.61079" lon="13.20482">
        <time>2023-03-13T15:24:00Z</time>
      </trkpt>
      <trkpt lat="63.61079" lon="13.20482">
        <time>2023-03-13T15:24:00Z</time>
      </trkpt>
      <trkpt lat="63.61649" lon="13.20992">
        <time>2023-03-13T15:34:00Z</time>
      </trkpt>
      <trkpt lat="63.61649" lon="13.20992">
        <time>2023-03-13T15:34:00Z</time>
      </trkpt>
      <trkpt lat="63.62161" lon="13.21524">
        <time>2023-03-13T15:44:00Z</time>
      </trkpt>
      <trkpt lat="63.62161" lon="13.21524">
        <time>2023-03-13T15:44:00Z</time>
      </trkpt>
      <trkpt lat="63.62767" lon="13.22226">
        <time>2023-03-13T15:54:00Z</time>
      </trkpt>
      <trkpt lat="63.62767" lon="13.22226">
        <time>2023-03-13T15:54:00Z</time>
      </trkpt>
      <trkpt lat="63.63206" lon="13.22462">
        <time>2023-03-13T16:04:00Z</time>
      </trkpt>
      <trkpt lat="63.63206" lon="13.22462">
        <time>2023-03-13T16:04:00Z</time>
      </trkpt>
      <trkpt lat="63.63741" lon="13.23232">
        <time>2023-03-13T16:14:00Z</time>
      </trkpt>
      <trkpt lat="63.63741" lon="13.23232">
        <time>2023-03-13T16:14:00Z</time>
      </trkpt>
      <trkpt lat="63.63958" lon="13.24464">
        <time>2023-03-13T16:24:00Z</time>
      </trkpt>
      <trkpt lat="63.63958" lon="13.24464">
        <time>2023-03-13T16:24:00Z</time>
      </trkpt>
      <trkpt lat="63.63918" lon="13.25636">
        <time>2023-03-13T16:34:00Z</time>
      </trkpt>
      <trkpt lat="63.63918" lon="13.25636">
        <time>2023-03-13T16:34:00Z</time>
      </trkpt>
      <trkpt lat="63.64038" lon="13.28805">
        <time>2023-03-13T16:44:00Z</time>
      </trkpt>
      <trkpt lat="63.64038" lon="13.28805">
        <time>2023-03-13T16:44:00Z</time>
      </trkpt>
      <trkpt lat="63.64792" lon="13.28687">
        <time>2023-03-13T16:54:00Z</time>
      </trkpt>
      <trkpt lat="63.64792" lon="13.28687">
        <time>2023-03-13T16:54:00Z</time>
      </trkpt>
      <trkpt lat="63.65714" lon="13.29035">
        <time>2023-03-13T17:04:00Z</time>
      </trkpt>
      <trkpt lat="63.65714" lon="13.29035">
        <time>2023-03-13T17:04:00Z</time>
      </trkpt>
      <trkpt lat="63.66476" lon="13.29097">
        <time>2023-03-13T17:14:00Z</time>
      </trkpt>
      <trkpt lat="63.66476" lon="13.29097">
        <time>2023-03-13T17:14:00Z</time>
      </trkpt>
      <trkpt lat="63.66782" lon="13.29876">
        <time>2023-03-13T17:24:00Z</time>
      </trkpt>
      <trkpt lat="63.66782" lon="13.29876">
        <time>2023-03-13T17:24:00Z</time>
      </trkpt>
      <trkpt lat="63.67267" lon="13.31172">
        <time>2023-03-13T17:34:00Z</time>
      </trkpt>
      <trkpt lat="63.67267" lon="13.31172">
        <time>2023-03-13T17:34:00Z</time>
      </trkpt>
      <trkpt lat="63.6741" lon="13.31455">
        <time>2023-03-13T17:44:00Z</time>
      </trkpt>
      <trkpt lat="63.6741" lon="13.31455">
        <time>2023-03-13T17:44:00Z</time>
      </trkpt>
      <trkpt lat="63.67415" lon="13.31442">
        <time>2023-03-13T17:54:00Z</time>
      </trkpt>
      <trkpt lat="63.67415" lon="13.31442">
        <time>2023-03-13T17:54:00Z</time>
      </trkpt>
      <trkpt lat="63.67382" lon="13.31414">
        <time>2023-03-13T17:59:00Z</time>
      </trkpt>
      <trkpt lat="63.67382" lon="13.31414">
        <time>2023-03-13T17:59:00Z</time>
      </trkpt>
      <trkpt lat="63.67473" lon="13.31421">
        <time>2023-03-14T08:59:00Z</time>
      </trkpt>
      <trkpt lat="63.67473" lon="13.31421">
        <time>2023-03-14T08:59:00Z</time>
      </trkpt>
      <trkpt lat="63.67843" lon="13.31665">
        <time>2023-03-14T09:09:00Z</time>
      </trkpt>
      <trkpt lat="63.67843" lon="13.31665">
        <time>2023-03-14T09:09:00Z</time>
      </trkpt>
      <trkpt lat="63.68037" lon="13.33028">
        <time>2023-03-14T09:19:00Z</time>
      </trkpt>
      <trkpt lat="63.68037" lon="13.33028">
        <time>2023-03-14T09:19:00Z</time>
      </trkpt>
      <trkpt lat="63.68323" lon="13.34178">
        <time>2023-03-14T09:29:00Z</time>
      </trkpt>
      <trkpt lat="63.68323" lon="13.34178">
        <time>2023-03-14T09:29:00Z</time>
      </trkpt>
      <trkpt lat="63.68624" lon="13.36036">
        <time>2023-03-14T09:39:00Z</time>
      </trkpt>
      <trkpt lat="63.68624" lon="13.36036">
        <time>2023-03-14T09:39:00Z</time>
      </trkpt>
      <trkpt lat="63.68662" lon="13.37083">
        <time>2023-03-14T09:49:00Z</time>
      </trkpt>
      <trkpt lat="63.68662" lon="13.37083">
        <time>2023-03-14T09:49:00Z</time>
      </trkpt>
      <trkpt lat="63.68781" lon="13.39105">
        <time>2023-03-14T09:59:00Z</time>
      </trkpt>
      <trkpt lat="63.68781" lon="13.39105">
        <time>2023-03-14T09:59:00Z</time>
      </trkpt>
      <trkpt lat="63.68906" lon="13.40442">
        <time>2023-03-14T10:09:00Z</time>
      </trkpt>
      <trkpt lat="63.68906" lon="13.40442">
        <time>2023-03-14T10:09:00Z</time>
      </trkpt>
      <trkpt lat="63.68931" lon="13.42171">
        <time>2023-03-14T10:19:00Z</time>
      </trkpt>
      <trkpt lat="63.68931" lon="13.42171">
        <time>2023-03-14T10:19:00Z</time>
      </trkpt>
      <trkpt lat="63.68866" lon="13.43774">
        <time>2023-03-14T10:29:00Z</time>
      </trkpt>
      <trkpt lat="63.68866" lon="13.43774">
        <time>2023-03-14T10:29:00Z</time>
      </trkpt>
      <trkpt lat="63.69401" lon="13.45319">
        <time>2023-03-14T10:39:00Z</time>
      </trkpt>
      <trkpt lat="63.69401" lon="13.45319">
        <time>2023-03-14T10:39:00Z</time>
      </trkpt>
      <trkpt lat="63.69197" lon="13.46943">
        <time>2023-03-14T10:49:00Z</time>
      </trkpt>
      <trkpt lat="63.69197" lon="13.46943">
        <time>2023-03-14T10:49:00Z</time>
      </trkpt>
      <trkpt lat="63.69063" lon="13.4834">
        <time>2023-03-14T10:59:00Z</time>
      </trkpt>
      <trkpt lat="63.69063" lon="13.4834">
        <time>2023-03-14T10:59:00Z</time>
      </trkpt>
      <trkpt lat="63.6906" lon="13.48342">
        <time>2023-03-14T11:09:00Z</time>
      </trkpt>
      <trkpt lat="63.6906" lon="13.48342">
        <time>2023-03-14T11:09:00Z</time>
      </trkpt>
      <trkpt lat="63.68965" lon="13.49173">
        <time>2023-03-14T11:19:00Z</time>
      </trkpt>
      <trkpt lat="63.68965" lon="13.49173">
        <time>2023-03-14T11:19:00Z</time>
      </trkpt>
      <trkpt lat="63.68792" lon="13.51245">
        <time>2023-03-14T11:29:00Z</time>
      </trkpt>
      <trkpt lat="63.68792" lon="13.51245">
        <time>2023-03-14T11:29:00Z</time>
      </trkpt>
      <trkpt lat="63.69085" lon="13.52893">
        <time>2023-03-14T11:39:00Z</time>
      </trkpt>
      <trkpt lat="63.69085" lon="13.52893">
        <time>2023-03-14T11:39:00Z</time>
      </trkpt>
      <trkpt lat="63.69277" lon="13.54432">
        <time>2023-03-14T11:49:00Z</time>
      </trkpt>
      <trkpt lat="63.69277" lon="13.54432">
        <time>2023-03-14T11:49:00Z</time>
      </trkpt>
      <trkpt lat="63.69356" lon="13.56337">
        <time>2023-03-14T11:59:00Z</time>
      </trkpt>
      <trkpt lat="63.69356" lon="13.56337">
        <time>2023-03-14T11:59:00Z</time>
      </trkpt>
      <trkpt lat="63.69156" lon="13.57372">
        <time>2023-03-14T12:09:00Z</time>
      </trkpt>
      <trkpt lat="63.69156" lon="13.57372">
        <time>2023-03-14T12:09:00Z</time>
      </trkpt>
      <trkpt lat="63.69147" lon="13.59142">
        <time>2023-03-14T12:19:00Z</time>
      </trkpt>
      <trkpt lat="63.69147" lon="13.59142">
        <time>2023-03-14T12:19:00Z</time>
      </trkpt>
      <trkpt lat="63.69801" lon="13.60208">
        <time>2023-03-14T12:29:00Z</time>
      </trkpt>
      <trkpt lat="63.69801" lon="13.60208">
        <time>2023-03-14T12:29:00Z</time>
      </trkpt>
      <trkpt lat="63.7025" lon="13.60603">
        <time>2023-03-14T12:39:00Z</time>
      </trkpt>
    </trkseg>
  </trk>
</gpx>
