<?xml version="1.0" encoding="UTF-8"?>
<gpx xmlns="http://www.topografix.com/GPX/1/1" version="1.1" creator="VitaBandet">
  <metadata>
    <name>Klimpfjäll → Hemavan · west skip</name>
    <desc>Väster om Hemavan — no village (~12 km off)</desc>
  </metadata>
  <wpt lat="65.06091" lon="14.79624">
    <name>Klimpfjäll</name>
  </wpt>
  <wpt lat="65.7218" lon="15.09774">
    <name>Hemavan</name>
  </wpt>
  <trk>
    <name>Klimpf→Hemavan · Karl Hulten (west-skip)</name>
    <trkseg>
      <trkpt lat="65.06091" lon="14.79624">
        <time>2026-03-12T10:02:00Z</time>
      </trkpt>
      <trkpt lat="65.06354" lon="14.80959">
        <time>2026-03-12T10:13:00Z</time>
      </trkpt>
      <trkpt lat="65.06334" lon="14.8098">
        <time>2026-03-12T10:23:00Z</time>
      </trkpt>
      <trkpt lat="65.06289" lon="14.81907">
        <time>2026-03-12T10:43:00Z</time>
      </trkpt>
      <trkpt lat="65.06267" lon="14.83795">
        <time>2026-03-12T10:53:00Z</time>
      </trkpt>
      <trkpt lat="65.06104" lon="14.85858">
        <time>2026-03-12T11:03:00Z</time>
      </trkpt>
      <trkpt lat="65.05866" lon="14.87523">
        <time>2026-03-12T11:13:00Z</time>
      </trkpt>
      <trkpt lat="65.05808" lon="14.88061">
        <time>2026-03-12T11:23:00Z</time>
      </trkpt>
      <trkpt lat="65.05683" lon="14.89366">
        <time>2026-03-12T11:33:00Z</time>
      </trkpt>
      <trkpt lat="65.05542" lon="14.91209">
        <time>2026-03-12T11:43:00Z</time>
      </trkpt>
      <trkpt lat="65.05489" lon="14.92883">
        <time>2026-03-12T11:53:00Z</time>
      </trkpt>
      <trkpt lat="65.05486" lon="14.94715">
        <time>2026-03-12T12:03:00Z</time>
      </trkpt>
      <trkpt lat="65.05533" lon="14.95861">
        <time>2026-03-12T12:13:00Z</time>
      </trkpt>
      <trkpt lat="65.05568" lon="14.96157">
        <time>2026-03-12T12:23:00Z</time>
      </trkpt>
      <trkpt lat="65.05739" lon="14.97876">
        <time>2026-03-12T12:33:00Z</time>
      </trkpt>
      <trkpt lat="65.05861" lon="14.99955">
        <time>2026-03-12T12:43:00Z</time>
      </trkpt>
      <trkpt lat="65.05955" lon="15.01884">
        <time>2026-03-12T12:53:00Z</time>
      </trkpt>
      <trkpt lat="65.06058" lon="15.03811">
        <time>2026-03-12T13:03:00Z</time>
      </trkpt>
      <trkpt lat="65.06123" lon="15.05652">
        <time>2026-03-12T13:13:00Z</time>
      </trkpt>
      <trkpt lat="65.062" lon="15.05755">
        <time>2026-03-12T13:23:00Z</time>
      </trkpt>
      <trkpt lat="65.06372" lon="15.06157">
        <time>2026-03-12T13:33:00Z</time>
      </trkpt>
      <trkpt lat="65.06695" lon="15.07341">
        <time>2026-03-12T13:43:00Z</time>
      </trkpt>
      <trkpt lat="65.07175" lon="15.08787">
        <time>2026-03-12T13:53:00Z</time>
      </trkpt>
      <trkpt lat="65.07822" lon="15.08895">
        <time>2026-03-12T14:03:00Z</time>
      </trkpt>
      <trkpt lat="65.0844" lon="15.08862">
        <time>2026-03-12T14:13:00Z</time>
      </trkpt>
      <trkpt lat="65.08686" lon="15.08613">
        <time>2026-03-12T14:23:00Z</time>
      </trkpt>
      <trkpt lat="65.09557" lon="15.088">
        <time>2026-03-12T14:33:00Z</time>
      </trkpt>
      <trkpt lat="65.10026" lon="15.0783">
        <time>2026-03-12T14:43:00Z</time>
      </trkpt>
      <trkpt lat="65.10306" lon="15.07862">
        <time>2026-03-12T14:53:00Z</time>
      </trkpt>
      <trkpt lat="65.10423" lon="15.07757">
        <time>2026-03-12T15:03:00Z</time>
      </trkpt>
      <trkpt lat="65.10973" lon="15.06564">
        <time>2026-03-12T15:13:00Z</time>
      </trkpt>
      <trkpt lat="65.11824" lon="15.0571">
        <time>2026-03-12T15:23:00Z</time>
      </trkpt>
      <trkpt lat="65.12421" lon="15.04017">
        <time>2026-03-12T15:33:00Z</time>
      </trkpt>
      <trkpt lat="65.13233" lon="15.03369">
        <time>2026-03-12T15:43:00Z</time>
      </trkpt>
      <trkpt lat="65.14072" lon="15.0312">
        <time>2026-03-12T15:53:00Z</time>
      </trkpt>
      <trkpt lat="65.14314" lon="15.03489">
        <time>2026-03-12T16:03:00Z</time>
      </trkpt>
      <trkpt lat="65.14674" lon="15.03994">
        <time>2026-03-12T16:13:00Z</time>
      </trkpt>
      <trkpt lat="65.1536" lon="15.04708">
        <time>2026-03-12T16:23:00Z</time>
      </trkpt>
      <trkpt lat="65.16082" lon="15.05951">
        <time>2026-03-12T16:33:00Z</time>
      </trkpt>
      <trkpt lat="65.16714" lon="15.05914">
        <time>2026-03-12T16:43:00Z</time>
      </trkpt>
      <trkpt lat="65.17442" lon="15.0683">
        <time>2026-03-12T16:53:00Z</time>
      </trkpt>
      <trkpt lat="65.17616" lon="15.06867">
        <time>2026-03-12T17:03:00Z</time>
      </trkpt>
      <trkpt lat="65.18611" lon="15.06998">
        <time>2026-03-12T17:13:00Z</time>
      </trkpt>
      <trkpt lat="65.19628" lon="15.05841">
        <time>2026-03-12T17:23:00Z</time>
      </trkpt>
      <trkpt lat="65.20825" lon="15.0433">
        <time>2026-03-12T17:33:00Z</time>
      </trkpt>
      <trkpt lat="65.21972" lon="15.02268">
        <time>2026-03-12T17:43:00Z</time>
      </trkpt>
      <trkpt lat="65.22705" lon="15.00749">
        <time>2026-03-12T17:53:00Z</time>
      </trkpt>
      <trkpt lat="65.23548" lon="14.99357">
        <time>2026-03-12T18:03:00Z</time>
      </trkpt>
      <trkpt lat="65.24231" lon="14.97614">
        <time>2026-03-12T18:13:00Z</time>
      </trkpt>
      <trkpt lat="65.24781" lon="14.95696">
        <time>2026-03-12T18:23:00Z</time>
      </trkpt>
      <trkpt lat="65.25265" lon="14.94179">
        <time>2026-03-12T18:33:00Z</time>
      </trkpt>
      <trkpt lat="65.25328" lon="14.9319">
        <time>2026-03-12T18:43:00Z</time>
      </trkpt>
      <trkpt lat="65.25315" lon="14.93207">
        <time>2026-03-12T18:53:00Z</time>
      </trkpt>
      <trkpt lat="65.25344" lon="14.93175">
        <time>2026-03-13T06:44:00Z</time>
      </trkpt>
      <trkpt lat="65.25323" lon="14.9317">
        <time>2026-03-13T06:54:00Z</time>
      </trkpt>
      <trkpt lat="65.2533" lon="14.93172">
        <time>2026-03-13T11:24:00Z</time>
      </trkpt>
      <trkpt lat="65.25375" lon="14.94183">
        <time>2026-03-13T11:34:00Z</time>
      </trkpt>
      <trkpt lat="65.25595" lon="14.96348">
        <time>2026-03-13T11:44:00Z</time>
      </trkpt>
      <trkpt lat="65.25741" lon="14.98402">
        <time>2026-03-13T11:54:00Z</time>
      </trkpt>
      <trkpt lat="65.2595" lon="15.00223">
        <time>2026-03-13T12:04:00Z</time>
      </trkpt>
      <trkpt lat="65.26213" lon="15.01507">
        <time>2026-03-13T12:14:00Z</time>
      </trkpt>
      <trkpt lat="65.26786" lon="15.01704">
        <time>2026-03-13T12:24:00Z</time>
      </trkpt>
      <trkpt lat="65.27663" lon="15.01837">
        <time>2026-03-13T12:34:00Z</time>
      </trkpt>
      <trkpt lat="65.2837" lon="15.02178">
        <time>2026-03-13T12:44:00Z</time>
      </trkpt>
      <trkpt lat="65.29144" lon="15.02195">
        <time>2026-03-13T12:54:00Z</time>
      </trkpt>
      <trkpt lat="65.29478" lon="15.02301">
        <time>2026-03-13T13:04:00Z</time>
      </trkpt>
      <trkpt lat="65.30318" lon="15.02657">
        <time>2026-03-13T13:14:00Z</time>
      </trkpt>
      <trkpt lat="65.30937" lon="15.03365">
        <time>2026-03-13T13:24:00Z</time>
      </trkpt>
      <trkpt lat="65.31247" lon="15.03888">
        <time>2026-03-13T13:34:00Z</time>
      </trkpt>
      <trkpt lat="65.3155" lon="15.04309">
        <time>2026-03-13T13:44:00Z</time>
      </trkpt>
      <trkpt lat="65.32339" lon="15.06071">
        <time>2026-03-13T13:54:00Z</time>
      </trkpt>
      <trkpt lat="65.32978" lon="15.06893">
        <time>2026-03-13T14:04:00Z</time>
      </trkpt>
      <trkpt lat="65.3324" lon="15.0803">
        <time>2026-03-13T14:14:00Z</time>
      </trkpt>
      <trkpt lat="65.33376" lon="15.08579">
        <time>2026-03-13T14:24:00Z</time>
      </trkpt>
      <trkpt lat="65.33377" lon="15.08613">
        <time>2026-03-13T14:34:00Z</time>
      </trkpt>
      <trkpt lat="65.33472" lon="15.1003">
        <time>2026-03-13T14:44:00Z</time>
      </trkpt>
      <trkpt lat="65.33752" lon="15.09751">
        <time>2026-03-13T14:54:00Z</time>
      </trkpt>
      <trkpt lat="65.34118" lon="15.10311">
        <time>2026-03-13T15:04:00Z</time>
      </trkpt>
      <trkpt lat="65.34404" lon="15.11184">
        <time>2026-03-13T15:14:00Z</time>
      </trkpt>
      <trkpt lat="65.34481" lon="15.12482">
        <time>2026-03-13T15:24:00Z</time>
      </trkpt>
      <trkpt lat="65.34447" lon="15.13989">
        <time>2026-03-13T15:34:00Z</time>
      </trkpt>
      <trkpt lat="65.34448" lon="15.13993">
        <time>2026-03-13T15:44:00Z</time>
      </trkpt>
      <trkpt lat="65.34425" lon="15.14328">
        <time>2026-03-13T15:54:00Z</time>
      </trkpt>
      <trkpt lat="65.34445" lon="15.15561">
        <time>2026-03-13T16:04:00Z</time>
      </trkpt>
      <trkpt lat="65.34734" lon="15.16594">
        <time>2026-03-13T16:14:00Z</time>
      </trkpt>
      <trkpt lat="65.34783" lon="15.18156">
        <time>2026-03-13T16:24:00Z</time>
      </trkpt>
      <trkpt lat="65.347" lon="15.19636">
        <time>2026-03-13T16:34:00Z</time>
      </trkpt>
      <trkpt lat="65.34722" lon="15.21076">
        <time>2026-03-13T16:44:00Z</time>
      </trkpt>
      <trkpt lat="65.34745" lon="15.22428">
        <time>2026-03-13T16:54:00Z</time>
      </trkpt>
      <trkpt lat="65.34866" lon="15.23934">
        <time>2026-03-13T17:04:00Z</time>
      </trkpt>
      <trkpt lat="65.34978" lon="15.2435">
        <time>2026-03-13T17:14:00Z</time>
      </trkpt>
      <trkpt lat="65.349" lon="15.25634">
        <time>2026-03-13T17:24:00Z</time>
      </trkpt>
      <trkpt lat="65.34758" lon="15.27689">
        <time>2026-03-13T17:34:00Z</time>
      </trkpt>
      <trkpt lat="65.34206" lon="15.28829">
        <time>2026-03-13T17:44:00Z</time>
      </trkpt>
      <trkpt lat="65.34052" lon="15.29811">
        <time>2026-03-13T17:54:00Z</time>
      </trkpt>
      <trkpt lat="65.34045" lon="15.29835">
        <time>2026-03-13T18:04:00Z</time>
      </trkpt>
      <trkpt lat="65.34056" lon="15.29816">
        <time>2026-03-14T05:18:00Z</time>
      </trkpt>
      <trkpt lat="65.34046" lon="15.29829">
        <time>2026-03-14T05:28:00Z</time>
      </trkpt>
      <trkpt lat="65.34588" lon="15.30335">
        <time>2026-03-14T06:08:00Z</time>
      </trkpt>
      <trkpt lat="65.35179" lon="15.30427">
        <time>2026-03-14T06:18:00Z</time>
      </trkpt>
      <trkpt lat="65.35611" lon="15.30296">
        <time>2026-03-14T06:28:00Z</time>
      </trkpt>
      <trkpt lat="65.35979" lon="15.29681">
        <time>2026-03-14T06:38:00Z</time>
      </trkpt>
      <trkpt lat="65.3635" lon="15.29648">
        <time>2026-03-14T06:48:00Z</time>
      </trkpt>
      <trkpt lat="65.36592" lon="15.29537">
        <time>2026-03-14T06:58:00Z</time>
      </trkpt>
      <trkpt lat="65.37151" lon="15.2905">
        <time>2026-03-14T07:08:00Z</time>
      </trkpt>
      <trkpt lat="65.37787" lon="15.29213">
        <time>2026-03-14T07:18:00Z</time>
      </trkpt>
      <trkpt lat="65.38129" lon="15.29457">
        <time>2026-03-14T07:28:00Z</time>
      </trkpt>
      <trkpt lat="65.38851" lon="15.29801">
        <time>2026-03-14T07:38:00Z</time>
      </trkpt>
      <trkpt lat="65.39282" lon="15.30069">
        <time>2026-03-14T07:48:00Z</time>
      </trkpt>
      <trkpt lat="65.40008" lon="15.30148">
        <time>2026-03-14T07:58:00Z</time>
      </trkpt>
      <trkpt lat="65.40037" lon="15.30101">
        <time>2026-03-14T08:08:00Z</time>
      </trkpt>
      <trkpt lat="65.40132" lon="15.29865">
        <time>2026-03-14T08:18:00Z</time>
      </trkpt>
      <trkpt lat="65.4055" lon="15.28629">
        <time>2026-03-14T08:28:00Z</time>
      </trkpt>
      <trkpt lat="65.41112" lon="15.27365">
        <time>2026-03-14T08:38:00Z</time>
      </trkpt>
      <trkpt lat="65.41661" lon="15.26099">
        <time>2026-03-14T08:48:00Z</time>
      </trkpt>
      <trkpt lat="65.42195" lon="15.24891">
        <time>2026-03-14T08:58:00Z</time>
      </trkpt>
      <trkpt lat="65.42524" lon="15.24149">
        <time>2026-03-14T09:08:00Z</time>
      </trkpt>
      <trkpt lat="65.42525" lon="15.24144">
        <time>2026-03-14T09:18:00Z</time>
      </trkpt>
      <trkpt lat="65.42993" lon="15.23164">
        <time>2026-03-14T09:38:00Z</time>
      </trkpt>
      <trkpt lat="65.4333" lon="15.23187">
        <time>2026-03-14T09:48:00Z</time>
      </trkpt>
      <trkpt lat="65.43768" lon="15.23604">
        <time>2026-03-14T09:58:00Z</time>
      </trkpt>
      <trkpt lat="65.44622" lon="15.2378">
        <time>2026-03-14T10:08:00Z</time>
      </trkpt>
      <trkpt lat="65.4519" lon="15.25009">
        <time>2026-03-14T10:18:00Z</time>
      </trkpt>
      <trkpt lat="65.45483" lon="15.25024">
        <time>2026-03-14T10:28:00Z</time>
      </trkpt>
      <trkpt lat="65.45877" lon="15.2532">
        <time>2026-03-14T10:38:00Z</time>
      </trkpt>
      <trkpt lat="65.46276" lon="15.26861">
        <time>2026-03-14T10:48:00Z</time>
      </trkpt>
      <trkpt lat="65.47011" lon="15.28672">
        <time>2026-03-14T10:58:00Z</time>
      </trkpt>
      <trkpt lat="65.47448" lon="15.30391">
        <time>2026-03-14T11:08:00Z</time>
      </trkpt>
      <trkpt lat="65.48247" lon="15.32809">
        <time>2026-03-14T11:18:00Z</time>
      </trkpt>
      <trkpt lat="65.48672" lon="15.34717">
        <time>2026-03-14T11:28:00Z</time>
      </trkpt>
      <trkpt lat="65.49304" lon="15.35388">
        <time>2026-03-14T11:38:00Z</time>
      </trkpt>
      <trkpt lat="65.49764" lon="15.34588">
        <time>2026-03-14T11:48:00Z</time>
      </trkpt>
      <trkpt lat="65.50686" lon="15.34554">
        <time>2026-03-14T11:58:00Z</time>
      </trkpt>
      <trkpt lat="65.51053" lon="15.34566">
        <time>2026-03-14T12:08:00Z</time>
      </trkpt>
      <trkpt lat="65.51056" lon="15.34569">
        <time>2026-03-14T12:18:00Z</time>
      </trkpt>
      <trkpt lat="65.51285" lon="15.34757">
        <time>2026-03-14T12:58:00Z</time>
      </trkpt>
      <trkpt lat="65.51704" lon="15.34191">
        <time>2026-03-14T13:08:00Z</time>
      </trkpt>
      <trkpt lat="65.52573" lon="15.33324">
        <time>2026-03-14T13:18:00Z</time>
      </trkpt>
      <trkpt lat="65.53512" lon="15.33219">
        <time>2026-03-14T13:28:00Z</time>
      </trkpt>
      <trkpt lat="65.5419" lon="15.33307">
        <time>2026-03-14T13:38:00Z</time>
      </trkpt>
      <trkpt lat="65.54749" lon="15.3347">
        <time>2026-03-14T13:48:00Z</time>
      </trkpt>
      <trkpt lat="65.55515" lon="15.34524">
        <time>2026-03-14T13:58:00Z</time>
      </trkpt>
      <trkpt lat="65.55846" lon="15.34277">
        <time>2026-03-14T14:08:00Z</time>
      </trkpt>
      <trkpt lat="65.56311" lon="15.33805">
        <time>2026-03-14T14:18:00Z</time>
      </trkpt>
      <trkpt lat="65.5683" lon="15.32955">
        <time>2026-03-14T14:28:00Z</time>
      </trkpt>
      <trkpt lat="65.57214" lon="15.3182">
        <time>2026-03-14T14:38:00Z</time>
      </trkpt>
      <trkpt lat="65.57515" lon="15.30773">
        <time>2026-03-14T14:48:00Z</time>
      </trkpt>
      <trkpt lat="65.5792" lon="15.30028">
        <time>2026-03-14T14:58:00Z</time>
      </trkpt>
      <trkpt lat="65.58378" lon="15.29537">
        <time>2026-03-14T15:08:00Z</time>
      </trkpt>
      <trkpt lat="65.58879" lon="15.28809">
        <time>2026-03-14T15:18:00Z</time>
      </trkpt>
      <trkpt lat="65.59509" lon="15.28421">
        <time>2026-03-14T15:28:00Z</time>
      </trkpt>
      <trkpt lat="65.60105" lon="15.27691">
        <time>2026-03-14T15:38:00Z</time>
      </trkpt>
      <trkpt lat="65.60169" lon="15.26859">
        <time>2026-03-14T15:48:00Z</time>
      </trkpt>
      <trkpt lat="65.605" lon="15.25857">
        <time>2026-03-14T15:58:00Z</time>
      </trkpt>
      <trkpt lat="65.61159" lon="15.24505">
        <time>2026-03-14T16:08:00Z</time>
      </trkpt>
      <trkpt lat="65.61814" lon="15.23883">
        <time>2026-03-14T16:18:00Z</time>
      </trkpt>
      <trkpt lat="65.62657" lon="15.22893">
        <time>2026-03-14T16:28:00Z</time>
      </trkpt>
      <trkpt lat="65.6339" lon="15.21591">
        <time>2026-03-14T16:38:00Z</time>
      </trkpt>
      <trkpt lat="65.63971" lon="15.20072">
        <time>2026-03-14T16:48:00Z</time>
      </trkpt>
      <trkpt lat="65.64397" lon="15.18935">
        <time>2026-03-14T16:58:00Z</time>
      </trkpt>
      <trkpt lat="65.64832" lon="15.17793">
        <time>2026-03-14T17:08:00Z</time>
      </trkpt>
      <trkpt lat="65.65327" lon="15.16177">
        <time>2026-03-14T17:18:00Z</time>
      </trkpt>
      <trkpt lat="65.65827" lon="15.1466">
        <time>2026-03-14T17:28:00Z</time>
      </trkpt>
      <trkpt lat="65.6592" lon="15.14544">
        <time>2026-03-14T17:38:00Z</time>
      </trkpt>
      <trkpt lat="65.6592" lon="15.1454">
        <time>2026-03-14T17:48:00Z</time>
      </trkpt>
      <trkpt lat="65.65926" lon="15.1457">
        <time>2026-03-14T18:47:00Z</time>
      </trkpt>
      <trkpt lat="65.65913" lon="15.14561">
        <time>2026-03-14T18:57:00Z</time>
      </trkpt>
      <trkpt lat="65.65922" lon="15.14544">
        <time>2026-03-14T19:47:00Z</time>
      </trkpt>
      <trkpt lat="65.65926" lon="15.14546">
        <time>2026-03-14T19:57:00Z</time>
      </trkpt>
      <trkpt lat="65.65921" lon="15.14557">
        <time>2026-03-15T05:57:00Z</time>
      </trkpt>
      <trkpt lat="65.65917" lon="15.1457">
        <time>2026-03-15T06:07:00Z</time>
      </trkpt>
      <trkpt lat="65.65893" lon="15.13898">
        <time>2026-03-15T06:17:00Z</time>
      </trkpt>
      <trkpt lat="65.6626" lon="15.13032">
        <time>2026-03-15T06:27:00Z</time>
      </trkpt>
      <trkpt lat="65.66944" lon="15.13154">
        <time>2026-03-15T06:37:00Z</time>
      </trkpt>
      <trkpt lat="65.67612" lon="15.12735">
        <time>2026-03-15T06:47:00Z</time>
      </trkpt>
      <trkpt lat="65.68304" lon="15.12238">
        <time>2026-03-15T06:57:00Z</time>
      </trkpt>
      <trkpt lat="65.68975" lon="15.11991">
        <time>2026-03-15T07:07:00Z</time>
      </trkpt>
      <trkpt lat="65.69379" lon="15.11002">
        <time>2026-03-15T07:17:00Z</time>
      </trkpt>
      <trkpt lat="65.70043" lon="15.10834">
        <time>2026-03-15T07:27:00Z</time>
      </trkpt>
      <trkpt lat="65.70679" lon="15.09939">
        <time>2026-03-15T07:37:00Z</time>
      </trkpt>
      <trkpt lat="65.71358" lon="15.09364">
        <time>2026-03-15T07:47:00Z</time>
      </trkpt>
      <trkpt lat="65.716" lon="15.0927">
        <time>2026-03-15T07:57:00Z</time>
      </trkpt>
      <trkpt lat="65.71843" lon="15.08963">
        <time>2026-03-15T08:07:00Z</time>
      </trkpt>
      <trkpt lat="65.7218" lon="15.09774">
        <time>2026-03-15T08:17:00Z</time>
      </trkpt>
    </trkseg>
  </trk>
  <trk>
    <name>Klimpf→Hemavan · Noah Lund Bovin (west-skip)</name>
    <trkseg>
      <trkpt lat="65.05159" lon="14.77495">
        <time>2026-03-19T13:13:00Z</time>
      </trkpt>
      <trkpt lat="65.05374" lon="14.79146">
        <time>2026-03-19T13:23:00Z</time>
      </trkpt>
      <trkpt lat="65.0576" lon="14.80403">
        <time>2026-03-19T13:33:00Z</time>
      </trkpt>
      <trkpt lat="65.06263" lon="14.81231">
        <time>2026-03-19T13:43:00Z</time>
      </trkpt>
      <trkpt lat="65.06337" lon="14.80914">
        <time>2026-03-19T13:49:00Z</time>
      </trkpt>
      <trkpt lat="65.06331" lon="14.80871">
        <time>2026-03-21T08:54:00Z</time>
      </trkpt>
      <trkpt lat="65.06307" lon="14.81598">
        <time>2026-03-21T09:04:00Z</time>
      </trkpt>
      <trkpt lat="65.06294" lon="14.82489">
        <time>2026-03-21T09:14:00Z</time>
      </trkpt>
      <trkpt lat="65.06048" lon="14.83989">
        <time>2026-03-21T09:24:00Z</time>
      </trkpt>
      <trkpt lat="65.05905" lon="14.85952">
        <time>2026-03-21T09:34:00Z</time>
      </trkpt>
      <trkpt lat="65.05749" lon="14.87913">
        <time>2026-03-21T09:44:00Z</time>
      </trkpt>
      <trkpt lat="65.05563" lon="14.89971">
        <time>2026-03-21T09:54:00Z</time>
      </trkpt>
      <trkpt lat="65.05459" lon="14.91419">
        <time>2026-03-21T10:04:00Z</time>
      </trkpt>
      <trkpt lat="65.05422" lon="14.93366">
        <time>2026-03-21T10:14:00Z</time>
      </trkpt>
      <trkpt lat="65.05496" lon="14.95374">
        <time>2026-03-21T10:24:00Z</time>
      </trkpt>
      <trkpt lat="65.05647" lon="14.97046">
        <time>2026-03-21T10:34:00Z</time>
      </trkpt>
      <trkpt lat="65.05762" lon="14.98503">
        <time>2026-03-21T10:44:00Z</time>
      </trkpt>
      <trkpt lat="65.0587" lon="15.00361">
        <time>2026-03-21T10:54:00Z</time>
      </trkpt>
      <trkpt lat="65.05979" lon="15.02125">
        <time>2026-03-21T11:04:00Z</time>
      </trkpt>
      <trkpt lat="65.06132" lon="15.03996">
        <time>2026-03-21T11:14:00Z</time>
      </trkpt>
      <trkpt lat="65.06134" lon="15.05691">
        <time>2026-03-21T11:24:00Z</time>
      </trkpt>
      <trkpt lat="65.06339" lon="15.05978">
        <time>2026-03-21T11:34:00Z</time>
      </trkpt>
      <trkpt lat="65.06592" lon="15.06822">
        <time>2026-03-21T11:44:00Z</time>
      </trkpt>
      <trkpt lat="65.06997" lon="15.08124">
        <time>2026-03-21T11:54:00Z</time>
      </trkpt>
      <trkpt lat="65.07394" lon="15.08043">
        <time>2026-03-21T12:04:00Z</time>
      </trkpt>
      <trkpt lat="65.07829" lon="15.08895">
        <time>2026-03-21T12:14:00Z</time>
      </trkpt>
      <trkpt lat="65.08437" lon="15.08871">
        <time>2026-03-21T12:24:00Z</time>
      </trkpt>
      <trkpt lat="65.08955" lon="15.08882">
        <time>2026-03-21T12:34:00Z</time>
      </trkpt>
      <trkpt lat="65.09659" lon="15.08637">
        <time>2026-03-21T12:44:00Z</time>
      </trkpt>
      <trkpt lat="65.10326" lon="15.08216">
        <time>2026-03-21T12:54:00Z</time>
      </trkpt>
      <trkpt lat="65.10747" lon="15.07373">
        <time>2026-03-21T13:04:00Z</time>
      </trkpt>
      <trkpt lat="65.11268" lon="15.06468">
        <time>2026-03-21T13:14:00Z</time>
      </trkpt>
      <trkpt lat="65.11639" lon="15.05202">
        <time>2026-03-21T13:24:00Z</time>
      </trkpt>
      <trkpt lat="65.11896" lon="15.04206">
        <time>2026-03-21T13:34:00Z</time>
      </trkpt>
      <trkpt lat="65.12323" lon="15.03466">
        <time>2026-03-21T13:44:00Z</time>
      </trkpt>
      <trkpt lat="65.13056" lon="15.03303">
        <time>2026-03-21T13:54:00Z</time>
      </trkpt>
      <trkpt lat="65.1373" lon="15.0285">
        <time>2026-03-21T14:04:00Z</time>
      </trkpt>
      <trkpt lat="65.14255" lon="15.03388">
        <time>2026-03-21T14:14:00Z</time>
      </trkpt>
      <trkpt lat="65.14655" lon="15.03998">
        <time>2026-03-21T14:24:00Z</time>
      </trkpt>
      <trkpt lat="65.15023" lon="15.04277">
        <time>2026-03-21T14:34:00Z</time>
      </trkpt>
      <trkpt lat="65.15411" lon="15.04794">
        <time>2026-03-21T14:44:00Z</time>
      </trkpt>
      <trkpt lat="65.15789" lon="15.05787">
        <time>2026-03-21T14:54:00Z</time>
      </trkpt>
      <trkpt lat="65.16337" lon="15.06032">
        <time>2026-03-21T15:04:00Z</time>
      </trkpt>
      <trkpt lat="65.16758" lon="15.05912">
        <time>2026-03-21T15:14:00Z</time>
      </trkpt>
      <trkpt lat="65.17323" lon="15.06429">
        <time>2026-03-21T15:24:00Z</time>
      </trkpt>
      <trkpt lat="65.17578" lon="15.06841">
        <time>2026-03-21T15:34:00Z</time>
      </trkpt>
      <trkpt lat="65.18073" lon="15.0751">
        <time>2026-03-21T15:44:00Z</time>
      </trkpt>
      <trkpt lat="65.18706" lon="15.07053">
        <time>2026-03-21T15:54:00Z</time>
      </trkpt>
      <trkpt lat="65.18907" lon="15.06893">
        <time>2026-03-21T16:04:00Z</time>
      </trkpt>
      <trkpt lat="65.19627" lon="15.06328">
        <time>2026-03-21T16:14:00Z</time>
      </trkpt>
      <trkpt lat="65.20316" lon="15.0577">
        <time>2026-03-21T16:24:00Z</time>
      </trkpt>
      <trkpt lat="65.21064" lon="15.05174">
        <time>2026-03-21T16:34:00Z</time>
      </trkpt>
      <trkpt lat="65.21686" lon="15.04689">
        <time>2026-03-21T16:44:00Z</time>
      </trkpt>
      <trkpt lat="65.22383" lon="15.04112">
        <time>2026-03-21T16:54:00Z</time>
      </trkpt>
      <trkpt lat="65.23072" lon="15.03601">
        <time>2026-03-21T17:04:00Z</time>
      </trkpt>
      <trkpt lat="65.2374" lon="15.03125">
        <time>2026-03-21T17:14:00Z</time>
      </trkpt>
      <trkpt lat="65.24309" lon="15.02706">
        <time>2026-03-21T17:24:00Z</time>
      </trkpt>
      <trkpt lat="65.24989" lon="15.02213">
        <time>2026-03-21T17:34:00Z</time>
      </trkpt>
      <trkpt lat="65.2551" lon="15.02408">
        <time>2026-03-21T17:44:00Z</time>
      </trkpt>
      <trkpt lat="65.25671" lon="15.02798">
        <time>2026-03-21T17:54:00Z</time>
      </trkpt>
      <trkpt lat="65.25663" lon="15.02796">
        <time>2026-03-21T17:59:00Z</time>
      </trkpt>
      <trkpt lat="65.25777" lon="15.03043">
        <time>2026-03-22T07:49:00Z</time>
      </trkpt>
      <trkpt lat="65.26352" lon="15.02283">
        <time>2026-03-22T07:59:00Z</time>
      </trkpt>
      <trkpt lat="65.27007" lon="15.02084">
        <time>2026-03-22T08:09:00Z</time>
      </trkpt>
      <trkpt lat="65.27644" lon="15.01929">
        <time>2026-03-22T08:19:00Z</time>
      </trkpt>
      <trkpt lat="65.28125" lon="15.0235">
        <time>2026-03-22T08:29:00Z</time>
      </trkpt>
      <trkpt lat="65.2843" lon="15.0235">
        <time>2026-03-22T08:39:00Z</time>
      </trkpt>
      <trkpt lat="65.2912" lon="15.02161">
        <time>2026-03-22T08:49:00Z</time>
      </trkpt>
      <trkpt lat="65.29731" lon="15.02449">
        <time>2026-03-22T08:59:00Z</time>
      </trkpt>
      <trkpt lat="65.29876" lon="15.02547">
        <time>2026-03-22T09:09:00Z</time>
      </trkpt>
      <trkpt lat="65.30377" lon="15.02676">
        <time>2026-03-22T09:19:00Z</time>
      </trkpt>
      <trkpt lat="65.30761" lon="15.02981">
        <time>2026-03-22T09:29:00Z</time>
      </trkpt>
      <trkpt lat="65.31132" lon="15.0371">
        <time>2026-03-22T09:39:00Z</time>
      </trkpt>
      <trkpt lat="65.31621" lon="15.04442">
        <time>2026-03-22T09:49:00Z</time>
      </trkpt>
      <trkpt lat="65.32055" lon="15.05607">
        <time>2026-03-22T09:59:00Z</time>
      </trkpt>
      <trkpt lat="65.32347" lon="15.06073">
        <time>2026-03-22T10:09:00Z</time>
      </trkpt>
      <trkpt lat="65.32749" lon="15.06553">
        <time>2026-03-22T10:19:00Z</time>
      </trkpt>
      <trkpt lat="65.33133" lon="15.07156">
        <time>2026-03-22T10:29:00Z</time>
      </trkpt>
      <trkpt lat="65.33323" lon="15.08191">
        <time>2026-03-22T10:39:00Z</time>
      </trkpt>
      <trkpt lat="65.33408" lon="15.09085">
        <time>2026-03-22T10:49:00Z</time>
      </trkpt>
      <trkpt lat="65.33638" lon="15.09725">
        <time>2026-03-22T10:59:00Z</time>
      </trkpt>
      <trkpt lat="65.3386" lon="15.1006">
        <time>2026-03-22T11:09:00Z</time>
      </trkpt>
      <trkpt lat="65.34081" lon="15.10251">
        <time>2026-03-22T11:19:00Z</time>
      </trkpt>
      <trkpt lat="65.34177" lon="15.10847">
        <time>2026-03-22T11:29:00Z</time>
      </trkpt>
      <trkpt lat="65.34594" lon="15.1071">
        <time>2026-03-22T11:39:00Z</time>
      </trkpt>
      <trkpt lat="65.3514" lon="15.10049">
        <time>2026-03-22T11:49:00Z</time>
      </trkpt>
      <trkpt lat="65.35613" lon="15.09701">
        <time>2026-03-22T11:59:00Z</time>
      </trkpt>
      <trkpt lat="65.36027" lon="15.09562">
        <time>2026-03-22T12:09:00Z</time>
      </trkpt>
      <trkpt lat="65.36259" lon="15.09695">
        <time>2026-03-22T12:19:00Z</time>
      </trkpt>
      <trkpt lat="65.36537" lon="15.106">
        <time>2026-03-22T12:29:00Z</time>
      </trkpt>
      <trkpt lat="65.36552" lon="15.11881">
        <time>2026-03-22T12:39:00Z</time>
      </trkpt>
      <trkpt lat="65.36695" lon="15.1298">
        <time>2026-03-22T12:49:00Z</time>
      </trkpt>
      <trkpt lat="65.36842" lon="15.14321">
        <time>2026-03-22T12:59:00Z</time>
      </trkpt>
      <trkpt lat="65.37083" lon="15.14832">
        <time>2026-03-22T13:09:00Z</time>
      </trkpt>
      <trkpt lat="65.37242" lon="15.14735">
        <time>2026-03-22T13:19:00Z</time>
      </trkpt>
      <trkpt lat="65.37603" lon="15.13789">
        <time>2026-03-22T13:29:00Z</time>
      </trkpt>
      <trkpt lat="65.38035" lon="15.13306">
        <time>2026-03-22T13:39:00Z</time>
      </trkpt>
      <trkpt lat="65.38518" lon="15.1351">
        <time>2026-03-22T13:49:00Z</time>
      </trkpt>
      <trkpt lat="65.38724" lon="15.13677">
        <time>2026-03-22T13:59:00Z</time>
      </trkpt>
      <trkpt lat="65.38923" lon="15.13587">
        <time>2026-03-22T14:09:00Z</time>
      </trkpt>
      <trkpt lat="65.39004" lon="15.13463">
        <time>2026-03-22T14:19:00Z</time>
      </trkpt>
      <trkpt lat="65.39153" lon="15.13383">
        <time>2026-03-22T14:29:00Z</time>
      </trkpt>
      <trkpt lat="65.39283" lon="15.13317">
        <time>2026-03-22T14:39:00Z</time>
      </trkpt>
      <trkpt lat="65.39448" lon="15.14177">
        <time>2026-03-22T14:49:00Z</time>
      </trkpt>
      <trkpt lat="65.39871" lon="15.14677">
        <time>2026-03-22T14:59:00Z</time>
      </trkpt>
      <trkpt lat="65.40415" lon="15.1524">
        <time>2026-03-22T15:09:00Z</time>
      </trkpt>
      <trkpt lat="65.40719" lon="15.15742">
        <time>2026-03-22T15:19:00Z</time>
      </trkpt>
      <trkpt lat="65.41165" lon="15.1587">
        <time>2026-03-22T15:29:00Z</time>
      </trkpt>
      <trkpt lat="65.41505" lon="15.16892">
        <time>2026-03-22T15:39:00Z</time>
      </trkpt>
      <trkpt lat="65.41918" lon="15.18304">
        <time>2026-03-22T15:49:00Z</time>
      </trkpt>
      <trkpt lat="65.42371" lon="15.19804">
        <time>2026-03-22T15:59:00Z</time>
      </trkpt>
      <trkpt lat="65.4276" lon="15.21093">
        <time>2026-03-22T16:09:00Z</time>
      </trkpt>
      <trkpt lat="65.43158" lon="15.21971">
        <time>2026-03-22T16:19:00Z</time>
      </trkpt>
      <trkpt lat="65.4323" lon="15.22254">
        <time>2026-03-22T16:29:00Z</time>
      </trkpt>
      <trkpt lat="65.43351" lon="15.22552">
        <time>2026-03-22T16:39:00Z</time>
      </trkpt>
      <trkpt lat="65.43388" lon="15.23052">
        <time>2026-03-22T16:49:00Z</time>
      </trkpt>
      <trkpt lat="65.43424" lon="15.23434">
        <time>2026-03-22T16:59:00Z</time>
      </trkpt>
      <trkpt lat="65.43544" lon="15.23638">
        <time>2026-03-22T17:04:00Z</time>
      </trkpt>
      <trkpt lat="65.43542" lon="15.23636">
        <time>2026-03-23T08:07:00Z</time>
      </trkpt>
      <trkpt lat="65.43638" lon="15.23599">
        <time>2026-03-23T08:17:00Z</time>
      </trkpt>
      <trkpt lat="65.44528" lon="15.23655">
        <time>2026-03-23T08:27:00Z</time>
      </trkpt>
      <trkpt lat="65.45166" lon="15.25007">
        <time>2026-03-23T08:37:00Z</time>
      </trkpt>
      <trkpt lat="65.45874" lon="15.25299">
        <time>2026-03-23T08:47:00Z</time>
      </trkpt>
      <trkpt lat="65.46343" lon="15.27041">
        <time>2026-03-23T08:57:00Z</time>
      </trkpt>
      <trkpt lat="65.46993" lon="15.28597">
        <time>2026-03-23T09:07:00Z</time>
      </trkpt>
      <trkpt lat="65.47498" lon="15.3052">
        <time>2026-03-23T09:17:00Z</time>
      </trkpt>
      <trkpt lat="65.47997" lon="15.31717">
        <time>2026-03-23T09:27:00Z</time>
      </trkpt>
      <trkpt lat="65.48282" lon="15.33084">
        <time>2026-03-23T09:37:00Z</time>
      </trkpt>
      <trkpt lat="65.48656" lon="15.34236">
        <time>2026-03-23T09:47:00Z</time>
      </trkpt>
      <trkpt lat="65.49" lon="15.35586">
        <time>2026-03-23T09:57:00Z</time>
      </trkpt>
      <trkpt lat="65.49169" lon="15.35579">
        <time>2026-03-23T10:07:00Z</time>
      </trkpt>
      <trkpt lat="65.49474" lon="15.35122">
        <time>2026-03-23T10:17:00Z</time>
      </trkpt>
      <trkpt lat="65.49747" lon="15.34721">
        <time>2026-03-23T10:27:00Z</time>
      </trkpt>
      <trkpt lat="65.50457" lon="15.34614">
        <time>2026-03-23T10:37:00Z</time>
      </trkpt>
      <trkpt lat="65.51066" lon="15.34571">
        <time>2026-03-23T10:47:00Z</time>
      </trkpt>
      <trkpt lat="65.51523" lon="15.34367">
        <time>2026-03-23T10:57:00Z</time>
      </trkpt>
      <trkpt lat="65.52236" lon="15.33685">
        <time>2026-03-23T11:07:00Z</time>
      </trkpt>
      <trkpt lat="65.52769" lon="15.3318">
        <time>2026-03-23T11:17:00Z</time>
      </trkpt>
      <trkpt lat="65.53591" lon="15.33264">
        <time>2026-03-23T11:27:00Z</time>
      </trkpt>
      <trkpt lat="65.54334" lon="15.33253">
        <time>2026-03-23T11:37:00Z</time>
      </trkpt>
      <trkpt lat="65.5501" lon="15.33818">
        <time>2026-03-23T11:47:00Z</time>
      </trkpt>
      <trkpt lat="65.55513" lon="15.34519">
        <time>2026-03-23T11:57:00Z</time>
      </trkpt>
      <trkpt lat="65.55617" lon="15.34659">
        <time>2026-03-23T12:07:00Z</time>
      </trkpt>
      <trkpt lat="65.55811" lon="15.34905">
        <time>2026-03-23T12:17:00Z</time>
      </trkpt>
      <trkpt lat="65.56052" lon="15.35041">
        <time>2026-03-23T12:27:00Z</time>
      </trkpt>
      <trkpt lat="65.56423" lon="15.35659">
        <time>2026-03-23T12:37:00Z</time>
      </trkpt>
      <trkpt lat="65.56607" lon="15.36047">
        <time>2026-03-23T12:47:00Z</time>
      </trkpt>
      <trkpt lat="65.5693" lon="15.36182">
        <time>2026-03-23T12:57:00Z</time>
      </trkpt>
      <trkpt lat="65.57235" lon="15.36133">
        <time>2026-03-23T13:07:00Z</time>
      </trkpt>
      <trkpt lat="65.57525" lon="15.35948">
        <time>2026-03-23T13:17:00Z</time>
      </trkpt>
      <trkpt lat="65.57946" lon="15.36058">
        <time>2026-03-23T13:27:00Z</time>
      </trkpt>
      <trkpt lat="65.58369" lon="15.36594">
        <time>2026-03-23T13:37:00Z</time>
      </trkpt>
      <trkpt lat="65.58807" lon="15.36556">
        <time>2026-03-23T13:47:00Z</time>
      </trkpt>
      <trkpt lat="65.59223" lon="15.36564">
        <time>2026-03-23T13:57:00Z</time>
      </trkpt>
      <trkpt lat="65.59719" lon="15.36822">
        <time>2026-03-23T14:07:00Z</time>
      </trkpt>
      <trkpt lat="65.6026" lon="15.36877">
        <time>2026-03-23T14:17:00Z</time>
      </trkpt>
      <trkpt lat="65.6043" lon="15.36345">
        <time>2026-03-23T14:27:00Z</time>
      </trkpt>
      <trkpt lat="65.60772" lon="15.35985">
        <time>2026-03-23T14:37:00Z</time>
      </trkpt>
      <trkpt lat="65.61363" lon="15.36146">
        <time>2026-03-23T14:47:00Z</time>
      </trkpt>
      <trkpt lat="65.62059" lon="15.36487">
        <time>2026-03-23T14:57:00Z</time>
      </trkpt>
      <trkpt lat="65.62633" lon="15.36498">
        <time>2026-03-23T15:07:00Z</time>
      </trkpt>
      <trkpt lat="65.6304" lon="15.35708">
        <time>2026-03-23T15:17:00Z</time>
      </trkpt>
      <trkpt lat="65.63279" lon="15.34337">
        <time>2026-03-23T15:27:00Z</time>
      </trkpt>
      <trkpt lat="65.6357" lon="15.3329">
        <time>2026-03-23T15:37:00Z</time>
      </trkpt>
      <trkpt lat="65.63544" lon="15.31678">
        <time>2026-03-23T15:47:00Z</time>
      </trkpt>
      <trkpt lat="65.64069" lon="15.3165">
        <time>2026-03-23T15:57:00Z</time>
      </trkpt>
      <trkpt lat="65.64585" lon="15.3167">
        <time>2026-03-23T16:07:00Z</time>
      </trkpt>
      <trkpt lat="65.65078" lon="15.30505">
        <time>2026-03-23T16:17:00Z</time>
      </trkpt>
      <trkpt lat="65.65461" lon="15.29365">
        <time>2026-03-23T16:27:00Z</time>
      </trkpt>
      <trkpt lat="65.65493" lon="15.2914">
        <time>2026-03-23T16:29:00Z</time>
      </trkpt>
      <trkpt lat="65.65502" lon="15.29148">
        <time>2026-03-24T07:40:00Z</time>
      </trkpt>
      <trkpt lat="65.66017" lon="15.29116">
        <time>2026-03-24T07:50:00Z</time>
      </trkpt>
      <trkpt lat="65.66179" lon="15.28754">
        <time>2026-03-24T08:00:00Z</time>
      </trkpt>
      <trkpt lat="65.66534" lon="15.27689">
        <time>2026-03-24T08:10:00Z</time>
      </trkpt>
      <trkpt lat="65.6688" lon="15.26486">
        <time>2026-03-24T08:20:00Z</time>
      </trkpt>
      <trkpt lat="65.67016" lon="15.25556">
        <time>2026-03-24T08:30:00Z</time>
      </trkpt>
      <trkpt lat="65.67251" lon="15.24466">
        <time>2026-03-24T08:40:00Z</time>
      </trkpt>
      <trkpt lat="65.6745" lon="15.23496">
        <time>2026-03-24T08:50:00Z</time>
      </trkpt>
      <trkpt lat="65.67492" lon="15.23119">
        <time>2026-03-24T09:00:00Z</time>
      </trkpt>
      <trkpt lat="65.6778" lon="15.2196">
        <time>2026-03-24T09:10:00Z</time>
      </trkpt>
      <trkpt lat="65.68054" lon="15.2108">
        <time>2026-03-24T09:20:00Z</time>
      </trkpt>
      <trkpt lat="65.68466" lon="15.19662">
        <time>2026-03-24T09:30:00Z</time>
      </trkpt>
      <trkpt lat="65.68953" lon="15.1898">
        <time>2026-03-24T09:40:00Z</time>
      </trkpt>
      <trkpt lat="65.69543" lon="15.18308">
        <time>2026-03-24T09:50:00Z</time>
      </trkpt>
      <trkpt lat="65.69871" lon="15.17864">
        <time>2026-03-24T10:00:00Z</time>
      </trkpt>
      <trkpt lat="65.70293" lon="15.16767">
        <time>2026-03-24T10:10:00Z</time>
      </trkpt>
      <trkpt lat="65.70746" lon="15.14954">
        <time>2026-03-24T10:20:00Z</time>
      </trkpt>
      <trkpt lat="65.71238" lon="15.15782">
        <time>2026-03-24T10:30:00Z</time>
      </trkpt>
      <trkpt lat="65.71266" lon="15.17136">
        <time>2026-03-24T10:40:00Z</time>
      </trkpt>
      <trkpt lat="65.71039" lon="15.18748">
        <time>2026-03-24T10:50:00Z</time>
      </trkpt>
      <trkpt lat="65.70807" lon="15.20359">
        <time>2026-03-24T11:00:00Z</time>
      </trkpt>
      <trkpt lat="65.70859" lon="15.21881">
        <time>2026-03-24T11:10:00Z</time>
      </trkpt>
      <trkpt lat="65.71103" lon="15.22295">
        <time>2026-03-24T11:20:00Z</time>
      </trkpt>
      <trkpt lat="65.70836" lon="15.23778">
        <time>2026-03-24T11:30:00Z</time>
      </trkpt>
      <trkpt lat="65.70981" lon="15.24378">
        <time>2026-03-24T11:40:00Z</time>
      </trkpt>
      <trkpt lat="65.71137" lon="15.24983">
        <time>2026-03-24T11:50:00Z</time>
      </trkpt>
      <trkpt lat="65.71155" lon="15.24983">
        <time>2026-03-24T11:51:00Z</time>
      </trkpt>
      <trkpt lat="65.71177" lon="15.2511">
        <time>2026-03-25T08:25:00Z</time>
      </trkpt>
      <trkpt lat="65.7111" lon="15.25586">
        <time>2026-03-25T08:35:00Z</time>
      </trkpt>
      <trkpt lat="65.71109" lon="15.25591">
        <time>2026-03-25T08:45:00Z</time>
      </trkpt>
      <trkpt lat="65.70969" lon="15.26835">
        <time>2026-03-25T08:55:00Z</time>
      </trkpt>
      <trkpt lat="65.7109" lon="15.28685">
        <time>2026-03-25T09:05:00Z</time>
      </trkpt>
      <trkpt lat="65.71304" lon="15.30513">
        <time>2026-03-25T09:15:00Z</time>
      </trkpt>
      <trkpt lat="65.71295" lon="15.31964">
        <time>2026-03-25T09:25:00Z</time>
      </trkpt>
      <trkpt lat="65.7155" lon="15.33403">
        <time>2026-03-25T09:35:00Z</time>
      </trkpt>
      <trkpt lat="65.71772" lon="15.33764">
        <time>2026-03-25T09:45:00Z</time>
      </trkpt>
      <trkpt lat="65.72169" lon="15.33303">
        <time>2026-03-25T09:55:00Z</time>
      </trkpt>
      <trkpt lat="65.72559" lon="15.33034">
        <time>2026-03-25T10:05:00Z</time>
      </trkpt>
      <trkpt lat="65.72879" lon="15.33511">
        <time>2026-03-25T10:15:00Z</time>
      </trkpt>
      <trkpt lat="65.7337" lon="15.33951">
        <time>2026-03-25T10:25:00Z</time>
      </trkpt>
      <trkpt lat="65.73769" lon="15.33446">
        <time>2026-03-25T10:35:00Z</time>
      </trkpt>
      <trkpt lat="65.7399" lon="15.32238">
        <time>2026-03-25T10:45:00Z</time>
      </trkpt>
      <trkpt lat="65.74565" lon="15.31256">
        <time>2026-03-25T10:55:00Z</time>
      </trkpt>
      <trkpt lat="65.75303" lon="15.30865">
        <time>2026-03-25T11:05:00Z</time>
      </trkpt>
      <trkpt lat="65.75755" lon="15.31">
        <time>2026-03-25T11:15:00Z</time>
      </trkpt>
      <trkpt lat="65.75915" lon="15.31386">
        <time>2026-03-25T11:25:00Z</time>
      </trkpt>
      <trkpt lat="65.7618" lon="15.31474">
        <time>2026-03-25T11:35:00Z</time>
      </trkpt>
      <trkpt lat="65.76217" lon="15.32384">
        <time>2026-03-25T11:45:00Z</time>
      </trkpt>
      <trkpt lat="65.76258" lon="15.33167">
        <time>2026-03-25T11:55:00Z</time>
      </trkpt>
      <trkpt lat="65.76286" lon="15.33837">
        <time>2026-03-25T12:05:00Z</time>
      </trkpt>
      <trkpt lat="65.7641" lon="15.34251">
        <time>2026-03-25T12:15:00Z</time>
      </trkpt>
      <trkpt lat="65.7664" lon="15.3468">
        <time>2026-03-25T12:25:00Z</time>
      </trkpt>
      <trkpt lat="65.76893" lon="15.34985">
        <time>2026-03-25T12:35:00Z</time>
      </trkpt>
      <trkpt lat="65.77182" lon="15.35148">
        <time>2026-03-25T12:45:00Z</time>
      </trkpt>
      <trkpt lat="65.77475" lon="15.3515">
        <time>2026-03-25T12:55:00Z</time>
      </trkpt>
      <trkpt lat="65.78009" lon="15.34942">
        <time>2026-03-25T13:05:00Z</time>
      </trkpt>
      <trkpt lat="65.78624" lon="15.35214">
        <time>2026-03-25T13:15:00Z</time>
      </trkpt>
      <trkpt lat="65.78849" lon="15.35348">
        <time>2026-03-25T13:25:00Z</time>
      </trkpt>
      <trkpt lat="65.79295" lon="15.35607">
        <time>2026-03-25T13:35:00Z</time>
      </trkpt>
      <trkpt lat="65.79699" lon="15.35839">
        <time>2026-03-25T13:45:00Z</time>
      </trkpt>
      <trkpt lat="65.80313" lon="15.35783">
        <time>2026-03-25T13:55:00Z</time>
      </trkpt>
      <trkpt lat="65.81002" lon="15.35678">
        <time>2026-03-25T14:05:00Z</time>
      </trkpt>
      <trkpt lat="65.81704" lon="15.35438">
        <time>2026-03-25T14:15:00Z</time>
      </trkpt>
      <trkpt lat="65.82296" lon="15.35088">
        <time>2026-03-25T14:25:00Z</time>
      </trkpt>
      <trkpt lat="65.82938" lon="15.34504">
        <time>2026-03-25T14:35:00Z</time>
      </trkpt>
      <trkpt lat="65.83331" lon="15.34148">
        <time>2026-03-25T14:45:00Z</time>
      </trkpt>
      <trkpt lat="65.83919" lon="15.33682">
        <time>2026-03-25T14:55:00Z</time>
      </trkpt>
      <trkpt lat="65.84495" lon="15.33326">
        <time>2026-03-25T15:05:00Z</time>
      </trkpt>
      <trkpt lat="65.85153" lon="15.32919">
        <time>2026-03-25T15:15:00Z</time>
      </trkpt>
    </trkseg>
  </trk>
  <trk>
    <name>Klimpf→Hemavan · Lenita Bryntesson (west-skip)</name>
    <trkseg>
      <trkpt lat="65.0597" lon="14.78937">
        <time>2025-03-07T07:50:00Z</time>
      </trkpt>
      <trkpt lat="65.05984" lon="14.79118">
        <time>2025-03-07T08:00:00Z</time>
      </trkpt>
      <trkpt lat="65.06308" lon="14.80628">
        <time>2025-03-07T08:10:00Z</time>
      </trkpt>
      <trkpt lat="65.06298" lon="14.81635">
        <time>2025-03-07T08:20:00Z</time>
      </trkpt>
      <trkpt lat="65.06225" lon="14.83519">
        <time>2025-03-07T08:30:00Z</time>
      </trkpt>
      <trkpt lat="65.06125" lon="14.85126">
        <time>2025-03-07T08:40:00Z</time>
      </trkpt>
      <trkpt lat="65.0594" lon="14.86948">
        <time>2025-03-07T08:50:00Z</time>
      </trkpt>
      <trkpt lat="65.05778" lon="14.88613">
        <time>2025-03-07T09:00:00Z</time>
      </trkpt>
      <trkpt lat="65.05629" lon="14.90473">
        <time>2025-03-07T09:10:00Z</time>
      </trkpt>
      <trkpt lat="65.05512" lon="14.92428">
        <time>2025-03-07T09:20:00Z</time>
      </trkpt>
      <trkpt lat="65.05493" lon="14.93874">
        <time>2025-03-07T09:30:00Z</time>
      </trkpt>
      <trkpt lat="65.05538" lon="14.95441">
        <time>2025-03-07T09:40:00Z</time>
      </trkpt>
      <trkpt lat="65.05671" lon="14.972">
        <time>2025-03-07T09:50:00Z</time>
      </trkpt>
      <trkpt lat="65.05828" lon="14.99065">
        <time>2025-03-07T10:00:00Z</time>
      </trkpt>
      <trkpt lat="65.05945" lon="15.00756">
        <time>2025-03-07T10:10:00Z</time>
      </trkpt>
      <trkpt lat="65.06027" lon="15.02562">
        <time>2025-03-07T10:20:00Z</time>
      </trkpt>
      <trkpt lat="65.06115" lon="15.04303">
        <time>2025-03-07T10:30:00Z</time>
      </trkpt>
      <trkpt lat="65.06135" lon="15.05646">
        <time>2025-03-07T10:40:00Z</time>
      </trkpt>
      <trkpt lat="65.0621" lon="15.05779">
        <time>2025-03-07T10:50:00Z</time>
      </trkpt>
      <trkpt lat="65.06384" lon="15.06182">
        <time>2025-03-07T11:00:00Z</time>
      </trkpt>
      <trkpt lat="65.06672" lon="15.07212">
        <time>2025-03-07T11:10:00Z</time>
      </trkpt>
      <trkpt lat="65.07046" lon="15.08128">
        <time>2025-03-07T11:20:00Z</time>
      </trkpt>
      <trkpt lat="65.07416" lon="15.08107">
        <time>2025-03-07T11:30:00Z</time>
      </trkpt>
      <trkpt lat="65.0783" lon="15.08892">
        <time>2025-03-07T11:40:00Z</time>
      </trkpt>
      <trkpt lat="65.08383" lon="15.0894">
        <time>2025-03-07T11:50:00Z</time>
      </trkpt>
      <trkpt lat="65.08576" lon="15.0874">
        <time>2025-03-07T12:00:00Z</time>
      </trkpt>
      <trkpt lat="65.09416" lon="15.09879">
        <time>2025-03-07T12:10:00Z</time>
      </trkpt>
      <trkpt lat="65.09412" lon="15.09892">
        <time>2025-03-07T12:20:00Z</time>
      </trkpt>
      <trkpt lat="65.09715" lon="15.10163">
        <time>2025-03-07T13:00:00Z</time>
      </trkpt>
      <trkpt lat="65.10495" lon="15.09343">
        <time>2025-03-07T13:10:00Z</time>
      </trkpt>
      <trkpt lat="65.11132" lon="15.08319">
        <time>2025-03-07T13:20:00Z</time>
      </trkpt>
      <trkpt lat="65.11956" lon="15.0694">
        <time>2025-03-07T13:30:00Z</time>
      </trkpt>
      <trkpt lat="65.11969" lon="15.0686">
        <time>2025-03-07T13:40:00Z</time>
      </trkpt>
      <trkpt lat="65.11971" lon="15.06852">
        <time>2025-03-07T13:42:00Z</time>
      </trkpt>
      <trkpt lat="65.11946" lon="15.06869">
        <time>2025-03-08T09:13:00Z</time>
      </trkpt>
      <trkpt lat="65.12315" lon="15.06071">
        <time>2025-03-08T09:23:00Z</time>
      </trkpt>
      <trkpt lat="65.12936" lon="15.0474">
        <time>2025-03-08T09:33:00Z</time>
      </trkpt>
      <trkpt lat="65.13723" lon="15.04453">
        <time>2025-03-08T09:43:00Z</time>
      </trkpt>
      <trkpt lat="65.1433" lon="15.04489">
        <time>2025-03-08T09:53:00Z</time>
      </trkpt>
      <trkpt lat="65.15116" lon="15.04873">
        <time>2025-03-08T10:03:00Z</time>
      </trkpt>
      <trkpt lat="65.15659" lon="15.06109">
        <time>2025-03-08T10:13:00Z</time>
      </trkpt>
      <trkpt lat="65.16284" lon="15.06781">
        <time>2025-03-08T10:23:00Z</time>
      </trkpt>
      <trkpt lat="65.17086" lon="15.07262">
        <time>2025-03-08T10:33:00Z</time>
      </trkpt>
      <trkpt lat="65.17085" lon="15.07259">
        <time>2025-03-08T10:43:00Z</time>
      </trkpt>
      <trkpt lat="65.1751" lon="15.0774">
        <time>2025-03-08T10:53:00Z</time>
      </trkpt>
      <trkpt lat="65.18168" lon="15.07633">
        <time>2025-03-08T11:03:00Z</time>
      </trkpt>
      <trkpt lat="65.18731" lon="15.07274">
        <time>2025-03-08T11:13:00Z</time>
      </trkpt>
      <trkpt lat="65.19171" lon="15.06895">
        <time>2025-03-08T11:23:00Z</time>
      </trkpt>
      <trkpt lat="65.19781" lon="15.06365">
        <time>2025-03-08T11:33:00Z</time>
      </trkpt>
      <trkpt lat="65.20283" lon="15.06279">
        <time>2025-03-08T11:43:00Z</time>
      </trkpt>
      <trkpt lat="65.20292" lon="15.06369">
        <time>2025-03-08T11:53:00Z</time>
      </trkpt>
      <trkpt lat="65.20675" lon="15.05764">
        <time>2025-03-08T12:33:00Z</time>
      </trkpt>
      <trkpt lat="65.21319" lon="15.05215">
        <time>2025-03-08T12:43:00Z</time>
      </trkpt>
      <trkpt lat="65.21965" lon="15.04721">
        <time>2025-03-08T12:53:00Z</time>
      </trkpt>
      <trkpt lat="65.22285" lon="15.04436">
        <time>2025-03-08T13:03:00Z</time>
      </trkpt>
      <trkpt lat="65.22724" lon="15.04165">
        <time>2025-03-08T13:13:00Z</time>
      </trkpt>
      <trkpt lat="65.23315" lon="15.03678">
        <time>2025-03-08T13:23:00Z</time>
      </trkpt>
      <trkpt lat="65.23757" lon="15.0332">
        <time>2025-03-08T13:33:00Z</time>
      </trkpt>
      <trkpt lat="65.24412" lon="15.02856">
        <time>2025-03-08T13:43:00Z</time>
      </trkpt>
      <trkpt lat="65.24897" lon="15.02547">
        <time>2025-03-08T13:53:00Z</time>
      </trkpt>
      <trkpt lat="65.25347" lon="15.02223">
        <time>2025-03-08T14:03:00Z</time>
      </trkpt>
      <trkpt lat="65.25956" lon="15.02361">
        <time>2025-03-08T14:13:00Z</time>
      </trkpt>
      <trkpt lat="65.26543" lon="15.02455">
        <time>2025-03-08T14:23:00Z</time>
      </trkpt>
      <trkpt lat="65.27097" lon="15.02393">
        <time>2025-03-08T14:33:00Z</time>
      </trkpt>
      <trkpt lat="65.27696" lon="15.02097">
        <time>2025-03-08T14:43:00Z</time>
      </trkpt>
      <trkpt lat="65.28223" lon="15.01912">
        <time>2025-03-08T14:53:00Z</time>
      </trkpt>
      <trkpt lat="65.28824" lon="15.01852">
        <time>2025-03-08T15:03:00Z</time>
      </trkpt>
      <trkpt lat="65.29304" lon="15.02369">
        <time>2025-03-08T15:13:00Z</time>
      </trkpt>
      <trkpt lat="65.29704" lon="15.02824">
        <time>2025-03-08T15:23:00Z</time>
      </trkpt>
      <trkpt lat="65.29816" lon="15.02786">
        <time>2025-03-08T15:33:00Z</time>
      </trkpt>
      <trkpt lat="65.29822" lon="15.02768">
        <time>2025-03-08T15:43:00Z</time>
      </trkpt>
      <trkpt lat="65.30038" lon="15.0261">
        <time>2025-03-08T16:03:00Z</time>
      </trkpt>
      <trkpt lat="65.30572" lon="15.0276">
        <time>2025-03-08T16:13:00Z</time>
      </trkpt>
      <trkpt lat="65.30573" lon="15.02725">
        <time>2025-03-08T16:16:00Z</time>
      </trkpt>
      <trkpt lat="65.30612" lon="15.02723">
        <time>2025-03-09T08:00:00Z</time>
      </trkpt>
      <trkpt lat="65.30932" lon="15.03339">
        <time>2025-03-09T08:10:00Z</time>
      </trkpt>
      <trkpt lat="65.31335" lon="15.04041">
        <time>2025-03-09T08:20:00Z</time>
      </trkpt>
      <trkpt lat="65.3197" lon="15.05491">
        <time>2025-03-09T08:30:00Z</time>
      </trkpt>
      <trkpt lat="65.32423" lon="15.06176">
        <time>2025-03-09T08:40:00Z</time>
      </trkpt>
      <trkpt lat="65.32925" lon="15.06807">
        <time>2025-03-09T08:50:00Z</time>
      </trkpt>
      <trkpt lat="65.33238" lon="15.08006">
        <time>2025-03-09T09:00:00Z</time>
      </trkpt>
      <trkpt lat="65.33472" lon="15.09371">
        <time>2025-03-09T09:10:00Z</time>
      </trkpt>
      <trkpt lat="65.3387" lon="15.10096">
        <time>2025-03-09T09:20:00Z</time>
      </trkpt>
      <trkpt lat="65.33996" lon="15.10283">
        <time>2025-03-09T09:30:00Z</time>
      </trkpt>
      <trkpt lat="65.34256" lon="15.09952">
        <time>2025-03-09T09:40:00Z</time>
      </trkpt>
      <trkpt lat="65.34722" lon="15.09186">
        <time>2025-03-09T09:50:00Z</time>
      </trkpt>
      <trkpt lat="65.3489" lon="15.0744">
        <time>2025-03-09T10:00:00Z</time>
      </trkpt>
      <trkpt lat="65.35231" lon="15.06021">
        <time>2025-03-09T10:10:00Z</time>
      </trkpt>
      <trkpt lat="65.36195" lon="15.04869">
        <time>2025-03-09T10:20:00Z</time>
      </trkpt>
      <trkpt lat="65.36375" lon="15.04262">
        <time>2025-03-09T10:30:00Z</time>
      </trkpt>
      <trkpt lat="65.37187" lon="15.03526">
        <time>2025-03-09T10:40:00Z</time>
      </trkpt>
      <trkpt lat="65.37925" lon="15.02627">
        <time>2025-03-09T10:50:00Z</time>
      </trkpt>
      <trkpt lat="65.38476" lon="15.02277">
        <time>2025-03-09T11:00:00Z</time>
      </trkpt>
      <trkpt lat="65.39207" lon="15.01028">
        <time>2025-03-09T11:10:00Z</time>
      </trkpt>
      <trkpt lat="65.39482" lon="15.00032">
        <time>2025-03-09T11:20:00Z</time>
      </trkpt>
      <trkpt lat="65.39909" lon="14.9838">
        <time>2025-03-09T11:30:00Z</time>
      </trkpt>
      <trkpt lat="65.40479" lon="14.972">
        <time>2025-03-09T11:40:00Z</time>
      </trkpt>
      <trkpt lat="65.40886" lon="14.97485">
        <time>2025-03-09T11:50:00Z</time>
      </trkpt>
      <trkpt lat="65.41065" lon="14.98588">
        <time>2025-03-09T12:00:00Z</time>
      </trkpt>
      <trkpt lat="65.41066" lon="14.98966">
        <time>2025-03-09T12:10:00Z</time>
      </trkpt>
      <trkpt lat="65.41117" lon="14.98981">
        <time>2025-03-09T12:17:00Z</time>
      </trkpt>
      <trkpt lat="65.41116" lon="14.98957">
        <time>2025-03-10T07:05:00Z</time>
      </trkpt>
      <trkpt lat="65.41122" lon="14.98972">
        <time>2025-03-10T07:06:00Z</time>
      </trkpt>
      <trkpt lat="65.41116" lon="14.9896">
        <time>2025-03-10T08:03:00Z</time>
      </trkpt>
      <trkpt lat="65.41116" lon="14.9896">
        <time>2025-03-10T08:04:00Z</time>
      </trkpt>
      <trkpt lat="65.41117" lon="14.9896">
        <time>2025-03-10T08:05:00Z</time>
      </trkpt>
      <trkpt lat="65.41118" lon="14.9896">
        <time>2025-03-10T08:05:00Z</time>
      </trkpt>
      <trkpt lat="65.41117" lon="14.98977">
        <time>2025-03-10T08:06:00Z</time>
      </trkpt>
      <trkpt lat="65.41121" lon="14.99">
        <time>2025-03-10T08:06:00Z</time>
      </trkpt>
      <trkpt lat="65.41156" lon="14.99279">
        <time>2025-03-10T08:16:00Z</time>
      </trkpt>
      <trkpt lat="65.41271" lon="15.0035">
        <time>2025-03-10T08:26:00Z</time>
      </trkpt>
      <trkpt lat="65.41433" lon="15.01848">
        <time>2025-03-10T08:36:00Z</time>
      </trkpt>
      <trkpt lat="65.41283" lon="15.03427">
        <time>2025-03-10T08:46:00Z</time>
      </trkpt>
      <trkpt lat="65.41193" lon="15.05092">
        <time>2025-03-10T08:56:00Z</time>
      </trkpt>
      <trkpt lat="65.41092" lon="15.0639">
        <time>2025-03-10T09:06:00Z</time>
      </trkpt>
      <trkpt lat="65.40975" lon="15.08154">
        <time>2025-03-10T09:16:00Z</time>
      </trkpt>
      <trkpt lat="65.4092" lon="15.09167">
        <time>2025-03-10T09:26:00Z</time>
      </trkpt>
      <trkpt lat="65.41014" lon="15.10856">
        <time>2025-03-10T09:36:00Z</time>
      </trkpt>
      <trkpt lat="65.41118" lon="15.1239">
        <time>2025-03-10T09:46:00Z</time>
      </trkpt>
      <trkpt lat="65.41163" lon="15.13085">
        <time>2025-03-10T09:56:00Z</time>
      </trkpt>
      <trkpt lat="65.41218" lon="15.13853">
        <time>2025-03-10T10:06:00Z</time>
      </trkpt>
      <trkpt lat="65.41334" lon="15.15615">
        <time>2025-03-10T10:16:00Z</time>
      </trkpt>
      <trkpt lat="65.41518" lon="15.17128">
        <time>2025-03-10T10:26:00Z</time>
      </trkpt>
      <trkpt lat="65.41918" lon="15.18462">
        <time>2025-03-10T10:36:00Z</time>
      </trkpt>
      <trkpt lat="65.42224" lon="15.19473">
        <time>2025-03-10T10:46:00Z</time>
      </trkpt>
      <trkpt lat="65.42579" lon="15.20645">
        <time>2025-03-10T10:56:00Z</time>
      </trkpt>
      <trkpt lat="65.42885" lon="15.21681">
        <time>2025-03-10T11:06:00Z</time>
      </trkpt>
      <trkpt lat="65.43104" lon="15.21945">
        <time>2025-03-10T11:16:00Z</time>
      </trkpt>
      <trkpt lat="65.43279" lon="15.22434">
        <time>2025-03-10T11:26:00Z</time>
      </trkpt>
      <trkpt lat="65.43282" lon="15.22436">
        <time>2025-03-10T11:36:00Z</time>
      </trkpt>
      <trkpt lat="65.43315" lon="15.23162">
        <time>2025-03-10T11:46:00Z</time>
      </trkpt>
      <trkpt lat="65.43733" lon="15.23617">
        <time>2025-03-10T11:56:00Z</time>
      </trkpt>
      <trkpt lat="65.44528" lon="15.23649">
        <time>2025-03-10T12:06:00Z</time>
      </trkpt>
      <trkpt lat="65.45146" lon="15.24996">
        <time>2025-03-10T12:16:00Z</time>
      </trkpt>
      <trkpt lat="65.45312" lon="15.25018">
        <time>2025-03-10T12:26:00Z</time>
      </trkpt>
      <trkpt lat="65.45315" lon="15.25029">
        <time>2025-03-10T12:36:00Z</time>
      </trkpt>
      <trkpt lat="65.46007" lon="15.25872">
        <time>2025-03-10T13:06:00Z</time>
      </trkpt>
      <trkpt lat="65.46873" lon="15.28183">
        <time>2025-03-10T13:16:00Z</time>
      </trkpt>
      <trkpt lat="65.47573" lon="15.3067">
        <time>2025-03-10T13:26:00Z</time>
      </trkpt>
      <trkpt lat="65.48243" lon="15.3259">
        <time>2025-03-10T13:36:00Z</time>
      </trkpt>
      <trkpt lat="65.48654" lon="15.34148">
        <time>2025-03-10T13:46:00Z</time>
      </trkpt>
      <trkpt lat="65.49245" lon="15.34981">
        <time>2025-03-10T13:56:00Z</time>
      </trkpt>
      <trkpt lat="65.49735" lon="15.34504">
        <time>2025-03-10T14:06:00Z</time>
      </trkpt>
      <trkpt lat="65.50482" lon="15.34725">
        <time>2025-03-10T14:16:00Z</time>
      </trkpt>
      <trkpt lat="65.50879" lon="15.34592">
        <time>2025-03-10T14:26:00Z</time>
      </trkpt>
      <trkpt lat="65.51459" lon="15.34463">
        <time>2025-03-10T14:36:00Z</time>
      </trkpt>
      <trkpt lat="65.5204" lon="15.33891">
        <time>2025-03-10T14:46:00Z</time>
      </trkpt>
      <trkpt lat="65.52651" lon="15.33245">
        <time>2025-03-10T14:56:00Z</time>
      </trkpt>
      <trkpt lat="65.52794" lon="15.33206">
        <time>2025-03-10T15:06:00Z</time>
      </trkpt>
      <trkpt lat="65.53577" lon="15.33234">
        <time>2025-03-10T15:16:00Z</time>
      </trkpt>
      <trkpt lat="65.54375" lon="15.33283">
        <time>2025-03-10T15:26:00Z</time>
      </trkpt>
      <trkpt lat="65.55093" lon="15.34013">
        <time>2025-03-10T15:36:00Z</time>
      </trkpt>
      <trkpt lat="65.55444" lon="15.34549">
        <time>2025-03-10T15:46:00Z</time>
      </trkpt>
      <trkpt lat="65.55525" lon="15.34517">
        <time>2025-03-11T07:38:00Z</time>
      </trkpt>
      <trkpt lat="65.55645" lon="15.34742">
        <time>2025-03-11T07:48:00Z</time>
      </trkpt>
      <trkpt lat="65.55877" lon="15.34897">
        <time>2025-03-11T07:58:00Z</time>
      </trkpt>
      <trkpt lat="65.56205" lon="15.35058">
        <time>2025-03-11T08:08:00Z</time>
      </trkpt>
      <trkpt lat="65.56445" lon="15.35882">
        <time>2025-03-11T08:18:00Z</time>
      </trkpt>
      <trkpt lat="65.56543" lon="15.35963">
        <time>2025-03-11T08:28:00Z</time>
      </trkpt>
      <trkpt lat="65.56869" lon="15.36219">
        <time>2025-03-11T08:38:00Z</time>
      </trkpt>
      <trkpt lat="65.57184" lon="15.36163">
        <time>2025-03-11T08:48:00Z</time>
      </trkpt>
      <trkpt lat="65.57458" lon="15.35884">
        <time>2025-03-11T08:58:00Z</time>
      </trkpt>
      <trkpt lat="65.57656" lon="15.36075">
        <time>2025-03-11T09:08:00Z</time>
      </trkpt>
      <trkpt lat="65.57941" lon="15.36071">
        <time>2025-03-11T09:18:00Z</time>
      </trkpt>
      <trkpt lat="65.58197" lon="15.36148">
        <time>2025-03-11T09:28:00Z</time>
      </trkpt>
      <trkpt lat="65.58528" lon="15.36586">
        <time>2025-03-11T09:38:00Z</time>
      </trkpt>
      <trkpt lat="65.58894" lon="15.36564">
        <time>2025-03-11T09:48:00Z</time>
      </trkpt>
      <trkpt lat="65.58953" lon="15.36545">
        <time>2025-03-11T09:58:00Z</time>
      </trkpt>
      <trkpt lat="65.59511" lon="15.36762">
        <time>2025-03-11T10:08:00Z</time>
      </trkpt>
      <trkpt lat="65.60127" lon="15.37043">
        <time>2025-03-11T10:18:00Z</time>
      </trkpt>
      <trkpt lat="65.60363" lon="15.36652">
        <time>2025-03-11T10:28:00Z</time>
      </trkpt>
      <trkpt lat="65.60506" lon="15.36023">
        <time>2025-03-11T10:38:00Z</time>
      </trkpt>
      <trkpt lat="65.60963" lon="15.35931">
        <time>2025-03-11T10:48:00Z</time>
      </trkpt>
      <trkpt lat="65.61463" lon="15.36247">
        <time>2025-03-11T10:58:00Z</time>
      </trkpt>
      <trkpt lat="65.61496" lon="15.36272">
        <time>2025-03-11T11:08:00Z</time>
      </trkpt>
      <trkpt lat="65.62234" lon="15.36457">
        <time>2025-03-11T11:18:00Z</time>
      </trkpt>
      <trkpt lat="65.62933" lon="15.36103">
        <time>2025-03-11T11:28:00Z</time>
      </trkpt>
      <trkpt lat="65.63155" lon="15.347">
        <time>2025-03-11T11:38:00Z</time>
      </trkpt>
      <trkpt lat="65.63569" lon="15.33331">
        <time>2025-03-11T11:48:00Z</time>
      </trkpt>
      <trkpt lat="65.6355" lon="15.3167">
        <time>2025-03-11T11:58:00Z</time>
      </trkpt>
      <trkpt lat="65.6386" lon="15.31389">
        <time>2025-03-11T12:08:00Z</time>
      </trkpt>
      <trkpt lat="65.63859" lon="15.31393">
        <time>2025-03-11T12:18:00Z</time>
      </trkpt>
      <trkpt lat="65.6439" lon="15.31745">
        <time>2025-03-11T12:48:00Z</time>
      </trkpt>
      <trkpt lat="65.64928" lon="15.30796">
        <time>2025-03-11T12:58:00Z</time>
      </trkpt>
      <trkpt lat="65.65423" lon="15.29584">
        <time>2025-03-11T13:08:00Z</time>
      </trkpt>
      <trkpt lat="65.65702" lon="15.28859">
        <time>2025-03-11T13:18:00Z</time>
      </trkpt>
      <trkpt lat="65.66192" lon="15.2873">
        <time>2025-03-11T13:28:00Z</time>
      </trkpt>
      <trkpt lat="65.66729" lon="15.2697">
        <time>2025-03-11T13:38:00Z</time>
      </trkpt>
      <trkpt lat="65.66967" lon="15.26558">
        <time>2025-03-11T13:48:00Z</time>
      </trkpt>
      <trkpt lat="65.67509" lon="15.25599">
        <time>2025-03-11T13:58:00Z</time>
      </trkpt>
      <trkpt lat="65.68114" lon="15.25593">
        <time>2025-03-11T14:08:00Z</time>
      </trkpt>
      <trkpt lat="65.6858" lon="15.25913">
        <time>2025-03-11T14:18:00Z</time>
      </trkpt>
      <trkpt lat="65.68884" lon="15.26451">
        <time>2025-03-11T14:28:00Z</time>
      </trkpt>
      <trkpt lat="65.68803" lon="15.26558">
        <time>2025-03-11T14:38:00Z</time>
      </trkpt>
      <trkpt lat="65.68708" lon="15.27846">
        <time>2025-03-11T14:48:00Z</time>
      </trkpt>
      <trkpt lat="65.68952" lon="15.29869">
        <time>2025-03-11T14:58:00Z</time>
      </trkpt>
      <trkpt lat="65.69303" lon="15.29569">
        <time>2025-03-11T15:08:00Z</time>
      </trkpt>
      <trkpt lat="65.69719" lon="15.29105">
        <time>2025-03-11T15:18:00Z</time>
      </trkpt>
      <trkpt lat="65.70052" lon="15.29213">
        <time>2025-03-11T15:28:00Z</time>
      </trkpt>
      <trkpt lat="65.70458" lon="15.29262">
        <time>2025-03-11T15:38:00Z</time>
      </trkpt>
      <trkpt lat="65.71006" lon="15.29395">
        <time>2025-03-11T15:48:00Z</time>
      </trkpt>
      <trkpt lat="65.71404" lon="15.29344">
        <time>2025-03-11T15:58:00Z</time>
      </trkpt>
      <trkpt lat="65.71421" lon="15.29427">
        <time>2025-03-11T16:01:00Z</time>
      </trkpt>
      <trkpt lat="65.71438" lon="15.29393">
        <time>2025-03-13T08:28:00Z</time>
      </trkpt>
      <trkpt lat="65.713" lon="15.30217">
        <time>2025-03-13T08:38:00Z</time>
      </trkpt>
      <trkpt lat="65.71254" lon="15.32217">
        <time>2025-03-13T08:48:00Z</time>
      </trkpt>
      <trkpt lat="65.71505" lon="15.33234">
        <time>2025-03-13T08:58:00Z</time>
      </trkpt>
      <trkpt lat="65.72005" lon="15.33541">
        <time>2025-03-13T09:08:00Z</time>
      </trkpt>
      <trkpt lat="65.72529" lon="15.32996">
        <time>2025-03-13T09:18:00Z</time>
      </trkpt>
      <trkpt lat="65.73201" lon="15.33644">
        <time>2025-03-13T09:28:00Z</time>
      </trkpt>
      <trkpt lat="65.73746" lon="15.33597">
        <time>2025-03-13T09:38:00Z</time>
      </trkpt>
      <trkpt lat="65.73964" lon="15.32569">
        <time>2025-03-13T09:48:00Z</time>
      </trkpt>
      <trkpt lat="65.7432" lon="15.31616">
        <time>2025-03-13T09:58:00Z</time>
      </trkpt>
      <trkpt lat="65.74987" lon="15.31165">
        <time>2025-03-13T10:08:00Z</time>
      </trkpt>
      <trkpt lat="65.75696" lon="15.30856">
        <time>2025-03-13T10:18:00Z</time>
      </trkpt>
      <trkpt lat="65.75836" lon="15.31468">
        <time>2025-03-13T10:28:00Z</time>
      </trkpt>
      <trkpt lat="65.75963" lon="15.31337">
        <time>2025-03-13T10:38:00Z</time>
      </trkpt>
      <trkpt lat="65.76217" lon="15.31537">
        <time>2025-03-13T10:48:00Z</time>
      </trkpt>
      <trkpt lat="65.7623" lon="15.32406">
        <time>2025-03-13T10:58:00Z</time>
      </trkpt>
      <trkpt lat="65.76257" lon="15.33157">
        <time>2025-03-13T11:08:00Z</time>
      </trkpt>
      <trkpt lat="65.76323" lon="15.33981">
        <time>2025-03-13T11:18:00Z</time>
      </trkpt>
      <trkpt lat="65.76433" lon="15.3433">
        <time>2025-03-13T11:28:00Z</time>
      </trkpt>
      <trkpt lat="65.76684" lon="15.3473">
        <time>2025-03-13T11:38:00Z</time>
      </trkpt>
      <trkpt lat="65.76999" lon="15.35032">
        <time>2025-03-13T11:48:00Z</time>
      </trkpt>
      <trkpt lat="65.77078" lon="15.35107">
        <time>2025-03-13T11:58:00Z</time>
      </trkpt>
      <trkpt lat="65.77369" lon="15.35152">
        <time>2025-03-13T12:08:00Z</time>
      </trkpt>
      <trkpt lat="65.77923" lon="15.3494">
        <time>2025-03-13T12:18:00Z</time>
      </trkpt>
      <trkpt lat="65.78636" lon="15.35245">
        <time>2025-03-13T12:28:00Z</time>
      </trkpt>
      <trkpt lat="65.78643" lon="15.35249">
        <time>2025-03-13T12:38:00Z</time>
      </trkpt>
      <trkpt lat="65.79296" lon="15.35594">
        <time>2025-03-13T13:08:00Z</time>
      </trkpt>
      <trkpt lat="65.79805" lon="15.35871">
        <time>2025-03-13T13:18:00Z</time>
      </trkpt>
      <trkpt lat="65.80525" lon="15.35749">
        <time>2025-03-13T13:28:00Z</time>
      </trkpt>
      <trkpt lat="65.81273" lon="15.35586">
        <time>2025-03-13T13:38:00Z</time>
      </trkpt>
      <trkpt lat="65.81848" lon="15.35356">
        <time>2025-03-13T13:48:00Z</time>
      </trkpt>
      <trkpt lat="65.81808" lon="15.35378">
        <time>2025-03-13T13:59:00Z</time>
      </trkpt>
      <trkpt lat="65.82064" lon="15.35283">
        <time>2025-03-13T14:09:00Z</time>
      </trkpt>
      <trkpt lat="65.82737" lon="15.34691">
        <time>2025-03-13T14:19:00Z</time>
      </trkpt>
      <trkpt lat="65.83261" lon="15.34221">
        <time>2025-03-13T14:29:00Z</time>
      </trkpt>
      <trkpt lat="65.83637" lon="15.33873">
        <time>2025-03-13T14:39:00Z</time>
      </trkpt>
      <trkpt lat="65.84299" lon="15.33453">
        <time>2025-03-13T14:49:00Z</time>
      </trkpt>
      <trkpt lat="65.8488" lon="15.33088">
        <time>2025-03-13T14:59:00Z</time>
      </trkpt>
      <trkpt lat="65.85516" lon="15.32704">
        <time>2025-03-13T15:09:00Z</time>
      </trkpt>
    </trkseg>
  </trk>
</gpx>
