<?xml version="1.0" encoding="UTF-8"?>
<gpx xmlns="http://www.topografix.com/GPX/1/1" version="1.1" creator="VitaBandet">
  <metadata>
    <name>Klimpf→Hemavan · Mats Kall (village)</name>
  </metadata>
  <wpt lat="65.12148" lon="14.52411">
    <name>Klimpfjäll</name>
  </wpt>
  <wpt lat="65.83644" lon="15.09274">
    <name>Hemavan</name>
  </wpt>
  <trk>
    <name>Klimpf→Hemavan · Mats Kall (village)</name>
    <trkseg>
      <trkpt lat="65.12148" lon="14.52411">
        <time>2025-03-10T11:25:00Z</time>
      </trkpt>
      <trkpt lat="65.12477" lon="14.52823">
        <time>2025-03-10T11:35:00Z</time>
      </trkpt>
      <trkpt lat="65.12952" lon="14.5309">
        <time>2025-03-10T11:45:00Z</time>
      </trkpt>
      <trkpt lat="65.13254" lon="14.53313">
        <time>2025-03-10T11:55:00Z</time>
      </trkpt>
      <trkpt lat="65.13815" lon="14.54096">
        <time>2025-03-10T12:05:00Z</time>
      </trkpt>
      <trkpt lat="65.14127" lon="14.55319">
        <time>2025-03-10T12:15:00Z</time>
      </trkpt>
      <trkpt lat="65.14174" lon="14.55463">
        <time>2025-03-10T12:25:00Z</time>
      </trkpt>
      <trkpt lat="65.14398" lon="14.55952">
        <time>2025-03-10T13:05:00Z</time>
      </trkpt>
      <trkpt lat="65.14816" lon="14.56467">
        <time>2025-03-10T13:15:00Z</time>
      </trkpt>
      <trkpt lat="65.15503" lon="14.57061">
        <time>2025-03-10T13:25:00Z</time>
      </trkpt>
      <trkpt lat="65.16112" lon="14.57596">
        <time>2025-03-10T13:35:00Z</time>
      </trkpt>
      <trkpt lat="65.16661" lon="14.57598">
        <time>2025-03-10T13:45:00Z</time>
      </trkpt>
      <trkpt lat="65.16866" lon="14.57647">
        <time>2025-03-10T13:55:00Z</time>
      </trkpt>
      <trkpt lat="65.17369" lon="14.5766">
        <time>2025-03-10T14:05:00Z</time>
      </trkpt>
      <trkpt lat="65.17894" lon="14.57106">
        <time>2025-03-10T14:15:00Z</time>
      </trkpt>
      <trkpt lat="65.18213" lon="14.56767">
        <time>2025-03-10T14:25:00Z</time>
      </trkpt>
      <trkpt lat="65.18219" lon="14.56727">
        <time>2025-03-10T14:35:00Z</time>
      </trkpt>
      <trkpt lat="65.18278" lon="14.56679">
        <time>2025-03-10T14:39:00Z</time>
      </trkpt>
      <trkpt lat="65.1828" lon="14.56667">
        <time>2025-03-10T14:40:00Z</time>
      </trkpt>
      <trkpt lat="65.18256" lon="14.56705">
        <time>2025-03-11T08:34:00Z</time>
      </trkpt>
      <trkpt lat="65.18255" lon="14.56709">
        <time>2025-03-11T08:34:00Z</time>
      </trkpt>
      <trkpt lat="65.18549" lon="14.56688">
        <time>2025-03-11T08:44:00Z</time>
      </trkpt>
      <trkpt lat="65.1873" lon="14.56707">
        <time>2025-03-11T08:54:00Z</time>
      </trkpt>
      <trkpt lat="65.18777" lon="14.56697">
        <time>2025-03-11T09:04:00Z</time>
      </trkpt>
      <trkpt lat="65.18962" lon="14.55986">
        <time>2025-03-11T10:04:00Z</time>
      </trkpt>
      <trkpt lat="65.19266" lon="14.55435">
        <time>2025-03-11T10:14:00Z</time>
      </trkpt>
      <trkpt lat="65.19606" lon="14.54759">
        <time>2025-03-11T10:24:00Z</time>
      </trkpt>
      <trkpt lat="65.19726" lon="14.54514">
        <time>2025-03-11T10:34:00Z</time>
      </trkpt>
      <trkpt lat="65.1987" lon="14.5454">
        <time>2025-03-11T10:44:00Z</time>
      </trkpt>
      <trkpt lat="65.20408" lon="14.53974">
        <time>2025-03-11T10:54:00Z</time>
      </trkpt>
      <trkpt lat="65.20902" lon="14.53338">
        <time>2025-03-11T11:04:00Z</time>
      </trkpt>
      <trkpt lat="65.21546" lon="14.52643">
        <time>2025-03-11T11:14:00Z</time>
      </trkpt>
      <trkpt lat="65.22112" lon="14.52302">
        <time>2025-03-11T11:24:00Z</time>
      </trkpt>
      <trkpt lat="65.2262" lon="14.51684">
        <time>2025-03-11T11:34:00Z</time>
      </trkpt>
      <trkpt lat="65.23278" lon="14.51195">
        <time>2025-03-11T11:44:00Z</time>
      </trkpt>
      <trkpt lat="65.23885" lon="14.50935">
        <time>2025-03-11T11:54:00Z</time>
      </trkpt>
      <trkpt lat="65.2425" lon="14.50598">
        <time>2025-03-11T12:04:00Z</time>
      </trkpt>
      <trkpt lat="65.24571" lon="14.50504">
        <time>2025-03-11T12:14:00Z</time>
      </trkpt>
      <trkpt lat="65.24976" lon="14.50276">
        <time>2025-03-11T12:24:00Z</time>
      </trkpt>
      <trkpt lat="65.25087" lon="14.50952">
        <time>2025-03-11T12:34:00Z</time>
      </trkpt>
      <trkpt lat="65.25137" lon="14.5151">
        <time>2025-03-11T12:44:00Z</time>
      </trkpt>
      <trkpt lat="65.25139" lon="14.51506">
        <time>2025-03-11T12:54:00Z</time>
      </trkpt>
      <trkpt lat="65.25106" lon="14.52227">
        <time>2025-03-11T13:34:00Z</time>
      </trkpt>
      <trkpt lat="65.25206" lon="14.52877">
        <time>2025-03-11T13:44:00Z</time>
      </trkpt>
      <trkpt lat="65.25285" lon="14.53326">
        <time>2025-03-11T13:54:00Z</time>
      </trkpt>
      <trkpt lat="65.25357" lon="14.53652">
        <time>2025-03-11T14:04:00Z</time>
      </trkpt>
      <trkpt lat="65.25405" lon="14.53888">
        <time>2025-03-11T14:14:00Z</time>
      </trkpt>
      <trkpt lat="65.25705" lon="14.54637">
        <time>2025-03-11T14:24:00Z</time>
      </trkpt>
      <trkpt lat="65.26344" lon="14.56049">
        <time>2025-03-11T14:34:00Z</time>
      </trkpt>
      <trkpt lat="65.27243" lon="14.5728">
        <time>2025-03-11T14:44:00Z</time>
      </trkpt>
      <trkpt lat="65.27989" lon="14.58184">
        <time>2025-03-11T14:54:00Z</time>
      </trkpt>
      <trkpt lat="65.28571" lon="14.58589">
        <time>2025-03-11T15:04:00Z</time>
      </trkpt>
      <trkpt lat="65.29285" lon="14.58881">
        <time>2025-03-11T15:14:00Z</time>
      </trkpt>
      <trkpt lat="65.29686" lon="14.59381">
        <time>2025-03-11T15:24:00Z</time>
      </trkpt>
      <trkpt lat="65.2998" lon="14.59866">
        <time>2025-03-11T15:34:00Z</time>
      </trkpt>
      <trkpt lat="65.30364" lon="14.60211">
        <time>2025-03-11T15:44:00Z</time>
      </trkpt>
      <trkpt lat="65.30592" lon="14.60711">
        <time>2025-03-11T15:54:00Z</time>
      </trkpt>
      <trkpt lat="65.30593" lon="14.60694">
        <time>2025-03-11T16:04:00Z</time>
      </trkpt>
      <trkpt lat="65.30502" lon="14.61728">
        <time>2025-03-11T16:14:00Z</time>
      </trkpt>
      <trkpt lat="65.3044" lon="14.62791">
        <time>2025-03-11T16:24:00Z</time>
      </trkpt>
      <trkpt lat="65.30613" lon="14.64694">
        <time>2025-03-11T16:34:00Z</time>
      </trkpt>
      <trkpt lat="65.30733" lon="14.66357">
        <time>2025-03-11T16:44:00Z</time>
      </trkpt>
      <trkpt lat="65.3055" lon="14.6732">
        <time>2025-03-11T16:54:00Z</time>
      </trkpt>
      <trkpt lat="65.3033" lon="14.68584">
        <time>2025-03-11T17:04:00Z</time>
      </trkpt>
      <trkpt lat="65.30336" lon="14.69033">
        <time>2025-03-11T17:14:00Z</time>
      </trkpt>
      <trkpt lat="65.30384" lon="14.70964">
        <time>2025-03-11T17:24:00Z</time>
      </trkpt>
      <trkpt lat="65.30391" lon="14.72371">
        <time>2025-03-11T17:34:00Z</time>
      </trkpt>
      <trkpt lat="65.30407" lon="14.72431">
        <time>2025-03-11T17:41:00Z</time>
      </trkpt>
      <trkpt lat="65.30414" lon="14.72431">
        <time>2025-03-11T17:42:00Z</time>
      </trkpt>
      <trkpt lat="65.30402" lon="14.72451">
        <time>2025-03-12T08:12:00Z</time>
      </trkpt>
      <trkpt lat="65.30808" lon="14.73627">
        <time>2025-03-12T08:22:00Z</time>
      </trkpt>
      <trkpt lat="65.31321" lon="14.74845">
        <time>2025-03-12T08:32:00Z</time>
      </trkpt>
      <trkpt lat="65.31537" lon="14.7589">
        <time>2025-03-12T08:42:00Z</time>
      </trkpt>
      <trkpt lat="65.32071" lon="14.77">
        <time>2025-03-12T08:52:00Z</time>
      </trkpt>
      <trkpt lat="65.32666" lon="14.77706">
        <time>2025-03-12T09:02:00Z</time>
      </trkpt>
      <trkpt lat="65.33002" lon="14.78459">
        <time>2025-03-12T09:12:00Z</time>
      </trkpt>
      <trkpt lat="65.33001" lon="14.78472">
        <time>2025-03-12T09:22:00Z</time>
      </trkpt>
      <trkpt lat="65.33213" lon="14.7907">
        <time>2025-03-12T09:32:00Z</time>
      </trkpt>
      <trkpt lat="65.33623" lon="14.78744">
        <time>2025-03-12T09:42:00Z</time>
      </trkpt>
      <trkpt lat="65.33858" lon="14.7854">
        <time>2025-03-12T09:52:00Z</time>
      </trkpt>
      <trkpt lat="65.33972" lon="14.78405">
        <time>2025-03-12T10:02:00Z</time>
      </trkpt>
      <trkpt lat="65.34146" lon="14.78352">
        <time>2025-03-12T10:12:00Z</time>
      </trkpt>
      <trkpt lat="65.34179" lon="14.78343">
        <time>2025-03-12T10:22:00Z</time>
      </trkpt>
      <trkpt lat="65.34287" lon="14.7838">
        <time>2025-03-12T10:32:00Z</time>
      </trkpt>
      <trkpt lat="65.34289" lon="14.78377">
        <time>2025-03-12T10:42:00Z</time>
      </trkpt>
      <trkpt lat="65.34341" lon="14.78122">
        <time>2025-03-12T11:42:00Z</time>
      </trkpt>
      <trkpt lat="65.34314" lon="14.7801">
        <time>2025-03-12T11:52:00Z</time>
      </trkpt>
      <trkpt lat="65.34441" lon="14.78071">
        <time>2025-03-12T12:52:00Z</time>
      </trkpt>
      <trkpt lat="65.34494" lon="14.78152">
        <time>2025-03-12T13:02:00Z</time>
      </trkpt>
      <trkpt lat="65.34736" lon="14.78307">
        <time>2025-03-12T13:22:00Z</time>
      </trkpt>
      <trkpt lat="65.3481" lon="14.78309">
        <time>2025-03-12T13:32:00Z</time>
      </trkpt>
      <trkpt lat="65.34906" lon="14.78337">
        <time>2025-03-12T13:42:00Z</time>
      </trkpt>
      <trkpt lat="65.34998" lon="14.78343">
        <time>2025-03-12T13:52:00Z</time>
      </trkpt>
      <trkpt lat="65.3514" lon="14.78259">
        <time>2025-03-12T14:02:00Z</time>
      </trkpt>
      <trkpt lat="65.35196" lon="14.78231">
        <time>2025-03-12T14:12:00Z</time>
      </trkpt>
      <trkpt lat="65.35376" lon="14.78071">
        <time>2025-03-12T14:22:00Z</time>
      </trkpt>
      <trkpt lat="65.35905" lon="14.78064">
        <time>2025-03-12T14:32:00Z</time>
      </trkpt>
      <trkpt lat="65.36675" lon="14.78165">
        <time>2025-03-12T14:42:00Z</time>
      </trkpt>
      <trkpt lat="65.36906" lon="14.78315">
        <time>2025-03-12T14:52:00Z</time>
      </trkpt>
      <trkpt lat="65.37202" lon="14.78774">
        <time>2025-03-12T15:02:00Z</time>
      </trkpt>
      <trkpt lat="65.37504" lon="14.79028">
        <time>2025-03-12T15:12:00Z</time>
      </trkpt>
      <trkpt lat="65.3809" lon="14.79283">
        <time>2025-03-12T15:22:00Z</time>
      </trkpt>
      <trkpt lat="65.40015" lon="14.79948">
        <time>2025-03-12T15:32:00Z</time>
      </trkpt>
      <trkpt lat="65.41095" lon="14.81019">
        <time>2025-03-12T15:42:00Z</time>
      </trkpt>
      <trkpt lat="65.41779" lon="14.80811">
        <time>2025-03-12T15:52:00Z</time>
      </trkpt>
      <trkpt lat="65.42106" lon="14.81484">
        <time>2025-03-12T16:02:00Z</time>
      </trkpt>
      <trkpt lat="65.42179" lon="14.81564">
        <time>2025-03-12T16:12:00Z</time>
      </trkpt>
      <trkpt lat="65.42304" lon="14.81201">
        <time>2025-03-12T16:22:00Z</time>
      </trkpt>
      <trkpt lat="65.42184" lon="14.81564">
        <time>2025-03-12T16:32:00Z</time>
      </trkpt>
      <trkpt lat="65.42129" lon="14.81605">
        <time>2025-03-12T16:33:00Z</time>
      </trkpt>
      <trkpt lat="65.4214" lon="14.81602">
        <time>2025-03-12T16:33:00Z</time>
      </trkpt>
      <trkpt lat="65.42167" lon="14.81611">
        <time>2025-03-13T09:01:00Z</time>
      </trkpt>
      <trkpt lat="65.42179" lon="14.816">
        <time>2025-03-13T09:01:00Z</time>
      </trkpt>
      <trkpt lat="65.42355" lon="14.82493">
        <time>2025-03-13T09:11:00Z</time>
      </trkpt>
      <trkpt lat="65.42379" lon="14.83802">
        <time>2025-03-13T09:21:00Z</time>
      </trkpt>
      <trkpt lat="65.42208" lon="14.8451">
        <time>2025-03-13T09:31:00Z</time>
      </trkpt>
      <trkpt lat="65.4231" lon="14.8587">
        <time>2025-03-13T09:41:00Z</time>
      </trkpt>
      <trkpt lat="65.42394" lon="14.86845">
        <time>2025-03-13T09:51:00Z</time>
      </trkpt>
      <trkpt lat="65.42578" lon="14.88164">
        <time>2025-03-13T10:01:00Z</time>
      </trkpt>
      <trkpt lat="65.42773" lon="14.89632">
        <time>2025-03-13T10:11:00Z</time>
      </trkpt>
      <trkpt lat="65.4308" lon="14.90979">
        <time>2025-03-13T10:21:00Z</time>
      </trkpt>
      <trkpt lat="65.43128" lon="14.9117">
        <time>2025-03-13T10:31:00Z</time>
      </trkpt>
      <trkpt lat="65.43202" lon="14.91327">
        <time>2025-03-13T10:41:00Z</time>
      </trkpt>
      <trkpt lat="65.43457" lon="14.91662">
        <time>2025-03-13T10:51:00Z</time>
      </trkpt>
      <trkpt lat="65.4368" lon="14.91883">
        <time>2025-03-13T11:01:00Z</time>
      </trkpt>
      <trkpt lat="65.43859" lon="14.92479">
        <time>2025-03-13T11:11:00Z</time>
      </trkpt>
      <trkpt lat="65.44229" lon="14.93593">
        <time>2025-03-13T11:21:00Z</time>
      </trkpt>
      <trkpt lat="65.44449" lon="14.94001">
        <time>2025-03-13T11:31:00Z</time>
      </trkpt>
      <trkpt lat="65.44876" lon="14.93387">
        <time>2025-03-13T11:41:00Z</time>
      </trkpt>
      <trkpt lat="65.45285" lon="14.92432">
        <time>2025-03-13T11:51:00Z</time>
      </trkpt>
      <trkpt lat="65.4577" lon="14.91587">
        <time>2025-03-13T12:01:00Z</time>
      </trkpt>
      <trkpt lat="65.4582" lon="14.91488">
        <time>2025-03-13T12:11:00Z</time>
      </trkpt>
      <trkpt lat="65.46188" lon="14.91078">
        <time>2025-03-13T13:01:00Z</time>
      </trkpt>
      <trkpt lat="65.46437" lon="14.90999">
        <time>2025-03-13T13:11:00Z</time>
      </trkpt>
      <trkpt lat="65.46786" lon="14.91203">
        <time>2025-03-13T13:21:00Z</time>
      </trkpt>
      <trkpt lat="65.47269" lon="14.91108">
        <time>2025-03-13T13:31:00Z</time>
      </trkpt>
      <trkpt lat="65.47576" lon="14.90909">
        <time>2025-03-13T13:41:00Z</time>
      </trkpt>
      <trkpt lat="65.48008" lon="14.90675">
        <time>2025-03-13T13:51:00Z</time>
      </trkpt>
      <trkpt lat="65.48142" lon="14.90516">
        <time>2025-03-13T14:01:00Z</time>
      </trkpt>
      <trkpt lat="65.48361" lon="14.89761">
        <time>2025-03-13T14:11:00Z</time>
      </trkpt>
      <trkpt lat="65.48801" lon="14.89001">
        <time>2025-03-13T14:21:00Z</time>
      </trkpt>
      <trkpt lat="65.49256" lon="14.89576">
        <time>2025-03-13T14:31:00Z</time>
      </trkpt>
      <trkpt lat="65.49805" lon="14.90402">
        <time>2025-03-13T14:41:00Z</time>
      </trkpt>
      <trkpt lat="65.4994" lon="14.9058">
        <time>2025-03-13T14:51:00Z</time>
      </trkpt>
      <trkpt lat="65.50227" lon="14.90844">
        <time>2025-03-13T15:01:00Z</time>
      </trkpt>
      <trkpt lat="65.50932" lon="14.91282">
        <time>2025-03-13T15:11:00Z</time>
      </trkpt>
      <trkpt lat="65.5159" lon="14.91788">
        <time>2025-03-13T15:21:00Z</time>
      </trkpt>
      <trkpt lat="65.52222" lon="14.92376">
        <time>2025-03-13T15:31:00Z</time>
      </trkpt>
      <trkpt lat="65.52379" lon="14.92582">
        <time>2025-03-13T15:41:00Z</time>
      </trkpt>
      <trkpt lat="65.52587" lon="14.93477">
        <time>2025-03-13T15:51:00Z</time>
      </trkpt>
      <trkpt lat="65.52828" lon="14.94475">
        <time>2025-03-13T16:01:00Z</time>
      </trkpt>
      <trkpt lat="65.53052" lon="14.95342">
        <time>2025-03-13T16:11:00Z</time>
      </trkpt>
      <trkpt lat="65.53314" lon="14.96247">
        <time>2025-03-13T16:21:00Z</time>
      </trkpt>
      <trkpt lat="65.53628" lon="14.97016">
        <time>2025-03-13T16:31:00Z</time>
      </trkpt>
      <trkpt lat="65.53864" lon="14.97548">
        <time>2025-03-13T16:41:00Z</time>
      </trkpt>
      <trkpt lat="65.54128" lon="14.98329">
        <time>2025-03-13T16:51:00Z</time>
      </trkpt>
      <trkpt lat="65.54128" lon="14.98335">
        <time>2025-03-13T17:01:00Z</time>
      </trkpt>
      <trkpt lat="65.54125" lon="14.98367">
        <time>2025-03-13T17:10:00Z</time>
      </trkpt>
      <trkpt lat="65.54225" lon="14.98595">
        <time>2025-03-14T07:45:00Z</time>
      </trkpt>
      <trkpt lat="65.54224" lon="14.98595">
        <time>2025-03-14T07:45:00Z</time>
      </trkpt>
      <trkpt lat="65.54517" lon="14.9958">
        <time>2025-03-14T07:55:00Z</time>
      </trkpt>
      <trkpt lat="65.55" lon="15.00796">
        <time>2025-03-14T08:05:00Z</time>
      </trkpt>
      <trkpt lat="65.55446" lon="15.02114">
        <time>2025-03-14T08:15:00Z</time>
      </trkpt>
      <trkpt lat="65.55952" lon="15.03597">
        <time>2025-03-14T08:25:00Z</time>
      </trkpt>
      <trkpt lat="65.5637" lon="15.0491">
        <time>2025-03-14T08:35:00Z</time>
      </trkpt>
      <trkpt lat="65.56669" lon="15.06347">
        <time>2025-03-14T08:45:00Z</time>
      </trkpt>
      <trkpt lat="65.56767" lon="15.07944">
        <time>2025-03-14T08:55:00Z</time>
      </trkpt>
      <trkpt lat="65.57172" lon="15.11461">
        <time>2025-03-14T09:05:00Z</time>
      </trkpt>
      <trkpt lat="65.57252" lon="15.11607">
        <time>2025-03-14T09:15:00Z</time>
      </trkpt>
      <trkpt lat="65.57449" lon="15.12358">
        <time>2025-03-14T09:25:00Z</time>
      </trkpt>
      <trkpt lat="65.57944" lon="15.14353">
        <time>2025-03-14T09:35:00Z</time>
      </trkpt>
      <trkpt lat="65.57764" lon="15.18525">
        <time>2025-03-14T09:45:00Z</time>
      </trkpt>
      <trkpt lat="65.5797" lon="15.19076">
        <time>2025-03-14T09:55:00Z</time>
      </trkpt>
      <trkpt lat="65.58473" lon="15.18965">
        <time>2025-03-14T10:05:00Z</time>
      </trkpt>
      <trkpt lat="65.59078" lon="15.20537">
        <time>2025-03-14T10:15:00Z</time>
      </trkpt>
      <trkpt lat="65.59679" lon="15.2113">
        <time>2025-03-14T10:25:00Z</time>
      </trkpt>
      <trkpt lat="65.60269" lon="15.21855">
        <time>2025-03-14T10:35:00Z</time>
      </trkpt>
      <trkpt lat="65.60643" lon="15.22445">
        <time>2025-03-14T10:45:00Z</time>
      </trkpt>
      <trkpt lat="65.61199" lon="15.23368">
        <time>2025-03-14T10:55:00Z</time>
      </trkpt>
      <trkpt lat="65.61752" lon="15.24099">
        <time>2025-03-14T11:05:00Z</time>
      </trkpt>
      <trkpt lat="65.62097" lon="15.23724">
        <time>2025-03-14T11:15:00Z</time>
      </trkpt>
      <trkpt lat="65.62669" lon="15.22844">
        <time>2025-03-14T11:25:00Z</time>
      </trkpt>
      <trkpt lat="65.63181" lon="15.21838">
        <time>2025-03-14T11:35:00Z</time>
      </trkpt>
      <trkpt lat="65.63284" lon="15.21591">
        <time>2025-03-14T11:45:00Z</time>
      </trkpt>
      <trkpt lat="65.63284" lon="15.21593">
        <time>2025-03-14T11:55:00Z</time>
      </trkpt>
      <trkpt lat="65.63751" lon="15.2055">
        <time>2025-03-14T12:35:00Z</time>
      </trkpt>
      <trkpt lat="65.64278" lon="15.19387">
        <time>2025-03-14T12:45:00Z</time>
      </trkpt>
      <trkpt lat="65.64701" lon="15.18248">
        <time>2025-03-14T12:55:00Z</time>
      </trkpt>
      <trkpt lat="65.65033" lon="15.17353">
        <time>2025-03-14T13:05:00Z</time>
      </trkpt>
      <trkpt lat="65.65313" lon="15.16621">
        <time>2025-03-14T13:15:00Z</time>
      </trkpt>
      <trkpt lat="65.65681" lon="15.15248">
        <time>2025-03-14T13:25:00Z</time>
      </trkpt>
      <trkpt lat="65.65891" lon="15.13849">
        <time>2025-03-14T13:35:00Z</time>
      </trkpt>
      <trkpt lat="65.66049" lon="15.12916">
        <time>2025-03-14T13:45:00Z</time>
      </trkpt>
      <trkpt lat="65.66152" lon="15.12989">
        <time>2025-03-14T13:55:00Z</time>
      </trkpt>
      <trkpt lat="65.66615" lon="15.12954">
        <time>2025-03-14T14:05:00Z</time>
      </trkpt>
      <trkpt lat="65.67061" lon="15.13107">
        <time>2025-03-14T14:15:00Z</time>
      </trkpt>
      <trkpt lat="65.67653" lon="15.12695">
        <time>2025-03-14T14:25:00Z</time>
      </trkpt>
      <trkpt lat="65.68193" lon="15.12216">
        <time>2025-03-14T14:35:00Z</time>
      </trkpt>
      <trkpt lat="65.68609" lon="15.12261">
        <time>2025-03-14T14:45:00Z</time>
      </trkpt>
      <trkpt lat="65.69147" lon="15.11454">
        <time>2025-03-14T14:55:00Z</time>
      </trkpt>
      <trkpt lat="65.6924" lon="15.11163">
        <time>2025-03-14T15:05:00Z</time>
      </trkpt>
      <trkpt lat="65.69874" lon="15.1103">
        <time>2025-03-14T15:15:00Z</time>
      </trkpt>
      <trkpt lat="65.70351" lon="15.10446">
        <time>2025-03-14T15:25:00Z</time>
      </trkpt>
      <trkpt lat="65.70772" lon="15.09899">
        <time>2025-03-14T15:35:00Z</time>
      </trkpt>
      <trkpt lat="65.708" lon="15.09736">
        <time>2025-03-14T15:45:00Z</time>
      </trkpt>
      <trkpt lat="65.70797" lon="15.09744">
        <time>2025-03-14T15:51:00Z</time>
      </trkpt>
      <trkpt lat="65.70799" lon="15.0974">
        <time>2025-03-14T15:52:00Z</time>
      </trkpt>
      <trkpt lat="65.70795" lon="15.09922">
        <time>2025-03-15T09:05:00Z</time>
      </trkpt>
      <trkpt lat="65.7079" lon="15.0992">
        <time>2025-03-15T09:05:00Z</time>
      </trkpt>
      <trkpt lat="65.71281" lon="15.09375">
        <time>2025-03-15T09:15:00Z</time>
      </trkpt>
      <trkpt lat="65.71505" lon="15.09467">
        <time>2025-03-15T09:25:00Z</time>
      </trkpt>
      <trkpt lat="65.71758" lon="15.09032">
        <time>2025-03-15T09:35:00Z</time>
      </trkpt>
      <trkpt lat="65.72172" lon="15.09622">
        <time>2025-03-15T09:45:00Z</time>
      </trkpt>
      <trkpt lat="65.72095" lon="15.11111">
        <time>2025-03-15T09:55:00Z</time>
      </trkpt>
      <trkpt lat="65.72583" lon="15.10903">
        <time>2025-03-15T10:05:00Z</time>
      </trkpt>
      <trkpt lat="65.73407" lon="15.111">
        <time>2025-03-15T10:15:00Z</time>
      </trkpt>
      <trkpt lat="65.73724" lon="15.11703">
        <time>2025-03-15T10:25:00Z</time>
      </trkpt>
      <trkpt lat="65.73768" lon="15.12002">
        <time>2025-03-15T10:35:00Z</time>
      </trkpt>
      <trkpt lat="65.74293" lon="15.12431">
        <time>2025-03-15T10:45:00Z</time>
      </trkpt>
      <trkpt lat="65.74894" lon="15.1277">
        <time>2025-03-15T10:55:00Z</time>
      </trkpt>
      <trkpt lat="65.75493" lon="15.12965">
        <time>2025-03-15T11:05:00Z</time>
      </trkpt>
      <trkpt lat="65.75986" lon="15.12763">
        <time>2025-03-15T11:15:00Z</time>
      </trkpt>
      <trkpt lat="65.76426" lon="15.12126">
        <time>2025-03-15T11:25:00Z</time>
      </trkpt>
      <trkpt lat="65.76528" lon="15.11933">
        <time>2025-03-15T11:35:00Z</time>
      </trkpt>
      <trkpt lat="65.77029" lon="15.1139">
        <time>2025-03-15T11:45:00Z</time>
      </trkpt>
      <trkpt lat="65.77461" lon="15.10836">
        <time>2025-03-15T11:55:00Z</time>
      </trkpt>
      <trkpt lat="65.77864" lon="15.10332">
        <time>2025-03-15T12:05:00Z</time>
      </trkpt>
      <trkpt lat="65.7843" lon="15.10092">
        <time>2025-03-15T12:15:00Z</time>
      </trkpt>
      <trkpt lat="65.78955" lon="15.0936">
        <time>2025-03-15T12:25:00Z</time>
      </trkpt>
      <trkpt lat="65.79168" lon="15.08545">
        <time>2025-03-15T12:35:00Z</time>
      </trkpt>
      <trkpt lat="65.79345" lon="15.07929">
        <time>2025-03-15T12:45:00Z</time>
      </trkpt>
      <trkpt lat="65.79782" lon="15.07165">
        <time>2025-03-15T12:55:00Z</time>
      </trkpt>
      <trkpt lat="65.80238" lon="15.07564">
        <time>2025-03-15T13:05:00Z</time>
      </trkpt>
      <trkpt lat="65.80834" lon="15.07581">
        <time>2025-03-15T13:15:00Z</time>
      </trkpt>
      <trkpt lat="65.81063" lon="15.07294">
        <time>2025-03-15T13:25:00Z</time>
      </trkpt>
      <trkpt lat="65.81298" lon="15.07586">
        <time>2025-03-15T13:35:00Z</time>
      </trkpt>
      <trkpt lat="65.8148" lon="15.08547">
        <time>2025-03-15T13:45:00Z</time>
      </trkpt>
      <trkpt lat="65.81775" lon="15.09036">
        <time>2025-03-15T13:55:00Z</time>
      </trkpt>
      <trkpt lat="65.81759" lon="15.0909">
        <time>2025-03-15T13:58:00Z</time>
      </trkpt>
      <trkpt lat="65.81748" lon="15.09088">
        <time>2025-03-15T13:58:00Z</time>
      </trkpt>
      <trkpt lat="65.81675" lon="15.09184">
        <time>2025-03-17T08:36:00Z</time>
      </trkpt>
      <trkpt lat="65.81685" lon="15.09176">
        <time>2025-03-17T08:36:00Z</time>
      </trkpt>
      <trkpt lat="65.81661" lon="15.09729">
        <time>2025-03-17T08:46:00Z</time>
      </trkpt>
      <trkpt lat="65.81495" lon="15.10495">
        <time>2025-03-17T08:56:00Z</time>
      </trkpt>
      <trkpt lat="65.8149" lon="15.11068">
        <time>2025-03-17T09:06:00Z</time>
      </trkpt>
      <trkpt lat="65.81473" lon="15.11806">
        <time>2025-03-17T09:16:00Z</time>
      </trkpt>
      <trkpt lat="65.81768" lon="15.11984">
        <time>2025-03-17T09:26:00Z</time>
      </trkpt>
      <trkpt lat="65.82077" lon="15.11386">
        <time>2025-03-17T09:36:00Z</time>
      </trkpt>
      <trkpt lat="65.82545" lon="15.10665">
        <time>2025-03-17T09:46:00Z</time>
      </trkpt>
      <trkpt lat="65.82899" lon="15.10289">
        <time>2025-03-17T09:56:00Z</time>
      </trkpt>
      <trkpt lat="65.83209" lon="15.10405">
        <time>2025-03-17T10:06:00Z</time>
      </trkpt>
      <trkpt lat="65.83413" lon="15.10287">
        <time>2025-03-17T10:16:00Z</time>
      </trkpt>
      <trkpt lat="65.83644" lon="15.09274">
        <time>2025-03-17T10:26:00Z</time>
      </trkpt>
    </trkseg>
  </trk>
</gpx>
