<?xml version="1.0" encoding="UTF-8"?>
<gpx xmlns="http://www.topografix.com/GPX/1/1" version="1.1" creator="VitaBandet">
  <metadata>
    <name>Klimpf→Hemavan · Björn Rudberg (village)</name>
  </metadata>
  <wpt lat="65.06338" lon="14.80886">
    <name>Klimpfjäll</name>
  </wpt>
  <wpt lat="65.82446" lon="15.06682">
    <name>Hemavan</name>
  </wpt>
  <trk>
    <name>Klimpf→Hemavan · Björn Rudberg (village)</name>
    <trkseg>
      <trkpt lat="65.06338" lon="14.80886">
        <time>2026-03-19T07:17:00Z</time>
      </trkpt>
      <trkpt lat="65.06244" lon="14.81796">
        <time>2026-03-19T07:27:00Z</time>
      </trkpt>
      <trkpt lat="65.06128" lon="14.83995">
        <time>2026-03-19T07:37:00Z</time>
      </trkpt>
      <trkpt lat="65.05923" lon="14.86407">
        <time>2026-03-19T07:47:00Z</time>
      </trkpt>
      <trkpt lat="65.05679" lon="14.88958">
        <time>2026-03-19T07:57:00Z</time>
      </trkpt>
      <trkpt lat="65.05471" lon="14.91531">
        <time>2026-03-19T08:07:00Z</time>
      </trkpt>
      <trkpt lat="65.05431" lon="14.94129">
        <time>2026-03-19T08:17:00Z</time>
      </trkpt>
      <trkpt lat="65.05573" lon="14.96127">
        <time>2026-03-19T08:27:00Z</time>
      </trkpt>
      <trkpt lat="65.05786" lon="14.98612">
        <time>2026-03-19T08:37:00Z</time>
      </trkpt>
      <trkpt lat="65.05985" lon="15.01123">
        <time>2026-03-19T08:47:00Z</time>
      </trkpt>
      <trkpt lat="65.0616" lon="15.03685">
        <time>2026-03-19T08:57:00Z</time>
      </trkpt>
      <trkpt lat="65.06096" lon="15.05508">
        <time>2026-03-19T09:07:00Z</time>
      </trkpt>
      <trkpt lat="65.06287" lon="15.0589">
        <time>2026-03-19T09:17:00Z</time>
      </trkpt>
      <trkpt lat="65.06287" lon="15.05897">
        <time>2026-03-19T09:27:00Z</time>
      </trkpt>
      <trkpt lat="65.06426" lon="15.06272">
        <time>2026-03-19T09:37:00Z</time>
      </trkpt>
      <trkpt lat="65.0666" lon="15.07201">
        <time>2026-03-19T09:48:00Z</time>
      </trkpt>
      <trkpt lat="65.07238" lon="15.07978">
        <time>2026-03-19T09:58:00Z</time>
      </trkpt>
      <trkpt lat="65.07805" lon="15.08886">
        <time>2026-03-19T10:08:00Z</time>
      </trkpt>
      <trkpt lat="65.08439" lon="15.08862">
        <time>2026-03-19T10:18:00Z</time>
      </trkpt>
      <trkpt lat="65.09172" lon="15.091">
        <time>2026-03-19T10:28:00Z</time>
      </trkpt>
      <trkpt lat="65.09781" lon="15.08">
        <time>2026-03-19T10:38:00Z</time>
      </trkpt>
      <trkpt lat="65.10235" lon="15.0806">
        <time>2026-03-19T10:48:00Z</time>
      </trkpt>
      <trkpt lat="65.10776" lon="15.06869">
        <time>2026-03-19T10:58:00Z</time>
      </trkpt>
      <trkpt lat="65.11358" lon="15.06425">
        <time>2026-03-19T11:08:00Z</time>
      </trkpt>
      <trkpt lat="65.11877" lon="15.05313">
        <time>2026-03-19T11:18:00Z</time>
      </trkpt>
      <trkpt lat="65.12354" lon="15.04021">
        <time>2026-03-19T11:28:00Z</time>
      </trkpt>
      <trkpt lat="65.13055" lon="15.03444">
        <time>2026-03-19T11:38:00Z</time>
      </trkpt>
      <trkpt lat="65.13247" lon="15.03176">
        <time>2026-03-19T11:48:00Z</time>
      </trkpt>
      <trkpt lat="65.13941" lon="15.02758">
        <time>2026-03-19T11:58:00Z</time>
      </trkpt>
      <trkpt lat="65.1414" lon="15.03086">
        <time>2026-03-19T12:08:00Z</time>
      </trkpt>
      <trkpt lat="65.14138" lon="15.03086">
        <time>2026-03-19T12:18:00Z</time>
      </trkpt>
      <trkpt lat="65.14358" lon="15.03702">
        <time>2026-03-19T12:38:00Z</time>
      </trkpt>
      <trkpt lat="65.1497" lon="15.04212">
        <time>2026-03-19T12:48:00Z</time>
      </trkpt>
      <trkpt lat="65.15485" lon="15.04925">
        <time>2026-03-19T12:58:00Z</time>
      </trkpt>
      <trkpt lat="65.16014" lon="15.05963">
        <time>2026-03-19T13:08:00Z</time>
      </trkpt>
      <trkpt lat="65.16674" lon="15.05918">
        <time>2026-03-19T13:18:00Z</time>
      </trkpt>
      <trkpt lat="65.17221" lon="15.06214">
        <time>2026-03-19T13:28:00Z</time>
      </trkpt>
      <trkpt lat="65.17699" lon="15.06993">
        <time>2026-03-19T13:38:00Z</time>
      </trkpt>
      <trkpt lat="65.17377" lon="15.07603">
        <time>2026-03-19T13:48:00Z</time>
      </trkpt>
      <trkpt lat="65.17708" lon="15.08313">
        <time>2026-03-19T13:58:00Z</time>
      </trkpt>
      <trkpt lat="65.17742" lon="15.08272">
        <time>2026-03-19T14:08:00Z</time>
      </trkpt>
      <trkpt lat="65.18275" lon="15.07367">
        <time>2026-03-19T14:18:00Z</time>
      </trkpt>
      <trkpt lat="65.18956" lon="15.06365">
        <time>2026-03-19T14:28:00Z</time>
      </trkpt>
      <trkpt lat="65.196" lon="15.0547">
        <time>2026-03-19T14:38:00Z</time>
      </trkpt>
      <trkpt lat="65.20268" lon="15.04579">
        <time>2026-03-19T14:48:00Z</time>
      </trkpt>
      <trkpt lat="65.20825" lon="15.03979">
        <time>2026-03-19T14:58:00Z</time>
      </trkpt>
      <trkpt lat="65.20959" lon="15.03783">
        <time>2026-03-19T15:08:00Z</time>
      </trkpt>
      <trkpt lat="65.21572" lon="15.02595">
        <time>2026-03-19T15:18:00Z</time>
      </trkpt>
      <trkpt lat="65.22143" lon="15.0135">
        <time>2026-03-19T15:28:00Z</time>
      </trkpt>
      <trkpt lat="65.22752" lon="15.00174">
        <time>2026-03-19T15:38:00Z</time>
      </trkpt>
      <trkpt lat="65.23364" lon="14.99211">
        <time>2026-03-19T15:48:00Z</time>
      </trkpt>
      <trkpt lat="65.23859" lon="14.97979">
        <time>2026-03-19T15:58:00Z</time>
      </trkpt>
      <trkpt lat="65.24261" lon="14.96743">
        <time>2026-03-19T16:08:00Z</time>
      </trkpt>
      <trkpt lat="65.24606" lon="14.95477">
        <time>2026-03-19T16:18:00Z</time>
      </trkpt>
      <trkpt lat="65.24894" lon="14.94578">
        <time>2026-03-19T16:28:00Z</time>
      </trkpt>
      <trkpt lat="65.25264" lon="14.94192">
        <time>2026-03-19T16:38:00Z</time>
      </trkpt>
      <trkpt lat="65.25343" lon="14.93179">
        <time>2026-03-19T16:48:00Z</time>
      </trkpt>
      <trkpt lat="65.25348" lon="14.93155">
        <time>2026-03-19T16:51:00Z</time>
      </trkpt>
      <trkpt lat="65.25336" lon="14.93192">
        <time>2026-03-20T07:28:00Z</time>
      </trkpt>
      <trkpt lat="65.25382" lon="14.9419">
        <time>2026-03-20T07:38:00Z</time>
      </trkpt>
      <trkpt lat="65.25559" lon="14.95616">
        <time>2026-03-20T07:48:00Z</time>
      </trkpt>
      <trkpt lat="65.25653" lon="14.97569">
        <time>2026-03-20T07:58:00Z</time>
      </trkpt>
      <trkpt lat="65.25683" lon="14.99312">
        <time>2026-03-20T08:08:00Z</time>
      </trkpt>
      <trkpt lat="65.2589" lon="15.00814">
        <time>2026-03-20T08:18:00Z</time>
      </trkpt>
      <trkpt lat="65.26529" lon="15.01513">
        <time>2026-03-20T08:28:00Z</time>
      </trkpt>
      <trkpt lat="65.27317" lon="15.01618">
        <time>2026-03-20T08:38:00Z</time>
      </trkpt>
      <trkpt lat="65.27947" lon="15.01756">
        <time>2026-03-20T08:48:00Z</time>
      </trkpt>
      <trkpt lat="65.28564" lon="15.01803">
        <time>2026-03-20T08:58:00Z</time>
      </trkpt>
      <trkpt lat="65.29098" lon="15.01833">
        <time>2026-03-20T09:08:00Z</time>
      </trkpt>
      <trkpt lat="65.29575" lon="15.02219">
        <time>2026-03-20T09:18:00Z</time>
      </trkpt>
      <trkpt lat="65.29932" lon="15.02599">
        <time>2026-03-20T09:28:00Z</time>
      </trkpt>
      <trkpt lat="65.3063" lon="15.0279">
        <time>2026-03-20T09:38:00Z</time>
      </trkpt>
      <trkpt lat="65.31146" lon="15.0373">
        <time>2026-03-20T09:48:00Z</time>
      </trkpt>
      <trkpt lat="65.31177" lon="15.03766">
        <time>2026-03-20T09:58:00Z</time>
      </trkpt>
      <trkpt lat="65.31286" lon="15.03946">
        <time>2026-03-20T10:13:00Z</time>
      </trkpt>
      <trkpt lat="65.31982" lon="15.05502">
        <time>2026-03-20T10:23:00Z</time>
      </trkpt>
      <trkpt lat="65.32474" lon="15.06227">
        <time>2026-03-20T10:33:00Z</time>
      </trkpt>
      <trkpt lat="65.33125" lon="15.07141">
        <time>2026-03-20T10:43:00Z</time>
      </trkpt>
      <trkpt lat="65.33368" lon="15.08326">
        <time>2026-03-20T10:53:00Z</time>
      </trkpt>
      <trkpt lat="65.33564" lon="15.0968">
        <time>2026-03-20T11:03:00Z</time>
      </trkpt>
      <trkpt lat="65.33962" lon="15.10309">
        <time>2026-03-20T11:13:00Z</time>
      </trkpt>
      <trkpt lat="65.3422" lon="15.11012">
        <time>2026-03-20T11:23:00Z</time>
      </trkpt>
      <trkpt lat="65.34469" lon="15.10965">
        <time>2026-03-20T11:33:00Z</time>
      </trkpt>
      <trkpt lat="65.3497" lon="15.10156">
        <time>2026-03-20T11:43:00Z</time>
      </trkpt>
      <trkpt lat="65.35532" lon="15.09712">
        <time>2026-03-20T11:53:00Z</time>
      </trkpt>
      <trkpt lat="65.35945" lon="15.09549">
        <time>2026-03-20T12:03:00Z</time>
      </trkpt>
      <trkpt lat="65.35862" lon="15.10626">
        <time>2026-03-20T12:13:00Z</time>
      </trkpt>
      <trkpt lat="65.35975" lon="15.12154">
        <time>2026-03-20T12:23:00Z</time>
      </trkpt>
      <trkpt lat="65.36115" lon="15.13585">
        <time>2026-03-20T12:33:00Z</time>
      </trkpt>
      <trkpt lat="65.36539" lon="15.14119">
        <time>2026-03-20T12:43:00Z</time>
      </trkpt>
      <trkpt lat="65.36942" lon="15.15158">
        <time>2026-03-20T12:53:00Z</time>
      </trkpt>
      <trkpt lat="65.37113" lon="15.14806">
        <time>2026-03-20T13:03:00Z</time>
      </trkpt>
      <trkpt lat="65.37116" lon="15.14806">
        <time>2026-03-20T13:13:00Z</time>
      </trkpt>
      <trkpt lat="65.3738" lon="15.14171">
        <time>2026-03-20T13:43:00Z</time>
      </trkpt>
      <trkpt lat="65.37991" lon="15.13338">
        <time>2026-03-20T13:53:00Z</time>
      </trkpt>
      <trkpt lat="65.38314" lon="15.13594">
        <time>2026-03-20T14:03:00Z</time>
      </trkpt>
      <trkpt lat="65.38604" lon="15.14744">
        <time>2026-03-20T14:13:00Z</time>
      </trkpt>
      <trkpt lat="65.39008" lon="15.15508">
        <time>2026-03-20T14:23:00Z</time>
      </trkpt>
      <trkpt lat="65.39347" lon="15.15993">
        <time>2026-03-20T14:33:00Z</time>
      </trkpt>
      <trkpt lat="65.39738" lon="15.16744">
        <time>2026-03-20T14:43:00Z</time>
      </trkpt>
      <trkpt lat="65.40198" lon="15.1699">
        <time>2026-03-20T14:53:00Z</time>
      </trkpt>
      <trkpt lat="65.40781" lon="15.17433">
        <time>2026-03-20T15:03:00Z</time>
      </trkpt>
      <trkpt lat="65.41368" lon="15.18327">
        <time>2026-03-20T15:13:00Z</time>
      </trkpt>
      <trkpt lat="65.41886" lon="15.19334">
        <time>2026-03-20T15:23:00Z</time>
      </trkpt>
      <trkpt lat="65.42178" lon="15.20177">
        <time>2026-03-20T15:33:00Z</time>
      </trkpt>
      <trkpt lat="65.42612" lon="15.21449">
        <time>2026-03-20T15:43:00Z</time>
      </trkpt>
      <trkpt lat="65.42958" lon="15.22651">
        <time>2026-03-20T15:53:00Z</time>
      </trkpt>
      <trkpt lat="65.43098" lon="15.23048">
        <time>2026-03-20T16:03:00Z</time>
      </trkpt>
      <trkpt lat="65.431" lon="15.2305">
        <time>2026-03-20T16:13:00Z</time>
      </trkpt>
      <trkpt lat="65.43262" lon="15.23061">
        <time>2026-03-20T16:28:00Z</time>
      </trkpt>
      <trkpt lat="65.43546" lon="15.23561">
        <time>2026-03-20T16:38:00Z</time>
      </trkpt>
      <trkpt lat="65.43747" lon="15.24318">
        <time>2026-03-20T16:48:00Z</time>
      </trkpt>
      <trkpt lat="65.43766" lon="15.24535">
        <time>2026-03-20T16:58:00Z</time>
      </trkpt>
      <trkpt lat="65.43614" lon="15.23595">
        <time>2026-03-20T17:08:00Z</time>
      </trkpt>
      <trkpt lat="65.4406" lon="15.23466">
        <time>2026-03-20T17:18:00Z</time>
      </trkpt>
      <trkpt lat="65.44685" lon="15.23941">
        <time>2026-03-20T17:28:00Z</time>
      </trkpt>
      <trkpt lat="65.44826" lon="15.24374">
        <time>2026-03-20T17:38:00Z</time>
      </trkpt>
      <trkpt lat="65.44827" lon="15.24376">
        <time>2026-03-20T17:48:00Z</time>
      </trkpt>
      <trkpt lat="65.44832" lon="15.24378">
        <time>2026-03-20T17:49:00Z</time>
      </trkpt>
      <trkpt lat="65.44832" lon="15.24378">
        <time>2026-03-20T17:49:00Z</time>
      </trkpt>
      <trkpt lat="65.44821" lon="15.24387">
        <time>2026-03-21T07:34:00Z</time>
      </trkpt>
      <trkpt lat="65.45309" lon="15.25016">
        <time>2026-03-21T07:44:00Z</time>
      </trkpt>
      <trkpt lat="65.45933" lon="15.25537">
        <time>2026-03-21T07:54:00Z</time>
      </trkpt>
      <trkpt lat="65.46357" lon="15.27056">
        <time>2026-03-21T08:04:00Z</time>
      </trkpt>
      <trkpt lat="65.46858" lon="15.28148">
        <time>2026-03-21T08:14:00Z</time>
      </trkpt>
      <trkpt lat="65.47083" lon="15.29208">
        <time>2026-03-21T08:24:00Z</time>
      </trkpt>
      <trkpt lat="65.47509" lon="15.30526">
        <time>2026-03-21T08:34:00Z</time>
      </trkpt>
      <trkpt lat="65.47978" lon="15.31642">
        <time>2026-03-21T08:44:00Z</time>
      </trkpt>
      <trkpt lat="65.48228" lon="15.32352">
        <time>2026-03-21T08:54:00Z</time>
      </trkpt>
      <trkpt lat="65.48361" lon="15.33212">
        <time>2026-03-21T09:04:00Z</time>
      </trkpt>
      <trkpt lat="65.48646" lon="15.34028">
        <time>2026-03-21T09:14:00Z</time>
      </trkpt>
      <trkpt lat="65.48847" lon="15.35242">
        <time>2026-03-21T09:24:00Z</time>
      </trkpt>
      <trkpt lat="65.49125" lon="15.35584">
        <time>2026-03-21T09:34:00Z</time>
      </trkpt>
      <trkpt lat="65.49232" lon="15.3494">
        <time>2026-03-21T09:44:00Z</time>
      </trkpt>
      <trkpt lat="65.4958" lon="15.34178">
        <time>2026-03-21T09:55:00Z</time>
      </trkpt>
      <trkpt lat="65.49697" lon="15.3444">
        <time>2026-03-21T10:05:00Z</time>
      </trkpt>
      <trkpt lat="65.50275" lon="15.34667">
        <time>2026-03-21T10:15:00Z</time>
      </trkpt>
      <trkpt lat="65.50865" lon="15.34554">
        <time>2026-03-21T10:25:00Z</time>
      </trkpt>
      <trkpt lat="65.51328" lon="15.34721">
        <time>2026-03-21T10:35:00Z</time>
      </trkpt>
      <trkpt lat="65.51971" lon="15.34039">
        <time>2026-03-21T10:45:00Z</time>
      </trkpt>
      <trkpt lat="65.52534" lon="15.33479">
        <time>2026-03-21T10:55:00Z</time>
      </trkpt>
      <trkpt lat="65.52555" lon="15.33433">
        <time>2026-03-21T11:05:00Z</time>
      </trkpt>
      <trkpt lat="65.527" lon="15.33189">
        <time>2026-03-21T11:30:00Z</time>
      </trkpt>
      <trkpt lat="65.53335" lon="15.3321">
        <time>2026-03-21T11:40:00Z</time>
      </trkpt>
      <trkpt lat="65.54067" lon="15.33281">
        <time>2026-03-21T11:50:00Z</time>
      </trkpt>
      <trkpt lat="65.54581" lon="15.33382">
        <time>2026-03-21T12:00:00Z</time>
      </trkpt>
      <trkpt lat="65.55257" lon="15.34131">
        <time>2026-03-21T12:10:00Z</time>
      </trkpt>
      <trkpt lat="65.55455" lon="15.34513">
        <time>2026-03-21T12:20:00Z</time>
      </trkpt>
      <trkpt lat="65.55724" lon="15.34946">
        <time>2026-03-21T12:30:00Z</time>
      </trkpt>
      <trkpt lat="65.56169" lon="15.35172">
        <time>2026-03-21T12:40:00Z</time>
      </trkpt>
      <trkpt lat="65.5647" lon="15.3588">
        <time>2026-03-21T12:50:00Z</time>
      </trkpt>
      <trkpt lat="65.56842" lon="15.36242">
        <time>2026-03-21T13:00:00Z</time>
      </trkpt>
      <trkpt lat="65.57269" lon="15.36122">
        <time>2026-03-21T13:10:00Z</time>
      </trkpt>
      <trkpt lat="65.57578" lon="15.36084">
        <time>2026-03-21T13:20:00Z</time>
      </trkpt>
      <trkpt lat="65.57657" lon="15.36077">
        <time>2026-03-21T13:30:00Z</time>
      </trkpt>
      <trkpt lat="65.57848" lon="15.36064">
        <time>2026-03-21T14:00:00Z</time>
      </trkpt>
      <trkpt lat="65.58362" lon="15.36564">
        <time>2026-03-21T14:10:00Z</time>
      </trkpt>
      <trkpt lat="65.58866" lon="15.36583">
        <time>2026-03-21T14:20:00Z</time>
      </trkpt>
      <trkpt lat="65.59453" lon="15.36751">
        <time>2026-03-21T14:30:00Z</time>
      </trkpt>
      <trkpt lat="65.60129" lon="15.37041">
        <time>2026-03-21T14:40:00Z</time>
      </trkpt>
      <trkpt lat="65.60445" lon="15.36165">
        <time>2026-03-21T14:50:00Z</time>
      </trkpt>
      <trkpt lat="65.60954" lon="15.35929">
        <time>2026-03-21T15:00:00Z</time>
      </trkpt>
      <trkpt lat="65.61729" lon="15.36328">
        <time>2026-03-21T15:10:00Z</time>
      </trkpt>
      <trkpt lat="65.62556" lon="15.36588">
        <time>2026-03-21T15:20:00Z</time>
      </trkpt>
      <trkpt lat="65.63056" lon="15.35315">
        <time>2026-03-21T15:30:00Z</time>
      </trkpt>
      <trkpt lat="65.63415" lon="15.33998">
        <time>2026-03-21T15:40:00Z</time>
      </trkpt>
      <trkpt lat="65.63514" lon="15.32015">
        <time>2026-03-21T15:50:00Z</time>
      </trkpt>
      <trkpt lat="65.63745" lon="15.31416">
        <time>2026-03-21T16:00:00Z</time>
      </trkpt>
      <trkpt lat="65.6387" lon="15.31391">
        <time>2026-03-21T16:10:00Z</time>
      </trkpt>
      <trkpt lat="65.63869" lon="15.31395">
        <time>2026-03-21T16:20:00Z</time>
      </trkpt>
      <trkpt lat="65.64382" lon="15.31816">
        <time>2026-03-21T16:30:00Z</time>
      </trkpt>
      <trkpt lat="65.64959" lon="15.30809">
        <time>2026-03-21T16:40:00Z</time>
      </trkpt>
      <trkpt lat="65.65412" lon="15.29623">
        <time>2026-03-21T16:50:00Z</time>
      </trkpt>
      <trkpt lat="65.65748" lon="15.28917">
        <time>2026-03-21T17:00:00Z</time>
      </trkpt>
      <trkpt lat="65.66112" lon="15.2893">
        <time>2026-03-21T17:10:00Z</time>
      </trkpt>
      <trkpt lat="65.66479" lon="15.2787">
        <time>2026-03-21T17:20:00Z</time>
      </trkpt>
      <trkpt lat="65.66777" lon="15.26747">
        <time>2026-03-21T17:30:00Z</time>
      </trkpt>
      <trkpt lat="65.66773" lon="15.26747">
        <time>2026-03-21T17:31:00Z</time>
      </trkpt>
      <trkpt lat="65.6677" lon="15.26752">
        <time>2026-03-21T17:38:00Z</time>
      </trkpt>
      <trkpt lat="65.66761" lon="15.26749">
        <time>2026-03-22T07:34:00Z</time>
      </trkpt>
      <trkpt lat="65.67036" lon="15.25777">
        <time>2026-03-22T07:45:00Z</time>
      </trkpt>
      <trkpt lat="65.67237" lon="15.24541">
        <time>2026-03-22T07:55:00Z</time>
      </trkpt>
      <trkpt lat="65.67458" lon="15.23627">
        <time>2026-03-22T08:05:00Z</time>
      </trkpt>
      <trkpt lat="65.67636" lon="15.22411">
        <time>2026-03-22T08:15:00Z</time>
      </trkpt>
      <trkpt lat="65.68001" lon="15.21237">
        <time>2026-03-22T08:25:00Z</time>
      </trkpt>
      <trkpt lat="65.68419" lon="15.19821">
        <time>2026-03-22T08:35:00Z</time>
      </trkpt>
      <trkpt lat="65.68957" lon="15.18988">
        <time>2026-03-22T08:45:00Z</time>
      </trkpt>
      <trkpt lat="65.69552" lon="15.18327">
        <time>2026-03-22T08:55:00Z</time>
      </trkpt>
      <trkpt lat="65.70119" lon="15.17278">
        <time>2026-03-22T09:05:00Z</time>
      </trkpt>
      <trkpt lat="65.70443" lon="15.15832">
        <time>2026-03-22T09:15:00Z</time>
      </trkpt>
      <trkpt lat="65.70849" lon="15.14808">
        <time>2026-03-22T09:25:00Z</time>
      </trkpt>
      <trkpt lat="65.71531" lon="15.14446">
        <time>2026-03-22T09:35:00Z</time>
      </trkpt>
      <trkpt lat="65.71884" lon="15.13735">
        <time>2026-03-22T09:45:00Z</time>
      </trkpt>
      <trkpt lat="65.71896" lon="15.13733">
        <time>2026-03-22T09:55:00Z</time>
      </trkpt>
      <trkpt lat="65.72123" lon="15.12952">
        <time>2026-03-22T10:15:00Z</time>
      </trkpt>
      <trkpt lat="65.72264" lon="15.11193">
        <time>2026-03-22T10:25:00Z</time>
      </trkpt>
      <trkpt lat="65.7281" lon="15.10862">
        <time>2026-03-22T10:35:00Z</time>
      </trkpt>
      <trkpt lat="65.73169" lon="15.1107">
        <time>2026-03-22T10:46:00Z</time>
      </trkpt>
      <trkpt lat="65.73446" lon="15.1124">
        <time>2026-03-22T10:56:00Z</time>
      </trkpt>
      <trkpt lat="65.73746" lon="15.11804">
        <time>2026-03-22T11:06:00Z</time>
      </trkpt>
      <trkpt lat="65.74165" lon="15.12233">
        <time>2026-03-22T11:16:00Z</time>
      </trkpt>
      <trkpt lat="65.74761" lon="15.12609">
        <time>2026-03-22T11:26:00Z</time>
      </trkpt>
      <trkpt lat="65.75317" lon="15.12914">
        <time>2026-03-22T11:36:00Z</time>
      </trkpt>
      <trkpt lat="65.75729" lon="15.1304">
        <time>2026-03-22T11:46:00Z</time>
      </trkpt>
      <trkpt lat="65.76248" lon="15.12435">
        <time>2026-03-22T11:56:00Z</time>
      </trkpt>
      <trkpt lat="65.76258" lon="15.1245">
        <time>2026-03-22T12:06:00Z</time>
      </trkpt>
      <trkpt lat="65.76415" lon="15.1215">
        <time>2026-03-22T12:41:00Z</time>
      </trkpt>
      <trkpt lat="65.76892" lon="15.11442">
        <time>2026-03-22T12:51:00Z</time>
      </trkpt>
      <trkpt lat="65.77336" lon="15.10918">
        <time>2026-03-22T13:01:00Z</time>
      </trkpt>
      <trkpt lat="65.77834" lon="15.10347">
        <time>2026-03-22T13:11:00Z</time>
      </trkpt>
      <trkpt lat="65.78499" lon="15.1003">
        <time>2026-03-22T13:21:00Z</time>
      </trkpt>
      <trkpt lat="65.79066" lon="15.09098">
        <time>2026-03-22T13:31:00Z</time>
      </trkpt>
      <trkpt lat="65.79353" lon="15.0789">
        <time>2026-03-22T13:41:00Z</time>
      </trkpt>
      <trkpt lat="65.79812" lon="15.07148">
        <time>2026-03-22T13:51:00Z</time>
      </trkpt>
      <trkpt lat="65.80334" lon="15.07641">
        <time>2026-03-22T14:01:00Z</time>
      </trkpt>
      <trkpt lat="65.81014" lon="15.07354">
        <time>2026-03-22T14:11:00Z</time>
      </trkpt>
      <trkpt lat="65.81436" lon="15.07961">
        <time>2026-03-22T14:21:00Z</time>
      </trkpt>
      <trkpt lat="65.81256" lon="15.08605">
        <time>2026-03-22T14:31:00Z</time>
      </trkpt>
      <trkpt lat="65.812" lon="15.08746">
        <time>2026-03-22T14:36:00Z</time>
      </trkpt>
      <trkpt lat="65.81221" lon="15.08761">
        <time>2026-03-24T08:36:00Z</time>
      </trkpt>
      <trkpt lat="65.8141" lon="15.08105">
        <time>2026-03-24T08:46:00Z</time>
      </trkpt>
      <trkpt lat="65.8194" lon="15.07571">
        <time>2026-03-24T08:56:00Z</time>
      </trkpt>
      <trkpt lat="65.82446" lon="15.06682">
        <time>2026-03-24T09:06:00Z</time>
      </trkpt>
    </trkseg>
  </trk>
</gpx>
