<?xml version="1.0" encoding="UTF-8"?>
<gpx xmlns="http://www.topografix.com/GPX/1/1" version="1.1" creator="VitaBandet">
  <metadata>
    <name>Klimpf→Hemavan · Lisette Karlsson (village)</name>
  </metadata>
  <wpt lat="65.0727" lon="14.788">
    <name>Klimpfjäll</name>
  </wpt>
  <wpt lat="65.82442" lon="15.06684">
    <name>Hemavan</name>
  </wpt>
  <trk>
    <name>Klimpf→Hemavan · Lisette Karlsson (village)</name>
    <trkseg>
      <trkpt lat="65.0727" lon="14.788">
        <time>2026-03-18T10:20:00Z</time>
      </trkpt>
      <trkpt lat="65.07703" lon="14.78487">
        <time>2026-03-18T10:30:00Z</time>
      </trkpt>
      <trkpt lat="65.08021" lon="14.77614">
        <time>2026-03-18T10:40:00Z</time>
      </trkpt>
      <trkpt lat="65.08428" lon="14.76489">
        <time>2026-03-18T10:50:00Z</time>
      </trkpt>
      <trkpt lat="65.08861" lon="14.7556">
        <time>2026-03-18T11:00:00Z</time>
      </trkpt>
      <trkpt lat="65.09365" lon="14.7506">
        <time>2026-03-18T11:10:00Z</time>
      </trkpt>
      <trkpt lat="65.09981" lon="14.74884">
        <time>2026-03-18T11:20:00Z</time>
      </trkpt>
      <trkpt lat="65.10549" lon="14.7473">
        <time>2026-03-18T11:30:00Z</time>
      </trkpt>
      <trkpt lat="65.11014" lon="14.74528">
        <time>2026-03-18T11:40:00Z</time>
      </trkpt>
      <trkpt lat="65.11271" lon="14.73491">
        <time>2026-03-18T11:50:00Z</time>
      </trkpt>
      <trkpt lat="65.11637" lon="14.72743">
        <time>2026-03-18T12:00:00Z</time>
      </trkpt>
      <trkpt lat="65.11911" lon="14.71807">
        <time>2026-03-18T12:10:00Z</time>
      </trkpt>
      <trkpt lat="65.12415" lon="14.71011">
        <time>2026-03-18T12:20:00Z</time>
      </trkpt>
      <trkpt lat="65.12881" lon="14.69927">
        <time>2026-03-18T12:30:00Z</time>
      </trkpt>
      <trkpt lat="65.13445" lon="14.69372">
        <time>2026-03-18T12:40:00Z</time>
      </trkpt>
      <trkpt lat="65.14234" lon="14.69696">
        <time>2026-03-18T12:50:00Z</time>
      </trkpt>
      <trkpt lat="65.14753" lon="14.68698">
        <time>2026-03-18T13:00:00Z</time>
      </trkpt>
      <trkpt lat="65.15169" lon="14.67509">
        <time>2026-03-18T13:10:00Z</time>
      </trkpt>
      <trkpt lat="65.15461" lon="14.66245">
        <time>2026-03-18T13:20:00Z</time>
      </trkpt>
      <trkpt lat="65.15625" lon="14.64863">
        <time>2026-03-18T13:30:00Z</time>
      </trkpt>
      <trkpt lat="65.15828" lon="14.63499">
        <time>2026-03-18T13:40:00Z</time>
      </trkpt>
      <trkpt lat="65.16053" lon="14.62231">
        <time>2026-03-18T13:50:00Z</time>
      </trkpt>
      <trkpt lat="65.1629" lon="14.61018">
        <time>2026-03-18T14:00:00Z</time>
      </trkpt>
      <trkpt lat="65.16491" lon="14.59626">
        <time>2026-03-18T14:10:00Z</time>
      </trkpt>
      <trkpt lat="65.16582" lon="14.58113">
        <time>2026-03-18T14:20:00Z</time>
      </trkpt>
      <trkpt lat="65.17154" lon="14.57712">
        <time>2026-03-18T14:30:00Z</time>
      </trkpt>
      <trkpt lat="65.17836" lon="14.57126">
        <time>2026-03-18T14:40:00Z</time>
      </trkpt>
      <trkpt lat="65.18249" lon="14.56722">
        <time>2026-03-18T14:48:00Z</time>
      </trkpt>
      <trkpt lat="65.18249" lon="14.56712">
        <time>2026-03-19T09:35:00Z</time>
      </trkpt>
      <trkpt lat="65.18463" lon="14.56716">
        <time>2026-03-19T09:45:00Z</time>
      </trkpt>
      <trkpt lat="65.1878" lon="14.57448">
        <time>2026-03-19T09:55:00Z</time>
      </trkpt>
      <trkpt lat="65.18879" lon="14.58726">
        <time>2026-03-19T10:05:00Z</time>
      </trkpt>
      <trkpt lat="65.19155" lon="14.59962">
        <time>2026-03-19T10:15:00Z</time>
      </trkpt>
      <trkpt lat="65.19207" lon="14.60563">
        <time>2026-03-19T10:25:00Z</time>
      </trkpt>
      <trkpt lat="65.19141" lon="14.61675">
        <time>2026-03-19T10:35:00Z</time>
      </trkpt>
      <trkpt lat="65.19287" lon="14.63072">
        <time>2026-03-19T10:45:00Z</time>
      </trkpt>
      <trkpt lat="65.19282" lon="14.64348">
        <time>2026-03-19T10:55:00Z</time>
      </trkpt>
      <trkpt lat="65.19349" lon="14.65106">
        <time>2026-03-19T11:05:00Z</time>
      </trkpt>
      <trkpt lat="65.19319" lon="14.662">
        <time>2026-03-19T11:15:00Z</time>
      </trkpt>
      <trkpt lat="65.19597" lon="14.67473">
        <time>2026-03-19T11:25:00Z</time>
      </trkpt>
      <trkpt lat="65.19758" lon="14.68168">
        <time>2026-03-19T11:35:00Z</time>
      </trkpt>
      <trkpt lat="65.19798" lon="14.68816">
        <time>2026-03-19T11:45:00Z</time>
      </trkpt>
      <trkpt lat="65.20163" lon="14.68882">
        <time>2026-03-19T11:55:00Z</time>
      </trkpt>
      <trkpt lat="65.20597" lon="14.69614">
        <time>2026-03-19T12:05:00Z</time>
      </trkpt>
      <trkpt lat="65.20812" lon="14.70644">
        <time>2026-03-19T12:15:00Z</time>
      </trkpt>
      <trkpt lat="65.21016" lon="14.71386">
        <time>2026-03-19T12:25:00Z</time>
      </trkpt>
      <trkpt lat="65.21096" lon="14.72153">
        <time>2026-03-19T12:35:00Z</time>
      </trkpt>
      <trkpt lat="65.21167" lon="14.72431">
        <time>2026-03-19T12:45:00Z</time>
      </trkpt>
      <trkpt lat="65.21349" lon="14.73431">
        <time>2026-03-19T12:55:00Z</time>
      </trkpt>
      <trkpt lat="65.21544" lon="14.74161">
        <time>2026-03-19T13:05:00Z</time>
      </trkpt>
      <trkpt lat="65.21716" lon="14.74927">
        <time>2026-03-19T13:15:00Z</time>
      </trkpt>
      <trkpt lat="65.2185" lon="14.75461">
        <time>2026-03-19T13:25:00Z</time>
      </trkpt>
      <trkpt lat="65.22112" lon="14.76204">
        <time>2026-03-19T13:35:00Z</time>
      </trkpt>
      <trkpt lat="65.22312" lon="14.76961">
        <time>2026-03-19T13:45:00Z</time>
      </trkpt>
      <trkpt lat="65.22505" lon="14.78043">
        <time>2026-03-19T13:55:00Z</time>
      </trkpt>
      <trkpt lat="65.22641" lon="14.78809">
        <time>2026-03-19T14:05:00Z</time>
      </trkpt>
      <trkpt lat="65.2275" lon="14.8013">
        <time>2026-03-19T14:15:00Z</time>
      </trkpt>
      <trkpt lat="65.22887" lon="14.81208">
        <time>2026-03-19T14:25:00Z</time>
      </trkpt>
      <trkpt lat="65.23" lon="14.81665">
        <time>2026-03-19T14:35:00Z</time>
      </trkpt>
      <trkpt lat="65.23074" lon="14.8248">
        <time>2026-03-19T14:45:00Z</time>
      </trkpt>
      <trkpt lat="65.23308" lon="14.83343">
        <time>2026-03-19T14:55:00Z</time>
      </trkpt>
      <trkpt lat="65.23475" lon="14.84126">
        <time>2026-03-19T15:05:00Z</time>
      </trkpt>
      <trkpt lat="65.23635" lon="14.8428">
        <time>2026-03-19T15:15:00Z</time>
      </trkpt>
      <trkpt lat="65.23693" lon="14.84302">
        <time>2026-03-19T15:25:00Z</time>
      </trkpt>
      <trkpt lat="65.23747" lon="14.84954">
        <time>2026-03-19T15:35:00Z</time>
      </trkpt>
      <trkpt lat="65.23727" lon="14.85242">
        <time>2026-03-19T15:45:00Z</time>
      </trkpt>
      <trkpt lat="65.23711" lon="14.85328">
        <time>2026-03-19T15:55:00Z</time>
      </trkpt>
      <trkpt lat="65.23703" lon="14.85542">
        <time>2026-03-19T16:05:00Z</time>
      </trkpt>
      <trkpt lat="65.23698" lon="14.85589">
        <time>2026-03-19T16:15:00Z</time>
      </trkpt>
      <trkpt lat="65.23698" lon="14.85821">
        <time>2026-03-19T16:25:00Z</time>
      </trkpt>
      <trkpt lat="65.23699" lon="14.85812">
        <time>2026-03-19T16:35:00Z</time>
      </trkpt>
      <trkpt lat="65.23831" lon="14.85988">
        <time>2026-03-19T16:55:00Z</time>
      </trkpt>
      <trkpt lat="65.23916" lon="14.8695">
        <time>2026-03-19T17:05:00Z</time>
      </trkpt>
      <trkpt lat="65.24079" lon="14.88093">
        <time>2026-03-19T17:15:00Z</time>
      </trkpt>
      <trkpt lat="65.24178" lon="14.8848">
        <time>2026-03-19T17:25:00Z</time>
      </trkpt>
      <trkpt lat="65.24312" lon="14.8895">
        <time>2026-03-19T17:35:00Z</time>
      </trkpt>
      <trkpt lat="65.24371" lon="14.89516">
        <time>2026-03-19T17:45:00Z</time>
      </trkpt>
      <trkpt lat="65.24444" lon="14.90387">
        <time>2026-03-19T17:55:00Z</time>
      </trkpt>
      <trkpt lat="65.24492" lon="14.90971">
        <time>2026-03-19T18:05:00Z</time>
      </trkpt>
      <trkpt lat="65.24612" lon="14.91342">
        <time>2026-03-19T18:15:00Z</time>
      </trkpt>
      <trkpt lat="65.24986" lon="14.9208">
        <time>2026-03-19T18:25:00Z</time>
      </trkpt>
      <trkpt lat="65.2525" lon="14.93018">
        <time>2026-03-19T18:35:00Z</time>
      </trkpt>
      <trkpt lat="65.25331" lon="14.93194">
        <time>2026-03-19T18:41:00Z</time>
      </trkpt>
      <trkpt lat="65.25335" lon="14.93198">
        <time>2026-03-20T07:27:00Z</time>
      </trkpt>
      <trkpt lat="65.2537" lon="14.94091">
        <time>2026-03-20T07:37:00Z</time>
      </trkpt>
      <trkpt lat="65.25551" lon="14.95516">
        <time>2026-03-20T07:47:00Z</time>
      </trkpt>
      <trkpt lat="65.25648" lon="14.97436">
        <time>2026-03-20T07:57:00Z</time>
      </trkpt>
      <trkpt lat="65.25684" lon="14.99224">
        <time>2026-03-20T08:07:00Z</time>
      </trkpt>
      <trkpt lat="65.25866" lon="15.00747">
        <time>2026-03-20T08:17:00Z</time>
      </trkpt>
      <trkpt lat="65.26477" lon="15.01502">
        <time>2026-03-20T08:27:00Z</time>
      </trkpt>
      <trkpt lat="65.2724" lon="15.01607">
        <time>2026-03-20T08:37:00Z</time>
      </trkpt>
      <trkpt lat="65.27941" lon="15.01796">
        <time>2026-03-20T08:47:00Z</time>
      </trkpt>
      <trkpt lat="65.28513" lon="15.01749">
        <time>2026-03-20T08:57:00Z</time>
      </trkpt>
      <trkpt lat="65.29043" lon="15.0182">
        <time>2026-03-20T09:07:00Z</time>
      </trkpt>
      <trkpt lat="65.29522" lon="15.02168">
        <time>2026-03-20T09:17:00Z</time>
      </trkpt>
      <trkpt lat="65.29928" lon="15.02607">
        <time>2026-03-20T09:27:00Z</time>
      </trkpt>
      <trkpt lat="65.30534" lon="15.02749">
        <time>2026-03-20T09:37:00Z</time>
      </trkpt>
      <trkpt lat="65.31082" lon="15.03609">
        <time>2026-03-20T09:47:00Z</time>
      </trkpt>
      <trkpt lat="65.31174" lon="15.03762">
        <time>2026-03-20T09:57:00Z</time>
      </trkpt>
      <trkpt lat="65.31177" lon="15.03768">
        <time>2026-03-20T10:07:00Z</time>
      </trkpt>
      <trkpt lat="65.31564" lon="15.04322">
        <time>2026-03-20T10:17:00Z</time>
      </trkpt>
      <trkpt lat="65.32172" lon="15.05792">
        <time>2026-03-20T10:27:00Z</time>
      </trkpt>
      <trkpt lat="65.32681" lon="15.06476">
        <time>2026-03-20T10:37:00Z</time>
      </trkpt>
      <trkpt lat="65.33221" lon="15.07678">
        <time>2026-03-20T10:47:00Z</time>
      </trkpt>
      <trkpt lat="65.33407" lon="15.0907">
        <time>2026-03-20T10:57:00Z</time>
      </trkpt>
      <trkpt lat="65.33768" lon="15.09779">
        <time>2026-03-20T11:07:00Z</time>
      </trkpt>
      <trkpt lat="65.34114" lon="15.10351">
        <time>2026-03-20T11:17:00Z</time>
      </trkpt>
      <trkpt lat="65.34368" lon="15.11148">
        <time>2026-03-20T11:27:00Z</time>
      </trkpt>
      <trkpt lat="65.34714" lon="15.10482">
        <time>2026-03-20T11:37:00Z</time>
      </trkpt>
      <trkpt lat="65.35195" lon="15.09944">
        <time>2026-03-20T11:47:00Z</time>
      </trkpt>
      <trkpt lat="65.35765" lon="15.09564">
        <time>2026-03-20T11:57:00Z</time>
      </trkpt>
      <trkpt lat="65.35772" lon="15.09708">
        <time>2026-03-20T12:07:00Z</time>
      </trkpt>
      <trkpt lat="65.35915" lon="15.11293">
        <time>2026-03-20T12:17:00Z</time>
      </trkpt>
      <trkpt lat="65.36035" lon="15.12708">
        <time>2026-03-20T12:27:00Z</time>
      </trkpt>
      <trkpt lat="65.36329" lon="15.13965">
        <time>2026-03-20T12:37:00Z</time>
      </trkpt>
      <trkpt lat="65.36746" lon="15.14574">
        <time>2026-03-20T12:47:00Z</time>
      </trkpt>
      <trkpt lat="65.37108" lon="15.1481">
        <time>2026-03-20T12:57:00Z</time>
      </trkpt>
      <trkpt lat="65.3712" lon="15.14808">
        <time>2026-03-20T13:07:00Z</time>
      </trkpt>
      <trkpt lat="65.3758" lon="15.13753">
        <time>2026-03-20T13:47:00Z</time>
      </trkpt>
      <trkpt lat="65.38088" lon="15.13272">
        <time>2026-03-20T13:57:00Z</time>
      </trkpt>
      <trkpt lat="65.38396" lon="15.13871">
        <time>2026-03-20T14:07:00Z</time>
      </trkpt>
      <trkpt lat="65.38885" lon="15.1487">
        <time>2026-03-20T14:17:00Z</time>
      </trkpt>
      <trkpt lat="65.39139" lon="15.15546">
        <time>2026-03-20T14:27:00Z</time>
      </trkpt>
      <trkpt lat="65.39566" lon="15.16529">
        <time>2026-03-20T14:37:00Z</time>
      </trkpt>
      <trkpt lat="65.39827" lon="15.16864">
        <time>2026-03-20T14:47:00Z</time>
      </trkpt>
      <trkpt lat="65.40483" lon="15.17151">
        <time>2026-03-20T14:57:00Z</time>
      </trkpt>
      <trkpt lat="65.41047" lon="15.1778">
        <time>2026-03-20T15:07:00Z</time>
      </trkpt>
      <trkpt lat="65.41611" lon="15.18729">
        <time>2026-03-20T15:17:00Z</time>
      </trkpt>
      <trkpt lat="65.41963" lon="15.19522">
        <time>2026-03-20T15:27:00Z</time>
      </trkpt>
      <trkpt lat="65.42357" lon="15.2075">
        <time>2026-03-20T15:37:00Z</time>
      </trkpt>
      <trkpt lat="65.4275" lon="15.21911">
        <time>2026-03-20T15:47:00Z</time>
      </trkpt>
      <trkpt lat="65.43101" lon="15.23054">
        <time>2026-03-20T15:57:00Z</time>
      </trkpt>
      <trkpt lat="65.43106" lon="15.23059">
        <time>2026-03-20T16:07:00Z</time>
      </trkpt>
      <trkpt lat="65.43246" lon="15.23024">
        <time>2026-03-20T16:27:00Z</time>
      </trkpt>
      <trkpt lat="65.4348" lon="15.23514">
        <time>2026-03-20T16:37:00Z</time>
      </trkpt>
      <trkpt lat="65.43742" lon="15.24185">
        <time>2026-03-20T16:47:00Z</time>
      </trkpt>
      <trkpt lat="65.43763" lon="15.24537">
        <time>2026-03-20T16:57:00Z</time>
      </trkpt>
      <trkpt lat="65.43616" lon="15.2361">
        <time>2026-03-20T17:07:00Z</time>
      </trkpt>
      <trkpt lat="65.43993" lon="15.23503">
        <time>2026-03-20T17:17:00Z</time>
      </trkpt>
      <trkpt lat="65.44636" lon="15.2381">
        <time>2026-03-20T17:27:00Z</time>
      </trkpt>
      <trkpt lat="65.44819" lon="15.24365">
        <time>2026-03-20T17:37:00Z</time>
      </trkpt>
      <trkpt lat="65.44826" lon="15.24363">
        <time>2026-03-20T17:47:00Z</time>
      </trkpt>
      <trkpt lat="65.44826" lon="15.24363">
        <time>2026-03-20T17:48:00Z</time>
      </trkpt>
      <trkpt lat="65.44817" lon="15.24363">
        <time>2026-03-21T07:33:00Z</time>
      </trkpt>
      <trkpt lat="65.45226" lon="15.25009">
        <time>2026-03-21T07:43:00Z</time>
      </trkpt>
      <trkpt lat="65.45893" lon="15.25353">
        <time>2026-03-21T07:53:00Z</time>
      </trkpt>
      <trkpt lat="65.46294" lon="15.26897">
        <time>2026-03-21T08:03:00Z</time>
      </trkpt>
      <trkpt lat="65.46808" lon="15.27968">
        <time>2026-03-21T08:13:00Z</time>
      </trkpt>
      <trkpt lat="65.47085" lon="15.29208">
        <time>2026-03-21T08:23:00Z</time>
      </trkpt>
      <trkpt lat="65.47463" lon="15.30406">
        <time>2026-03-21T08:33:00Z</time>
      </trkpt>
      <trkpt lat="65.47965" lon="15.31575">
        <time>2026-03-21T08:43:00Z</time>
      </trkpt>
      <trkpt lat="65.48233" lon="15.32341">
        <time>2026-03-21T08:53:00Z</time>
      </trkpt>
      <trkpt lat="65.48468" lon="15.33326">
        <time>2026-03-21T09:03:00Z</time>
      </trkpt>
      <trkpt lat="65.48644" lon="15.34041">
        <time>2026-03-21T09:13:00Z</time>
      </trkpt>
      <trkpt lat="65.48819" lon="15.35124">
        <time>2026-03-21T09:23:00Z</time>
      </trkpt>
      <trkpt lat="65.49151" lon="15.35596">
        <time>2026-03-21T09:33:00Z</time>
      </trkpt>
      <trkpt lat="65.49215" lon="15.35111">
        <time>2026-03-21T09:43:00Z</time>
      </trkpt>
      <trkpt lat="65.49433" lon="15.3418">
        <time>2026-03-21T09:53:00Z</time>
      </trkpt>
      <trkpt lat="65.49659" lon="15.34345">
        <time>2026-03-21T10:03:00Z</time>
      </trkpt>
      <trkpt lat="65.50102" lon="15.34695">
        <time>2026-03-21T10:13:00Z</time>
      </trkpt>
      <trkpt lat="65.50743" lon="15.34564">
        <time>2026-03-21T10:23:00Z</time>
      </trkpt>
      <trkpt lat="65.51264" lon="15.3476">
        <time>2026-03-21T10:33:00Z</time>
      </trkpt>
      <trkpt lat="65.51802" lon="15.34109">
        <time>2026-03-21T10:43:00Z</time>
      </trkpt>
      <trkpt lat="65.52391" lon="15.33567">
        <time>2026-03-21T10:53:00Z</time>
      </trkpt>
      <trkpt lat="65.52551" lon="15.33438">
        <time>2026-03-21T11:03:00Z</time>
      </trkpt>
      <trkpt lat="65.52554" lon="15.3344">
        <time>2026-03-21T11:13:00Z</time>
      </trkpt>
      <trkpt lat="65.52874" lon="15.33197">
        <time>2026-03-21T11:33:00Z</time>
      </trkpt>
      <trkpt lat="65.53545" lon="15.33258">
        <time>2026-03-21T11:43:00Z</time>
      </trkpt>
      <trkpt lat="65.54222" lon="15.33264">
        <time>2026-03-21T11:53:00Z</time>
      </trkpt>
      <trkpt lat="65.54767" lon="15.33506">
        <time>2026-03-21T12:03:00Z</time>
      </trkpt>
      <trkpt lat="65.55394" lon="15.34356">
        <time>2026-03-21T12:13:00Z</time>
      </trkpt>
      <trkpt lat="65.55582" lon="15.34509">
        <time>2026-03-21T12:23:00Z</time>
      </trkpt>
      <trkpt lat="65.55818" lon="15.34903">
        <time>2026-03-21T12:33:00Z</time>
      </trkpt>
      <trkpt lat="65.56257" lon="15.35354">
        <time>2026-03-21T12:43:00Z</time>
      </trkpt>
      <trkpt lat="65.56573" lon="15.36006">
        <time>2026-03-21T12:53:00Z</time>
      </trkpt>
      <trkpt lat="65.56943" lon="15.36202">
        <time>2026-03-21T13:03:00Z</time>
      </trkpt>
      <trkpt lat="65.57344" lon="15.3595">
        <time>2026-03-21T13:13:00Z</time>
      </trkpt>
      <trkpt lat="65.57657" lon="15.36092">
        <time>2026-03-21T13:23:00Z</time>
      </trkpt>
      <trkpt lat="65.57657" lon="15.36081">
        <time>2026-03-21T13:33:00Z</time>
      </trkpt>
      <trkpt lat="65.5799" lon="15.36028">
        <time>2026-03-21T14:03:00Z</time>
      </trkpt>
      <trkpt lat="65.58479" lon="15.36592">
        <time>2026-03-21T14:13:00Z</time>
      </trkpt>
      <trkpt lat="65.59004" lon="15.36541">
        <time>2026-03-21T14:23:00Z</time>
      </trkpt>
      <trkpt lat="65.59616" lon="15.36794">
        <time>2026-03-21T14:33:00Z</time>
      </trkpt>
      <trkpt lat="65.60289" lon="15.36839">
        <time>2026-03-21T14:43:00Z</time>
      </trkpt>
      <trkpt lat="65.60465" lon="15.36081">
        <time>2026-03-21T14:53:00Z</time>
      </trkpt>
      <trkpt lat="65.61175" lon="15.36062">
        <time>2026-03-21T15:03:00Z</time>
      </trkpt>
      <trkpt lat="65.61969" lon="15.36423">
        <time>2026-03-21T15:13:00Z</time>
      </trkpt>
      <trkpt lat="65.62752" lon="15.3636">
        <time>2026-03-21T15:23:00Z</time>
      </trkpt>
      <trkpt lat="65.63093" lon="15.34961">
        <time>2026-03-21T15:33:00Z</time>
      </trkpt>
      <trkpt lat="65.63567" lon="15.33588">
        <time>2026-03-21T15:43:00Z</time>
      </trkpt>
      <trkpt lat="65.63503" lon="15.32037">
        <time>2026-03-21T15:53:00Z</time>
      </trkpt>
      <trkpt lat="65.63871" lon="15.31386">
        <time>2026-03-21T16:03:00Z</time>
      </trkpt>
      <trkpt lat="65.63876" lon="15.31386">
        <time>2026-03-21T16:13:00Z</time>
      </trkpt>
      <trkpt lat="65.646" lon="15.31653">
        <time>2026-03-21T16:33:00Z</time>
      </trkpt>
      <trkpt lat="65.65088" lon="15.30477">
        <time>2026-03-21T16:43:00Z</time>
      </trkpt>
      <trkpt lat="65.65504" lon="15.29178">
        <time>2026-03-21T16:53:00Z</time>
      </trkpt>
      <trkpt lat="65.66003" lon="15.29136">
        <time>2026-03-21T17:03:00Z</time>
      </trkpt>
      <trkpt lat="65.66188" lon="15.28739">
        <time>2026-03-21T17:13:00Z</time>
      </trkpt>
      <trkpt lat="65.66591" lon="15.27357">
        <time>2026-03-21T17:23:00Z</time>
      </trkpt>
      <trkpt lat="65.66766" lon="15.26739">
        <time>2026-03-21T17:31:00Z</time>
      </trkpt>
      <trkpt lat="65.66761" lon="15.26762">
        <time>2026-03-22T07:31:00Z</time>
      </trkpt>
      <trkpt lat="65.66908" lon="15.26387">
        <time>2026-03-22T07:41:00Z</time>
      </trkpt>
      <trkpt lat="65.67158" lon="15.24973">
        <time>2026-03-22T07:51:00Z</time>
      </trkpt>
      <trkpt lat="65.67345" lon="15.2423">
        <time>2026-03-22T08:01:00Z</time>
      </trkpt>
      <trkpt lat="65.67495" lon="15.23112">
        <time>2026-03-22T08:11:00Z</time>
      </trkpt>
      <trkpt lat="65.67873" lon="15.217">
        <time>2026-03-22T08:21:00Z</time>
      </trkpt>
      <trkpt lat="65.68201" lon="15.20643">
        <time>2026-03-22T08:31:00Z</time>
      </trkpt>
      <trkpt lat="65.68617" lon="15.19321">
        <time>2026-03-22T08:41:00Z</time>
      </trkpt>
      <trkpt lat="65.69202" lon="15.18671">
        <time>2026-03-22T08:51:00Z</time>
      </trkpt>
      <trkpt lat="65.69848" lon="15.1792">
        <time>2026-03-22T09:01:00Z</time>
      </trkpt>
      <trkpt lat="65.70279" lon="15.1683">
        <time>2026-03-22T09:11:00Z</time>
      </trkpt>
      <trkpt lat="65.70554" lon="15.15246">
        <time>2026-03-22T09:21:00Z</time>
      </trkpt>
      <trkpt lat="65.71186" lon="15.14546">
        <time>2026-03-22T09:31:00Z</time>
      </trkpt>
      <trkpt lat="65.71801" lon="15.13916">
        <time>2026-03-22T09:41:00Z</time>
      </trkpt>
      <trkpt lat="65.71837" lon="15.13834">
        <time>2026-03-22T09:51:00Z</time>
      </trkpt>
      <trkpt lat="65.72136" lon="15.11965">
        <time>2026-03-22T10:21:00Z</time>
      </trkpt>
      <trkpt lat="65.72629" lon="15.10901">
        <time>2026-03-22T10:31:00Z</time>
      </trkpt>
      <trkpt lat="65.72997" lon="15.11205">
        <time>2026-03-22T10:41:00Z</time>
      </trkpt>
      <trkpt lat="65.73322" lon="15.1109">
        <time>2026-03-22T10:51:00Z</time>
      </trkpt>
      <trkpt lat="65.7368" lon="15.11482">
        <time>2026-03-22T11:01:00Z</time>
      </trkpt>
      <trkpt lat="65.73948" lon="15.1209">
        <time>2026-03-22T11:11:00Z</time>
      </trkpt>
      <trkpt lat="65.74489" lon="15.12435">
        <time>2026-03-22T11:21:00Z</time>
      </trkpt>
      <trkpt lat="65.75047" lon="15.12787">
        <time>2026-03-22T11:31:00Z</time>
      </trkpt>
      <trkpt lat="65.75587" lon="15.12991">
        <time>2026-03-22T11:41:00Z</time>
      </trkpt>
      <trkpt lat="65.7595" lon="15.12759">
        <time>2026-03-22T11:51:00Z</time>
      </trkpt>
      <trkpt lat="65.76266" lon="15.12433">
        <time>2026-03-22T12:01:00Z</time>
      </trkpt>
      <trkpt lat="65.7626" lon="15.12439">
        <time>2026-03-22T12:11:00Z</time>
      </trkpt>
      <trkpt lat="65.76443" lon="15.12117">
        <time>2026-03-22T12:41:00Z</time>
      </trkpt>
      <trkpt lat="65.76934" lon="15.1142">
        <time>2026-03-22T12:51:00Z</time>
      </trkpt>
      <trkpt lat="65.77367" lon="15.10894">
        <time>2026-03-22T13:01:00Z</time>
      </trkpt>
      <trkpt lat="65.77878" lon="15.10332">
        <time>2026-03-22T13:11:00Z</time>
      </trkpt>
      <trkpt lat="65.78493" lon="15.10049">
        <time>2026-03-22T13:21:00Z</time>
      </trkpt>
      <trkpt lat="65.79043" lon="15.09156">
        <time>2026-03-22T13:31:00Z</time>
      </trkpt>
      <trkpt lat="65.79355" lon="15.0789">
        <time>2026-03-22T13:41:00Z</time>
      </trkpt>
      <trkpt lat="65.79805" lon="15.07156">
        <time>2026-03-22T13:51:00Z</time>
      </trkpt>
      <trkpt lat="65.80335" lon="15.07644">
        <time>2026-03-22T14:01:00Z</time>
      </trkpt>
      <trkpt lat="65.80995" lon="15.07371">
        <time>2026-03-22T14:11:00Z</time>
      </trkpt>
      <trkpt lat="65.81435" lon="15.07963">
        <time>2026-03-22T14:21:00Z</time>
      </trkpt>
      <trkpt lat="65.81253" lon="15.08598">
        <time>2026-03-22T14:31:00Z</time>
      </trkpt>
      <trkpt lat="65.81248" lon="15.08667">
        <time>2026-03-22T14:41:00Z</time>
      </trkpt>
      <trkpt lat="65.8121" lon="15.0874">
        <time>2026-03-22T14:49:00Z</time>
      </trkpt>
      <trkpt lat="65.8123" lon="15.08766">
        <time>2026-03-24T08:37:00Z</time>
      </trkpt>
      <trkpt lat="65.81439" lon="15.0806">
        <time>2026-03-24T08:47:00Z</time>
      </trkpt>
      <trkpt lat="65.81966" lon="15.07528">
        <time>2026-03-24T08:57:00Z</time>
      </trkpt>
      <trkpt lat="65.82442" lon="15.06684">
        <time>2026-03-24T09:07:00Z</time>
      </trkpt>
    </trkseg>
  </trk>
</gpx>
