<?xml version="1.0" encoding="UTF-8"?>
<gpx xmlns="http://www.topografix.com/GPX/1/1" version="1.1" creator="VitaBandet">
  <metadata>
    <name>Klimpf→Hemavan · Isabel Sunnerö (village)</name>
  </metadata>
  <wpt lat="65.07065" lon="14.7926">
    <name>Klimpfjäll</name>
  </wpt>
  <wpt lat="65.83602" lon="15.09534">
    <name>Hemavan</name>
  </wpt>
  <trk>
    <name>Klimpf→Hemavan · Isabel Sunnerö (village)</name>
    <trkseg>
      <trkpt lat="65.07065" lon="14.7926">
        <time>2023-03-07T08:41:00Z</time>
      </trkpt>
      <trkpt lat="65.08008" lon="14.7767">
        <time>2023-03-07T09:12:00Z</time>
      </trkpt>
      <trkpt lat="65.09225" lon="14.75228">
        <time>2023-03-07T09:42:00Z</time>
      </trkpt>
      <trkpt lat="65.10878" lon="14.74704">
        <time>2023-03-07T10:12:00Z</time>
      </trkpt>
      <trkpt lat="65.11829" lon="14.72174">
        <time>2023-03-07T10:42:00Z</time>
      </trkpt>
      <trkpt lat="65.11847" lon="14.72134">
        <time>2023-03-07T11:12:00Z</time>
      </trkpt>
      <trkpt lat="65.12913" lon="14.70039">
        <time>2023-03-07T11:42:00Z</time>
      </trkpt>
      <trkpt lat="65.1444" lon="14.69664">
        <time>2023-03-07T12:12:00Z</time>
      </trkpt>
      <trkpt lat="65.15393" lon="14.66319">
        <time>2023-03-07T12:44:00Z</time>
      </trkpt>
      <trkpt lat="65.15667" lon="14.64596">
        <time>2023-03-07T13:14:00Z</time>
      </trkpt>
      <trkpt lat="65.16249" lon="14.61265">
        <time>2023-03-07T13:44:00Z</time>
      </trkpt>
      <trkpt lat="65.16661" lon="14.57603">
        <time>2023-03-07T14:14:00Z</time>
      </trkpt>
      <trkpt lat="65.18245" lon="14.56719">
        <time>2023-03-07T14:44:00Z</time>
      </trkpt>
      <trkpt lat="65.18229" lon="14.56686">
        <time>2023-03-07T15:21:00Z</time>
      </trkpt>
      <trkpt lat="65.18255" lon="14.56714">
        <time>2023-03-07T15:35:00Z</time>
      </trkpt>
      <trkpt lat="65.18249" lon="14.56693">
        <time>2023-03-08T06:42:00Z</time>
      </trkpt>
      <trkpt lat="65.18266" lon="14.56719">
        <time>2023-03-08T07:14:00Z</time>
      </trkpt>
      <trkpt lat="65.18808" lon="14.56693">
        <time>2023-03-08T08:15:00Z</time>
      </trkpt>
      <trkpt lat="65.18985" lon="14.57725">
        <time>2023-03-08T08:45:00Z</time>
      </trkpt>
      <trkpt lat="65.19324" lon="14.59939">
        <time>2023-03-08T09:16:00Z</time>
      </trkpt>
      <trkpt lat="65.20149" lon="14.6154">
        <time>2023-03-08T09:46:00Z</time>
      </trkpt>
      <trkpt lat="65.20533" lon="14.64179">
        <time>2023-03-08T10:16:00Z</time>
      </trkpt>
      <trkpt lat="65.20644" lon="14.66497">
        <time>2023-03-08T10:46:00Z</time>
      </trkpt>
      <trkpt lat="65.21406" lon="14.68507">
        <time>2023-03-08T11:16:00Z</time>
      </trkpt>
      <trkpt lat="65.21726" lon="14.7182">
        <time>2023-03-08T11:47:00Z</time>
      </trkpt>
      <trkpt lat="65.21702" lon="14.73423">
        <time>2023-03-08T12:18:00Z</time>
      </trkpt>
      <trkpt lat="65.2182" lon="14.73089">
        <time>2023-03-08T12:48:00Z</time>
      </trkpt>
      <trkpt lat="65.22862" lon="14.7431">
        <time>2023-03-08T13:18:00Z</time>
      </trkpt>
      <trkpt lat="65.23402" lon="14.76691">
        <time>2023-03-08T13:48:00Z</time>
      </trkpt>
      <trkpt lat="65.24049" lon="14.79485">
        <time>2023-03-08T14:19:00Z</time>
      </trkpt>
      <trkpt lat="65.2426" lon="14.82275">
        <time>2023-03-08T14:49:00Z</time>
      </trkpt>
      <trkpt lat="65.24347" lon="14.83777">
        <time>2023-03-08T15:20:00Z</time>
      </trkpt>
      <trkpt lat="65.23836" lon="14.8601">
        <time>2023-03-08T15:50:00Z</time>
      </trkpt>
      <trkpt lat="65.24073" lon="14.88538">
        <time>2023-03-08T16:20:00Z</time>
      </trkpt>
      <trkpt lat="65.24237" lon="14.90491">
        <time>2023-03-08T16:50:00Z</time>
      </trkpt>
      <trkpt lat="65.24798" lon="14.93201">
        <time>2023-03-08T17:20:00Z</time>
      </trkpt>
      <trkpt lat="65.25332" lon="14.93109">
        <time>2023-03-08T17:52:00Z</time>
      </trkpt>
      <trkpt lat="65.2523" lon="14.93233">
        <time>2023-03-08T18:22:00Z</time>
      </trkpt>
      <trkpt lat="65.25296" lon="14.93184">
        <time>2023-03-08T18:53:00Z</time>
      </trkpt>
      <trkpt lat="65.25309" lon="14.93289">
        <time>2023-03-08T19:01:00Z</time>
      </trkpt>
      <trkpt lat="65.25361" lon="14.93776">
        <time>2023-03-09T07:30:00Z</time>
      </trkpt>
      <trkpt lat="65.25814" lon="14.97394">
        <time>2023-03-09T08:00:00Z</time>
      </trkpt>
      <trkpt lat="65.26018" lon="15.00737">
        <time>2023-03-09T08:30:00Z</time>
      </trkpt>
      <trkpt lat="65.27277" lon="15.01441">
        <time>2023-03-09T09:01:00Z</time>
      </trkpt>
      <trkpt lat="65.28841" lon="15.01355">
        <time>2023-03-09T09:31:00Z</time>
      </trkpt>
      <trkpt lat="65.29937" lon="15.02599">
        <time>2023-03-09T10:02:00Z</time>
      </trkpt>
      <trkpt lat="65.30994" lon="15.03443">
        <time>2023-03-09T10:32:00Z</time>
      </trkpt>
      <trkpt lat="65.32348" lon="15.06082">
        <time>2023-03-09T11:02:00Z</time>
      </trkpt>
      <trkpt lat="65.32533" lon="15.06299">
        <time>2023-03-09T11:32:00Z</time>
      </trkpt>
      <trkpt lat="65.33522" lon="15.08429">
        <time>2023-03-09T12:02:00Z</time>
      </trkpt>
      <trkpt lat="65.3412" lon="15.1074">
        <time>2023-03-09T12:33:00Z</time>
      </trkpt>
      <trkpt lat="65.351" lon="15.12272">
        <time>2023-03-09T13:03:00Z</time>
      </trkpt>
      <trkpt lat="65.35783" lon="15.12648">
        <time>2023-03-09T13:34:00Z</time>
      </trkpt>
      <trkpt lat="65.37027" lon="15.14706">
        <time>2023-03-09T14:04:00Z</time>
      </trkpt>
      <trkpt lat="65.38314" lon="15.1438">
        <time>2023-03-09T14:34:00Z</time>
      </trkpt>
      <trkpt lat="65.39467" lon="15.16367">
        <time>2023-03-09T15:04:00Z</time>
      </trkpt>
      <trkpt lat="65.408" lon="15.18422">
        <time>2023-03-09T15:34:00Z</time>
      </trkpt>
      <trkpt lat="65.41232" lon="15.19461">
        <time>2023-03-09T16:05:00Z</time>
      </trkpt>
      <trkpt lat="65.41233" lon="15.19452">
        <time>2023-03-09T16:35:00Z</time>
      </trkpt>
      <trkpt lat="65.41064" lon="15.1966">
        <time>2023-03-09T17:06:00Z</time>
      </trkpt>
      <trkpt lat="65.41025" lon="15.19622">
        <time>2023-03-09T17:36:00Z</time>
      </trkpt>
      <trkpt lat="65.41028" lon="15.19594">
        <time>2023-03-09T17:48:00Z</time>
      </trkpt>
      <trkpt lat="65.41038" lon="15.19602">
        <time>2023-03-09T21:36:00Z</time>
      </trkpt>
      <trkpt lat="65.41029" lon="15.19605">
        <time>2023-03-10T01:37:00Z</time>
      </trkpt>
      <trkpt lat="65.41032" lon="15.19592">
        <time>2023-03-10T05:37:00Z</time>
      </trkpt>
      <trkpt lat="65.41729" lon="15.20542">
        <time>2023-03-10T06:07:00Z</time>
      </trkpt>
      <trkpt lat="65.43142" lon="15.21941">
        <time>2023-03-10T06:37:00Z</time>
      </trkpt>
      <trkpt lat="65.43533" lon="15.23555">
        <time>2023-03-10T07:07:00Z</time>
      </trkpt>
      <trkpt lat="65.45015" lon="15.2489">
        <time>2023-03-10T07:39:00Z</time>
      </trkpt>
      <trkpt lat="65.46291" lon="15.26889">
        <time>2023-03-10T08:09:00Z</time>
      </trkpt>
      <trkpt lat="65.47764" lon="15.31099">
        <time>2023-03-10T08:40:00Z</time>
      </trkpt>
      <trkpt lat="65.49346" lon="15.34492">
        <time>2023-03-10T09:10:00Z</time>
      </trkpt>
      <trkpt lat="65.50645" lon="15.34011">
        <time>2023-03-10T09:40:00Z</time>
      </trkpt>
      <trkpt lat="65.51619" lon="15.3329">
        <time>2023-03-10T10:10:00Z</time>
      </trkpt>
      <trkpt lat="65.53398" lon="15.31904">
        <time>2023-03-10T10:40:00Z</time>
      </trkpt>
      <trkpt lat="65.54703" lon="15.30662">
        <time>2023-03-10T11:11:00Z</time>
      </trkpt>
      <trkpt lat="65.55952" lon="15.30042">
        <time>2023-03-10T11:41:00Z</time>
      </trkpt>
      <trkpt lat="65.57688" lon="15.29687">
        <time>2023-03-10T12:12:00Z</time>
      </trkpt>
      <trkpt lat="65.57805" lon="15.29709">
        <time>2023-03-10T12:42:00Z</time>
      </trkpt>
      <trkpt lat="65.58736" lon="15.28909">
        <time>2023-03-10T13:12:00Z</time>
      </trkpt>
      <trkpt lat="65.60423" lon="15.27432">
        <time>2023-03-10T13:42:00Z</time>
      </trkpt>
      <trkpt lat="65.61777" lon="15.24737">
        <time>2023-03-10T14:12:00Z</time>
      </trkpt>
      <trkpt lat="65.62915" lon="15.2237">
        <time>2023-03-10T14:43:00Z</time>
      </trkpt>
      <trkpt lat="65.64053" lon="15.19935">
        <time>2023-03-10T15:13:00Z</time>
      </trkpt>
      <trkpt lat="65.64919" lon="15.17912">
        <time>2023-03-10T15:43:00Z</time>
      </trkpt>
      <trkpt lat="65.64894" lon="15.17834">
        <time>2023-03-10T16:13:00Z</time>
      </trkpt>
      <trkpt lat="65.64916" lon="15.17896">
        <time>2023-03-10T17:06:00Z</time>
      </trkpt>
      <trkpt lat="65.64913" lon="15.17886">
        <time>2023-03-11T06:23:00Z</time>
      </trkpt>
      <trkpt lat="65.64916" lon="15.17884">
        <time>2023-03-11T06:53:00Z</time>
      </trkpt>
      <trkpt lat="65.65245" lon="15.1653">
        <time>2023-03-11T07:23:00Z</time>
      </trkpt>
      <trkpt lat="65.66025" lon="15.12925">
        <time>2023-03-11T07:54:00Z</time>
      </trkpt>
      <trkpt lat="65.67478" lon="15.12882">
        <time>2023-03-11T08:24:00Z</time>
      </trkpt>
      <trkpt lat="65.69038" lon="15.11895">
        <time>2023-03-11T08:55:00Z</time>
      </trkpt>
      <trkpt lat="65.70487" lon="15.10311">
        <time>2023-03-11T09:25:00Z</time>
      </trkpt>
      <trkpt lat="65.71813" lon="15.09002">
        <time>2023-03-11T09:55:00Z</time>
      </trkpt>
      <trkpt lat="65.72294" lon="15.1118">
        <time>2023-03-11T10:25:00Z</time>
      </trkpt>
      <trkpt lat="65.73799" lon="15.12036">
        <time>2023-03-11T10:55:00Z</time>
      </trkpt>
      <trkpt lat="65.75508" lon="15.12998">
        <time>2023-03-11T11:26:00Z</time>
      </trkpt>
      <trkpt lat="65.76007" lon="15.1276">
        <time>2023-03-11T11:56:00Z</time>
      </trkpt>
      <trkpt lat="65.77211" lon="15.11185">
        <time>2023-03-11T12:26:00Z</time>
      </trkpt>
      <trkpt lat="65.78639" lon="15.09914">
        <time>2023-03-11T12:56:00Z</time>
      </trkpt>
      <trkpt lat="65.79691" lon="15.07196">
        <time>2023-03-11T13:26:00Z</time>
      </trkpt>
      <trkpt lat="65.81311" lon="15.07886">
        <time>2023-03-11T13:57:00Z</time>
      </trkpt>
      <trkpt lat="65.81186" lon="15.08783">
        <time>2023-03-11T14:27:00Z</time>
      </trkpt>
      <trkpt lat="65.812" lon="15.08768">
        <time>2023-03-11T14:58:00Z</time>
      </trkpt>
      <trkpt lat="65.81174" lon="15.0876">
        <time>2023-03-11T18:43:00Z</time>
      </trkpt>
      <trkpt lat="65.81194" lon="15.08779">
        <time>2023-03-11T18:58:00Z</time>
      </trkpt>
      <trkpt lat="65.81192" lon="15.08805">
        <time>2023-03-13T09:16:00Z</time>
      </trkpt>
      <trkpt lat="65.81505" lon="15.10361">
        <time>2023-03-13T09:46:00Z</time>
      </trkpt>
      <trkpt lat="65.81718" lon="15.12002">
        <time>2023-03-13T10:16:00Z</time>
      </trkpt>
      <trkpt lat="65.82831" lon="15.10331">
        <time>2023-03-13T10:47:00Z</time>
      </trkpt>
      <trkpt lat="65.83602" lon="15.09534">
        <time>2023-03-13T11:17:00Z</time>
      </trkpt>
    </trkseg>
  </trk>
</gpx>
