<?xml version="1.0" encoding="UTF-8"?>
<gpx xmlns="http://www.topografix.com/GPX/1/1" version="1.1" creator="VitaBandet">
  <metadata>
    <name>Klimpf→Hemavan · Evelina Silokangas (village)</name>
  </metadata>
  <wpt lat="65.12278" lon="14.52663">
    <name>Klimpfjäll</name>
  </wpt>
  <wpt lat="65.83557" lon="15.09779">
    <name>Hemavan</name>
  </wpt>
  <trk>
    <name>Klimpf→Hemavan · Evelina Silokangas (village)</name>
    <trkseg>
      <trkpt lat="65.12278" lon="14.52663">
        <time>2020-03-12T16:19:00Z</time>
      </trkpt>
      <trkpt lat="65.12524" lon="14.52908">
        <time>2020-03-12T16:29:00Z</time>
      </trkpt>
      <trkpt lat="65.12956" lon="14.53081">
        <time>2020-03-12T16:38:00Z</time>
      </trkpt>
      <trkpt lat="65.13448" lon="14.53341">
        <time>2020-03-12T16:48:00Z</time>
      </trkpt>
      <trkpt lat="65.13789" lon="14.53996">
        <time>2020-03-12T16:58:00Z</time>
      </trkpt>
      <trkpt lat="65.14026" lon="14.54933">
        <time>2020-03-12T17:08:00Z</time>
      </trkpt>
      <trkpt lat="65.14295" lon="14.55671">
        <time>2020-03-12T17:18:00Z</time>
      </trkpt>
      <trkpt lat="65.14563" lon="14.56221">
        <time>2020-03-12T17:28:00Z</time>
      </trkpt>
      <trkpt lat="65.14827" lon="14.56448">
        <time>2020-03-12T17:38:00Z</time>
      </trkpt>
      <trkpt lat="65.14909" lon="14.56534">
        <time>2020-03-12T17:48:00Z</time>
      </trkpt>
      <trkpt lat="65.15235" lon="14.56763">
        <time>2020-03-12T17:58:00Z</time>
      </trkpt>
      <trkpt lat="65.15696" lon="14.5748">
        <time>2020-03-12T18:08:00Z</time>
      </trkpt>
      <trkpt lat="65.16236" lon="14.57611">
        <time>2020-03-12T18:18:00Z</time>
      </trkpt>
      <trkpt lat="65.16661" lon="14.57594">
        <time>2020-03-12T18:28:00Z</time>
      </trkpt>
      <trkpt lat="65.16861" lon="14.57671">
        <time>2020-03-12T18:38:00Z</time>
      </trkpt>
      <trkpt lat="65.17397" lon="14.57585">
        <time>2020-03-12T18:48:00Z</time>
      </trkpt>
      <trkpt lat="65.17931" lon="14.56924">
        <time>2020-03-12T18:58:00Z</time>
      </trkpt>
      <trkpt lat="65.18254" lon="14.56706">
        <time>2020-03-12T19:15:00Z</time>
      </trkpt>
      <trkpt lat="65.1825" lon="14.56708">
        <time>2020-03-13T09:52:00Z</time>
      </trkpt>
      <trkpt lat="65.1825" lon="14.56708">
        <time>2020-03-13T09:52:00Z</time>
      </trkpt>
      <trkpt lat="65.18523" lon="14.56819">
        <time>2020-03-13T10:02:00Z</time>
      </trkpt>
      <trkpt lat="65.18761" lon="14.57371">
        <time>2020-03-13T10:14:00Z</time>
      </trkpt>
      <trkpt lat="65.19086" lon="14.57186">
        <time>2020-03-13T10:21:00Z</time>
      </trkpt>
      <trkpt lat="65.19244" lon="14.57798">
        <time>2020-03-13T10:31:00Z</time>
      </trkpt>
      <trkpt lat="65.20272" lon="14.61111">
        <time>2020-03-13T11:32:00Z</time>
      </trkpt>
      <trkpt lat="65.20465" lon="14.61609">
        <time>2020-03-13T11:42:00Z</time>
      </trkpt>
      <trkpt lat="65.20555" lon="14.62467">
        <time>2020-03-13T11:52:00Z</time>
      </trkpt>
      <trkpt lat="65.20645" lon="14.65158">
        <time>2020-03-13T12:21:00Z</time>
      </trkpt>
      <trkpt lat="65.21754" lon="14.71727">
        <time>2020-03-13T13:41:00Z</time>
      </trkpt>
      <trkpt lat="65.21805" lon="14.72783">
        <time>2020-03-13T13:51:00Z</time>
      </trkpt>
      <trkpt lat="65.21749" lon="14.7341">
        <time>2020-03-13T14:01:00Z</time>
      </trkpt>
      <trkpt lat="65.21744" lon="14.7341">
        <time>2020-03-13T14:11:00Z</time>
      </trkpt>
      <trkpt lat="65.21742" lon="14.734">
        <time>2020-03-13T15:05:00Z</time>
      </trkpt>
      <trkpt lat="65.2185" lon="14.73073">
        <time>2020-03-13T15:15:00Z</time>
      </trkpt>
      <trkpt lat="65.22272" lon="14.73262">
        <time>2020-03-13T15:25:00Z</time>
      </trkpt>
      <trkpt lat="65.22649" lon="14.73749">
        <time>2020-03-13T15:35:00Z</time>
      </trkpt>
      <trkpt lat="65.23005" lon="14.7473">
        <time>2020-03-13T15:45:00Z</time>
      </trkpt>
      <trkpt lat="65.2324" lon="14.76317">
        <time>2020-03-13T15:55:00Z</time>
      </trkpt>
      <trkpt lat="65.23708" lon="14.77459">
        <time>2020-03-13T16:05:00Z</time>
      </trkpt>
      <trkpt lat="65.23981" lon="14.7862">
        <time>2020-03-13T16:15:00Z</time>
      </trkpt>
      <trkpt lat="65.24168" lon="14.7988">
        <time>2020-03-13T16:25:00Z</time>
      </trkpt>
      <trkpt lat="65.2425" lon="14.8121">
        <time>2020-03-13T16:35:00Z</time>
      </trkpt>
      <trkpt lat="65.23961" lon="14.82023">
        <time>2020-03-13T16:45:00Z</time>
      </trkpt>
      <trkpt lat="65.23948" lon="14.82862">
        <time>2020-03-13T16:55:00Z</time>
      </trkpt>
      <trkpt lat="65.25341" lon="14.93186">
        <time>2020-03-13T19:32:00Z</time>
      </trkpt>
      <trkpt lat="65.25329" lon="14.93188">
        <time>2020-03-14T09:15:00Z</time>
      </trkpt>
      <trkpt lat="65.25329" lon="14.93188">
        <time>2020-03-14T09:16:00Z</time>
      </trkpt>
      <trkpt lat="65.25388" lon="14.94012">
        <time>2020-03-14T09:25:00Z</time>
      </trkpt>
      <trkpt lat="65.25512" lon="14.95527">
        <time>2020-03-14T09:35:00Z</time>
      </trkpt>
      <trkpt lat="65.25681" lon="14.97291">
        <time>2020-03-14T09:45:00Z</time>
      </trkpt>
      <trkpt lat="65.25816" lon="14.98754">
        <time>2020-03-14T09:55:00Z</time>
      </trkpt>
      <trkpt lat="65.25915" lon="14.99739">
        <time>2020-03-14T10:05:00Z</time>
      </trkpt>
      <trkpt lat="65.26133" lon="15.01391">
        <time>2020-03-14T10:15:00Z</time>
      </trkpt>
      <trkpt lat="65.26624" lon="15.01576">
        <time>2020-03-14T10:25:00Z</time>
      </trkpt>
      <trkpt lat="65.27366" lon="15.01496">
        <time>2020-03-14T10:34:00Z</time>
      </trkpt>
      <trkpt lat="65.28073" lon="15.01312">
        <time>2020-03-14T10:44:00Z</time>
      </trkpt>
      <trkpt lat="65.28682" lon="15.01719">
        <time>2020-03-14T10:54:00Z</time>
      </trkpt>
      <trkpt lat="65.28924" lon="15.02009">
        <time>2020-03-14T11:04:00Z</time>
      </trkpt>
      <trkpt lat="65.29076" lon="15.02209">
        <time>2020-03-14T11:14:00Z</time>
      </trkpt>
      <trkpt lat="65.29603" lon="15.02372">
        <time>2020-03-14T11:24:00Z</time>
      </trkpt>
      <trkpt lat="65.30079" lon="15.0259">
        <time>2020-03-14T11:34:00Z</time>
      </trkpt>
      <trkpt lat="65.30697" lon="15.02779">
        <time>2020-03-14T11:44:00Z</time>
      </trkpt>
      <trkpt lat="65.31209" lon="15.02964">
        <time>2020-03-14T11:54:00Z</time>
      </trkpt>
      <trkpt lat="65.3177" lon="15.03238">
        <time>2020-03-14T12:04:00Z</time>
      </trkpt>
      <trkpt lat="65.32019" lon="15.04792">
        <time>2020-03-14T12:14:00Z</time>
      </trkpt>
      <trkpt lat="65.32307" lon="15.06037">
        <time>2020-03-14T12:24:00Z</time>
      </trkpt>
      <trkpt lat="65.32341" lon="15.0608">
        <time>2020-03-14T12:34:00Z</time>
      </trkpt>
      <trkpt lat="65.32331" lon="15.06062">
        <time>2020-03-14T13:22:00Z</time>
      </trkpt>
      <trkpt lat="65.32597" lon="15.0638">
        <time>2020-03-14T13:32:00Z</time>
      </trkpt>
      <trkpt lat="65.32759" lon="15.06571">
        <time>2020-03-14T13:42:00Z</time>
      </trkpt>
      <trkpt lat="65.33234" lon="15.07977">
        <time>2020-03-14T13:52:00Z</time>
      </trkpt>
      <trkpt lat="65.33396" lon="15.09004">
        <time>2020-03-14T14:02:00Z</time>
      </trkpt>
      <trkpt lat="65.33659" lon="15.09768">
        <time>2020-03-14T14:11:00Z</time>
      </trkpt>
      <trkpt lat="65.33981" lon="15.10326">
        <time>2020-03-14T14:21:00Z</time>
      </trkpt>
      <trkpt lat="65.33981" lon="15.10326">
        <time>2020-03-14T14:31:00Z</time>
      </trkpt>
      <trkpt lat="65.33984" lon="15.10328">
        <time>2020-03-14T14:41:00Z</time>
      </trkpt>
      <trkpt lat="65.3416" lon="15.10832">
        <time>2020-03-14T14:51:00Z</time>
      </trkpt>
      <trkpt lat="65.34435" lon="15.11227">
        <time>2020-03-14T15:01:00Z</time>
      </trkpt>
      <trkpt lat="65.34478" lon="15.12523">
        <time>2020-03-14T15:11:00Z</time>
      </trkpt>
      <trkpt lat="65.34484" lon="15.12903">
        <time>2020-03-14T15:22:00Z</time>
      </trkpt>
      <trkpt lat="65.34491" lon="15.13287">
        <time>2020-03-14T15:31:00Z</time>
      </trkpt>
      <trkpt lat="65.34417" lon="15.15124">
        <time>2020-03-14T15:41:00Z</time>
      </trkpt>
      <trkpt lat="65.34663" lon="15.16326">
        <time>2020-03-14T15:51:00Z</time>
      </trkpt>
      <trkpt lat="65.34859" lon="15.17545">
        <time>2020-03-14T16:01:00Z</time>
      </trkpt>
      <trkpt lat="65.34733" lon="15.18545">
        <time>2020-03-14T16:12:00Z</time>
      </trkpt>
      <trkpt lat="65.34699" lon="15.20004">
        <time>2020-03-14T16:22:00Z</time>
      </trkpt>
      <trkpt lat="65.34721" lon="15.21187">
        <time>2020-03-14T16:41:00Z</time>
      </trkpt>
      <trkpt lat="65.3473" lon="15.22346">
        <time>2020-03-14T16:51:00Z</time>
      </trkpt>
      <trkpt lat="65.34824" lon="15.23565">
        <time>2020-03-14T17:01:00Z</time>
      </trkpt>
      <trkpt lat="65.34984" lon="15.24817">
        <time>2020-03-14T17:11:00Z</time>
      </trkpt>
      <trkpt lat="65.34885" lon="15.25967">
        <time>2020-03-14T17:21:00Z</time>
      </trkpt>
      <trkpt lat="65.34768" lon="15.27469">
        <time>2020-03-14T17:31:00Z</time>
      </trkpt>
      <trkpt lat="65.34625" lon="15.27921">
        <time>2020-03-14T17:41:00Z</time>
      </trkpt>
      <trkpt lat="65.34198" lon="15.28973">
        <time>2020-03-14T17:50:00Z</time>
      </trkpt>
      <trkpt lat="65.34161" lon="15.29087">
        <time>2020-03-14T18:07:00Z</time>
      </trkpt>
      <trkpt lat="65.34161" lon="15.29082">
        <time>2020-03-15T09:11:00Z</time>
      </trkpt>
      <trkpt lat="65.34211" lon="15.29211">
        <time>2020-03-15T09:13:00Z</time>
      </trkpt>
      <trkpt lat="65.34763" lon="15.29235">
        <time>2020-03-15T09:23:00Z</time>
      </trkpt>
      <trkpt lat="65.35132" lon="15.29522">
        <time>2020-03-15T09:33:00Z</time>
      </trkpt>
      <trkpt lat="65.34954" lon="15.30604">
        <time>2020-03-15T09:43:00Z</time>
      </trkpt>
      <trkpt lat="65.35572" lon="15.30312">
        <time>2020-03-15T09:53:00Z</time>
      </trkpt>
      <trkpt lat="65.3587" lon="15.2981">
        <time>2020-03-15T10:04:00Z</time>
      </trkpt>
      <trkpt lat="65.36172" lon="15.29621">
        <time>2020-03-15T10:13:00Z</time>
      </trkpt>
      <trkpt lat="65.36463" lon="15.29595">
        <time>2020-03-15T10:23:00Z</time>
      </trkpt>
      <trkpt lat="65.37206" lon="15.29037">
        <time>2020-03-15T10:33:00Z</time>
      </trkpt>
      <trkpt lat="65.37863" lon="15.29175">
        <time>2020-03-15T10:43:00Z</time>
      </trkpt>
      <trkpt lat="65.38543" lon="15.29601">
        <time>2020-03-15T10:52:00Z</time>
      </trkpt>
      <trkpt lat="65.38921" lon="15.29893">
        <time>2020-03-15T11:02:00Z</time>
      </trkpt>
      <trkpt lat="65.39599" lon="15.30408">
        <time>2020-03-15T11:12:00Z</time>
      </trkpt>
      <trkpt lat="65.39761" lon="15.30168">
        <time>2020-03-15T11:22:00Z</time>
      </trkpt>
      <trkpt lat="65.40146" lon="15.2913">
        <time>2020-03-15T11:32:00Z</time>
      </trkpt>
      <trkpt lat="65.40545" lon="15.28074">
        <time>2020-03-15T11:42:00Z</time>
      </trkpt>
      <trkpt lat="65.40996" lon="15.26939">
        <time>2020-03-15T11:52:00Z</time>
      </trkpt>
      <trkpt lat="65.41212" lon="15.26389">
        <time>2020-03-15T12:02:00Z</time>
      </trkpt>
      <trkpt lat="65.41221" lon="15.26394">
        <time>2020-03-15T12:12:00Z</time>
      </trkpt>
      <trkpt lat="65.41629" lon="15.25641">
        <time>2020-03-15T12:22:00Z</time>
      </trkpt>
      <trkpt lat="65.42148" lon="15.24877">
        <time>2020-03-15T12:32:00Z</time>
      </trkpt>
      <trkpt lat="65.42222" lon="15.24801">
        <time>2020-03-15T12:42:00Z</time>
      </trkpt>
      <trkpt lat="65.4222" lon="15.24804">
        <time>2020-03-15T12:52:00Z</time>
      </trkpt>
      <trkpt lat="65.42277" lon="15.24686">
        <time>2020-03-15T13:16:00Z</time>
      </trkpt>
      <trkpt lat="65.4274" lon="15.23666">
        <time>2020-03-15T13:25:00Z</time>
      </trkpt>
      <trkpt lat="65.43085" lon="15.23061">
        <time>2020-03-15T13:35:00Z</time>
      </trkpt>
      <trkpt lat="65.43227" lon="15.23005">
        <time>2020-03-15T13:45:00Z</time>
      </trkpt>
      <trkpt lat="65.43407" lon="15.23398">
        <time>2020-03-15T13:55:00Z</time>
      </trkpt>
      <trkpt lat="65.43899" lon="15.23574">
        <time>2020-03-15T14:05:00Z</time>
      </trkpt>
      <trkpt lat="65.44685" lon="15.23943">
        <time>2020-03-15T14:15:00Z</time>
      </trkpt>
      <trkpt lat="65.4509" lon="15.24982">
        <time>2020-03-15T14:25:00Z</time>
      </trkpt>
      <trkpt lat="65.46378" lon="15.27123">
        <time>2020-03-15T14:55:00Z</time>
      </trkpt>
      <trkpt lat="65.46977" lon="15.2855">
        <time>2020-03-15T15:05:00Z</time>
      </trkpt>
      <trkpt lat="65.47481" lon="15.30477">
        <time>2020-03-15T15:15:00Z</time>
      </trkpt>
      <trkpt lat="65.47523" lon="15.30576">
        <time>2020-03-15T15:25:00Z</time>
      </trkpt>
      <trkpt lat="65.48269" lon="15.33039">
        <time>2020-03-15T15:35:00Z</time>
      </trkpt>
      <trkpt lat="65.48787" lon="15.3506">
        <time>2020-03-15T15:44:00Z</time>
      </trkpt>
      <trkpt lat="65.49032" lon="15.35635">
        <time>2020-03-15T15:54:00Z</time>
      </trkpt>
      <trkpt lat="65.4905" lon="15.35616">
        <time>2020-03-15T16:05:00Z</time>
      </trkpt>
      <trkpt lat="65.49316" lon="15.3462">
        <time>2020-03-15T16:15:00Z</time>
      </trkpt>
      <trkpt lat="65.49717" lon="15.34297">
        <time>2020-03-15T16:24:00Z</time>
      </trkpt>
      <trkpt lat="65.49724" lon="15.3429">
        <time>2020-03-15T16:34:00Z</time>
      </trkpt>
      <trkpt lat="65.50116" lon="15.34384">
        <time>2020-03-15T16:44:00Z</time>
      </trkpt>
      <trkpt lat="65.50537" lon="15.34084">
        <time>2020-03-15T16:54:00Z</time>
      </trkpt>
      <trkpt lat="65.50884" lon="15.33912">
        <time>2020-03-15T17:04:00Z</time>
      </trkpt>
      <trkpt lat="65.51554" lon="15.3339">
        <time>2020-03-15T17:24:00Z</time>
      </trkpt>
      <trkpt lat="65.51751" lon="15.32969">
        <time>2020-03-15T17:34:00Z</time>
      </trkpt>
      <trkpt lat="65.51837" lon="15.32943">
        <time>2020-03-15T17:44:00Z</time>
      </trkpt>
      <trkpt lat="65.51837" lon="15.32932">
        <time>2020-03-15T17:54:00Z</time>
      </trkpt>
      <trkpt lat="65.5184" lon="15.32938">
        <time>2020-03-16T09:11:00Z</time>
      </trkpt>
      <trkpt lat="65.5184" lon="15.32938">
        <time>2020-03-16T09:11:00Z</time>
      </trkpt>
      <trkpt lat="65.51788" lon="15.32973">
        <time>2020-03-16T09:21:00Z</time>
      </trkpt>
      <trkpt lat="65.5184" lon="15.32767">
        <time>2020-03-16T09:31:00Z</time>
      </trkpt>
      <trkpt lat="65.52097" lon="15.32674">
        <time>2020-03-16T09:41:00Z</time>
      </trkpt>
      <trkpt lat="65.52421" lon="15.32093">
        <time>2020-03-16T09:51:00Z</time>
      </trkpt>
      <trkpt lat="65.53397" lon="15.31889">
        <time>2020-03-16T10:11:00Z</time>
      </trkpt>
      <trkpt lat="65.53921" lon="15.32192">
        <time>2020-03-16T10:20:00Z</time>
      </trkpt>
      <trkpt lat="65.54226" lon="15.32149">
        <time>2020-03-16T10:30:00Z</time>
      </trkpt>
      <trkpt lat="65.54496" lon="15.3106">
        <time>2020-03-16T10:40:00Z</time>
      </trkpt>
      <trkpt lat="65.54577" lon="15.30863">
        <time>2020-03-16T10:50:00Z</time>
      </trkpt>
      <trkpt lat="65.54845" lon="15.30411">
        <time>2020-03-16T11:00:00Z</time>
      </trkpt>
      <trkpt lat="65.55445" lon="15.29951">
        <time>2020-03-16T11:11:00Z</time>
      </trkpt>
      <trkpt lat="65.56253" lon="15.3025">
        <time>2020-03-16T11:20:00Z</time>
      </trkpt>
      <trkpt lat="65.56676" lon="15.30464">
        <time>2020-03-16T11:30:00Z</time>
      </trkpt>
      <trkpt lat="65.57671" lon="15.2969">
        <time>2020-03-16T12:49:00Z</time>
      </trkpt>
      <trkpt lat="65.57924" lon="15.30035">
        <time>2020-03-16T12:59:00Z</time>
      </trkpt>
      <trkpt lat="65.58441" lon="15.29419">
        <time>2020-03-16T13:09:00Z</time>
      </trkpt>
      <trkpt lat="65.59083" lon="15.2867">
        <time>2020-03-16T13:18:00Z</time>
      </trkpt>
      <trkpt lat="65.59936" lon="15.27915">
        <time>2020-03-16T13:28:00Z</time>
      </trkpt>
      <trkpt lat="65.60626" lon="15.27138">
        <time>2020-03-16T13:38:00Z</time>
      </trkpt>
      <trkpt lat="65.61105" lon="15.26565">
        <time>2020-03-16T13:48:00Z</time>
      </trkpt>
      <trkpt lat="65.61744" lon="15.24784">
        <time>2020-03-16T13:58:00Z</time>
      </trkpt>
      <trkpt lat="65.62512" lon="15.23402">
        <time>2020-03-16T14:08:00Z</time>
      </trkpt>
      <trkpt lat="65.63216" lon="15.22381">
        <time>2020-03-16T14:18:00Z</time>
      </trkpt>
      <trkpt lat="65.63766" lon="15.21051">
        <time>2020-03-16T14:28:00Z</time>
      </trkpt>
      <trkpt lat="65.64005" lon="15.20398">
        <time>2020-03-16T14:38:00Z</time>
      </trkpt>
      <trkpt lat="65.64413" lon="15.1918">
        <time>2020-03-16T14:48:00Z</time>
      </trkpt>
      <trkpt lat="65.64977" lon="15.17744">
        <time>2020-03-16T14:58:00Z</time>
      </trkpt>
      <trkpt lat="65.65482" lon="15.15933">
        <time>2020-03-16T15:08:00Z</time>
      </trkpt>
      <trkpt lat="65.65884" lon="15.13875">
        <time>2020-03-16T15:38:00Z</time>
      </trkpt>
      <trkpt lat="65.65915" lon="15.13006">
        <time>2020-03-16T15:57:00Z</time>
      </trkpt>
      <trkpt lat="65.66396" lon="15.12946">
        <time>2020-03-16T16:07:00Z</time>
      </trkpt>
      <trkpt lat="65.66705" lon="15.12929">
        <time>2020-03-16T16:17:00Z</time>
      </trkpt>
      <trkpt lat="65.67319" lon="15.12983">
        <time>2020-03-16T16:27:00Z</time>
      </trkpt>
      <trkpt lat="65.67771" lon="15.12565">
        <time>2020-03-16T16:37:00Z</time>
      </trkpt>
      <trkpt lat="65.68227" lon="15.12213">
        <time>2020-03-16T16:47:00Z</time>
      </trkpt>
      <trkpt lat="65.68931" lon="15.12041">
        <time>2020-03-16T16:57:00Z</time>
      </trkpt>
      <trkpt lat="65.69571" lon="15.11049">
        <time>2020-03-16T17:07:00Z</time>
      </trkpt>
      <trkpt lat="65.70065" lon="15.10785">
        <time>2020-03-16T17:17:00Z</time>
      </trkpt>
      <trkpt lat="65.7055" lon="15.10201">
        <time>2020-03-16T17:27:00Z</time>
      </trkpt>
      <trkpt lat="65.70902" lon="15.09841">
        <time>2020-03-16T17:37:00Z</time>
      </trkpt>
      <trkpt lat="65.71438" lon="15.09434">
        <time>2020-03-16T17:47:00Z</time>
      </trkpt>
      <trkpt lat="65.71735" lon="15.09064">
        <time>2020-03-16T17:57:00Z</time>
      </trkpt>
      <trkpt lat="65.71973" lon="15.08897">
        <time>2020-03-16T18:12:00Z</time>
      </trkpt>
      <trkpt lat="65.71975" lon="15.08888">
        <time>2020-03-17T09:24:00Z</time>
      </trkpt>
      <trkpt lat="65.71975" lon="15.08888">
        <time>2020-03-17T09:30:00Z</time>
      </trkpt>
      <trkpt lat="65.72186" lon="15.09303">
        <time>2020-03-17T09:33:00Z</time>
      </trkpt>
      <trkpt lat="65.7377" lon="15.09606">
        <time>2020-03-17T09:43:00Z</time>
      </trkpt>
      <trkpt lat="65.73886" lon="15.09125">
        <time>2020-03-17T09:53:00Z</time>
      </trkpt>
      <trkpt lat="65.74478" lon="15.08996">
        <time>2020-03-17T10:03:00Z</time>
      </trkpt>
      <trkpt lat="65.7457" lon="15.09431">
        <time>2020-03-17T10:13:00Z</time>
      </trkpt>
      <trkpt lat="65.74551" lon="15.0941">
        <time>2020-03-17T10:23:00Z</time>
      </trkpt>
      <trkpt lat="65.74659" lon="15.10148">
        <time>2020-03-17T10:33:00Z</time>
      </trkpt>
      <trkpt lat="65.74764" lon="15.10738">
        <time>2020-03-17T10:43:00Z</time>
      </trkpt>
      <trkpt lat="65.74969" lon="15.11935">
        <time>2020-03-17T10:53:00Z</time>
      </trkpt>
      <trkpt lat="65.75112" lon="15.12785">
        <time>2020-03-17T11:03:00Z</time>
      </trkpt>
      <trkpt lat="65.75508" lon="15.12966">
        <time>2020-03-17T11:12:00Z</time>
      </trkpt>
      <trkpt lat="65.76002" lon="15.1276">
        <time>2020-03-17T11:22:00Z</time>
      </trkpt>
      <trkpt lat="65.76324" lon="15.12322">
        <time>2020-03-17T11:32:00Z</time>
      </trkpt>
      <trkpt lat="65.76482" lon="15.12046">
        <time>2020-03-17T11:42:00Z</time>
      </trkpt>
      <trkpt lat="65.76993" lon="15.11402">
        <time>2020-03-17T11:52:00Z</time>
      </trkpt>
      <trkpt lat="65.7716" lon="15.1129">
        <time>2020-03-17T12:02:00Z</time>
      </trkpt>
      <trkpt lat="65.77161" lon="15.11283">
        <time>2020-03-17T12:12:00Z</time>
      </trkpt>
      <trkpt lat="65.7716" lon="15.11287">
        <time>2020-03-17T12:23:00Z</time>
      </trkpt>
      <trkpt lat="65.77158" lon="15.11287">
        <time>2020-03-17T12:32:00Z</time>
      </trkpt>
      <trkpt lat="65.77616" lon="15.11244">
        <time>2020-03-17T12:42:00Z</time>
      </trkpt>
      <trkpt lat="65.78203" lon="15.11107">
        <time>2020-03-17T12:52:00Z</time>
      </trkpt>
      <trkpt lat="65.78981" lon="15.10427">
        <time>2020-03-17T13:02:00Z</time>
      </trkpt>
      <trkpt lat="65.79876" lon="15.09715">
        <time>2020-03-17T13:12:00Z</time>
      </trkpt>
      <trkpt lat="65.80768" lon="15.08822">
        <time>2020-03-17T13:22:00Z</time>
      </trkpt>
      <trkpt lat="65.81194" lon="15.08736">
        <time>2020-03-17T13:32:00Z</time>
      </trkpt>
      <trkpt lat="65.81193" lon="15.08738">
        <time>2020-03-17T13:42:00Z</time>
      </trkpt>
      <trkpt lat="65.81532" lon="15.08723">
        <time>2020-03-17T13:52:00Z</time>
      </trkpt>
      <trkpt lat="65.81618" lon="15.08919">
        <time>2020-03-17T14:22:00Z</time>
      </trkpt>
      <trkpt lat="65.81614" lon="15.08919">
        <time>2020-03-17T14:31:00Z</time>
      </trkpt>
      <trkpt lat="65.8152" lon="15.08751">
        <time>2020-03-17T14:41:00Z</time>
      </trkpt>
      <trkpt lat="65.81218" lon="15.08704">
        <time>2020-03-18T15:14:00Z</time>
      </trkpt>
      <trkpt lat="65.81513" lon="15.1039">
        <time>2020-03-18T15:43:00Z</time>
      </trkpt>
      <trkpt lat="65.81484" lon="15.10577">
        <time>2020-03-18T15:53:00Z</time>
      </trkpt>
      <trkpt lat="65.81845" lon="15.11809">
        <time>2020-03-18T16:12:00Z</time>
      </trkpt>
      <trkpt lat="65.82079" lon="15.1139">
        <time>2020-03-18T16:22:00Z</time>
      </trkpt>
      <trkpt lat="65.82544" lon="15.10676">
        <time>2020-03-18T16:32:00Z</time>
      </trkpt>
      <trkpt lat="65.82829" lon="15.10343">
        <time>2020-03-18T16:42:00Z</time>
      </trkpt>
      <trkpt lat="65.83042" lon="15.10326">
        <time>2020-03-18T16:52:00Z</time>
      </trkpt>
      <trkpt lat="65.83256" lon="15.10403">
        <time>2020-03-18T17:02:00Z</time>
      </trkpt>
      <trkpt lat="65.83557" lon="15.09779">
        <time>2020-03-18T17:13:00Z</time>
      </trkpt>
    </trkseg>
  </trk>
</gpx>
