<?xml version="1.0" encoding="UTF-8"?>
<gpx xmlns="http://www.topografix.com/GPX/1/1" version="1.1" creator="VitaBandet">
  <metadata>
    <name>Klimpf→Hemavan · Mette Fosvald (village)</name>
  </metadata>
  <wpt lat="65.06033" lon="14.79758">
    <name>Klimpfjäll</name>
  </wpt>
  <wpt lat="65.83499" lon="15.10047">
    <name>Hemavan</name>
  </wpt>
  <trk>
    <name>Klimpf→Hemavan · Mette Fosvald (village)</name>
    <trkseg>
      <trkpt lat="65.06033" lon="14.79758">
        <time>2020-03-03T14:48:00Z</time>
      </trkpt>
      <trkpt lat="65.06032" lon="14.79854">
        <time>2020-03-04T08:33:00Z</time>
      </trkpt>
      <trkpt lat="65.05052" lon="14.74876">
        <time>2020-03-04T09:03:00Z</time>
      </trkpt>
      <trkpt lat="65.06372" lon="14.69574">
        <time>2020-03-04T09:33:00Z</time>
      </trkpt>
      <trkpt lat="65.07104" lon="14.65364">
        <time>2020-03-04T10:03:00Z</time>
      </trkpt>
      <trkpt lat="65.08381" lon="14.6269">
        <time>2020-03-04T10:33:00Z</time>
      </trkpt>
      <trkpt lat="65.09899" lon="14.60589">
        <time>2020-03-04T11:03:00Z</time>
      </trkpt>
      <trkpt lat="65.10593" lon="14.57532">
        <time>2020-03-04T11:33:00Z</time>
      </trkpt>
      <trkpt lat="65.10643" lon="14.54141">
        <time>2020-03-04T12:03:00Z</time>
      </trkpt>
      <trkpt lat="65.12229" lon="14.52584">
        <time>2020-03-04T12:34:00Z</time>
      </trkpt>
      <trkpt lat="65.13343" lon="14.53324">
        <time>2020-03-04T13:04:00Z</time>
      </trkpt>
      <trkpt lat="65.14651" lon="14.56296">
        <time>2020-03-04T13:34:00Z</time>
      </trkpt>
      <trkpt lat="65.16682" lon="14.57598">
        <time>2020-03-04T14:04:00Z</time>
      </trkpt>
      <trkpt lat="65.17968" lon="14.57012">
        <time>2020-03-04T14:34:00Z</time>
      </trkpt>
      <trkpt lat="65.18249" lon="14.56701">
        <time>2020-03-05T07:29:00Z</time>
      </trkpt>
      <trkpt lat="65.18758" lon="14.57369">
        <time>2020-03-05T07:59:00Z</time>
      </trkpt>
      <trkpt lat="65.19169" lon="14.60002">
        <time>2020-03-05T08:29:00Z</time>
      </trkpt>
      <trkpt lat="65.19231" lon="14.6098">
        <time>2020-03-05T08:59:00Z</time>
      </trkpt>
      <trkpt lat="65.19263" lon="14.62939">
        <time>2020-03-05T09:29:00Z</time>
      </trkpt>
      <trkpt lat="65.19359" lon="14.64701">
        <time>2020-03-05T09:59:00Z</time>
      </trkpt>
      <trkpt lat="65.19337" lon="14.66675">
        <time>2020-03-05T10:29:00Z</time>
      </trkpt>
      <trkpt lat="65.20009" lon="14.68797">
        <time>2020-03-05T10:59:00Z</time>
      </trkpt>
      <trkpt lat="65.20827" lon="14.70713">
        <time>2020-03-05T11:29:00Z</time>
      </trkpt>
      <trkpt lat="65.21126" lon="14.72185">
        <time>2020-03-05T11:59:00Z</time>
      </trkpt>
      <trkpt lat="65.21558" lon="14.74093">
        <time>2020-03-05T12:29:00Z</time>
      </trkpt>
      <trkpt lat="65.21781" lon="14.75303">
        <time>2020-03-05T12:59:00Z</time>
      </trkpt>
      <trkpt lat="65.22258" lon="14.76874">
        <time>2020-03-05T13:29:00Z</time>
      </trkpt>
      <trkpt lat="65.22654" lon="14.78556">
        <time>2020-03-05T13:59:00Z</time>
      </trkpt>
      <trkpt lat="65.22832" lon="14.80873">
        <time>2020-03-05T14:29:00Z</time>
      </trkpt>
      <trkpt lat="65.23009" lon="14.81963">
        <time>2020-03-05T14:59:00Z</time>
      </trkpt>
      <trkpt lat="65.23326" lon="14.83558">
        <time>2020-03-05T15:29:00Z</time>
      </trkpt>
      <trkpt lat="65.23719" lon="14.84358">
        <time>2020-03-05T15:59:00Z</time>
      </trkpt>
      <trkpt lat="65.23718" lon="14.84356">
        <time>2020-03-05T16:20:00Z</time>
      </trkpt>
      <trkpt lat="65.23717" lon="14.84365">
        <time>2020-03-06T07:55:00Z</time>
      </trkpt>
      <trkpt lat="65.23717" lon="14.84365">
        <time>2020-03-06T07:55:00Z</time>
      </trkpt>
      <trkpt lat="65.2373" lon="14.8471">
        <time>2020-03-06T08:25:00Z</time>
      </trkpt>
      <trkpt lat="65.23721" lon="14.85914">
        <time>2020-03-06T08:55:00Z</time>
      </trkpt>
      <trkpt lat="65.23946" lon="14.87879">
        <time>2020-03-06T09:25:00Z</time>
      </trkpt>
      <trkpt lat="65.24048" lon="14.88283">
        <time>2020-03-06T09:55:00Z</time>
      </trkpt>
      <trkpt lat="65.24339" lon="14.8927">
        <time>2020-03-06T10:25:00Z</time>
      </trkpt>
      <trkpt lat="65.24372" lon="14.91443">
        <time>2020-03-06T10:55:00Z</time>
      </trkpt>
      <trkpt lat="65.25144" lon="14.93218">
        <time>2020-03-06T11:25:00Z</time>
      </trkpt>
      <trkpt lat="65.25332" lon="14.93188">
        <time>2020-03-06T11:55:00Z</time>
      </trkpt>
      <trkpt lat="65.25333" lon="14.93184">
        <time>2020-03-06T12:05:00Z</time>
      </trkpt>
      <trkpt lat="65.25334" lon="14.93192">
        <time>2020-03-07T06:44:00Z</time>
      </trkpt>
      <trkpt lat="65.25654" lon="14.97005">
        <time>2020-03-07T07:14:00Z</time>
      </trkpt>
      <trkpt lat="65.25627" lon="15.00754">
        <time>2020-03-07T07:44:00Z</time>
      </trkpt>
      <trkpt lat="65.26908" lon="15.02052">
        <time>2020-03-07T08:14:00Z</time>
      </trkpt>
      <trkpt lat="65.28706" lon="15.01743">
        <time>2020-03-07T08:44:00Z</time>
      </trkpt>
      <trkpt lat="65.29879" lon="15.02554">
        <time>2020-03-07T09:14:00Z</time>
      </trkpt>
      <trkpt lat="65.31389" lon="15.02983">
        <time>2020-03-07T09:44:00Z</time>
      </trkpt>
      <trkpt lat="65.32301" lon="15.0602">
        <time>2020-03-07T10:14:00Z</time>
      </trkpt>
      <trkpt lat="65.32795" lon="15.0661">
        <time>2020-03-07T10:44:00Z</time>
      </trkpt>
      <trkpt lat="65.33609" lon="15.09693">
        <time>2020-03-07T11:14:00Z</time>
      </trkpt>
      <trkpt lat="65.33621" lon="15.12219">
        <time>2020-03-07T11:44:00Z</time>
      </trkpt>
      <trkpt lat="65.33354" lon="15.1389">
        <time>2020-03-07T12:14:00Z</time>
      </trkpt>
      <trkpt lat="65.32958" lon="15.19216">
        <time>2020-03-07T12:45:00Z</time>
      </trkpt>
      <trkpt lat="65.32524" lon="15.25121">
        <time>2020-03-07T13:15:00Z</time>
      </trkpt>
      <trkpt lat="65.32161" lon="15.28228">
        <time>2020-03-07T13:45:00Z</time>
      </trkpt>
      <trkpt lat="65.32381" lon="15.28428">
        <time>2020-03-07T14:15:00Z</time>
      </trkpt>
      <trkpt lat="65.33128" lon="15.29218">
        <time>2020-03-07T14:45:00Z</time>
      </trkpt>
      <trkpt lat="65.34921" lon="15.30634">
        <time>2020-03-07T15:15:00Z</time>
      </trkpt>
      <trkpt lat="65.36516" lon="15.29582">
        <time>2020-03-07T15:45:00Z</time>
      </trkpt>
      <trkpt lat="65.39215" lon="15.30009">
        <time>2020-03-07T16:15:00Z</time>
      </trkpt>
      <trkpt lat="65.41011" lon="15.27533">
        <time>2020-03-07T16:45:00Z</time>
      </trkpt>
      <trkpt lat="65.42691" lon="15.23761">
        <time>2020-03-07T17:15:00Z</time>
      </trkpt>
      <trkpt lat="65.43261" lon="15.22984">
        <time>2020-03-07T17:45:00Z</time>
      </trkpt>
      <trkpt lat="65.43266" lon="15.22982">
        <time>2020-03-07T18:15:00Z</time>
      </trkpt>
      <trkpt lat="65.43259" lon="15.22973">
        <time>2020-03-08T09:01:00Z</time>
      </trkpt>
      <trkpt lat="65.43259" lon="15.22973">
        <time>2020-03-08T09:01:00Z</time>
      </trkpt>
      <trkpt lat="65.44689" lon="15.23958">
        <time>2020-03-08T09:31:00Z</time>
      </trkpt>
      <trkpt lat="65.44713" lon="15.24059">
        <time>2020-03-08T09:32:00Z</time>
      </trkpt>
      <trkpt lat="65.46527" lon="15.2751">
        <time>2020-03-08T10:01:00Z</time>
      </trkpt>
      <trkpt lat="65.48645" lon="15.33951">
        <time>2020-03-08T10:32:00Z</time>
      </trkpt>
      <trkpt lat="65.50389" lon="15.342">
        <time>2020-03-08T11:02:00Z</time>
      </trkpt>
      <trkpt lat="65.52599" lon="15.31945">
        <time>2020-03-08T11:32:00Z</time>
      </trkpt>
      <trkpt lat="65.54524" lon="15.31014">
        <time>2020-03-08T12:02:00Z</time>
      </trkpt>
      <trkpt lat="65.57067" lon="15.30074">
        <time>2020-03-08T12:33:00Z</time>
      </trkpt>
      <trkpt lat="65.5908" lon="15.28673">
        <time>2020-03-08T13:03:00Z</time>
      </trkpt>
      <trkpt lat="65.61539" lon="15.25291">
        <time>2020-03-08T13:33:00Z</time>
      </trkpt>
      <trkpt lat="65.63293" lon="15.22257">
        <time>2020-03-08T14:03:00Z</time>
      </trkpt>
      <trkpt lat="65.65296" lon="15.16678">
        <time>2020-03-08T14:33:00Z</time>
      </trkpt>
      <trkpt lat="65.6608" lon="15.12933">
        <time>2020-03-08T15:03:00Z</time>
      </trkpt>
      <trkpt lat="65.68058" lon="15.12236">
        <time>2020-03-08T15:33:00Z</time>
      </trkpt>
      <trkpt lat="65.70253" lon="15.10521">
        <time>2020-03-08T16:03:00Z</time>
      </trkpt>
      <trkpt lat="65.72157" lon="15.09341">
        <time>2020-03-08T16:33:00Z</time>
      </trkpt>
      <trkpt lat="65.74343" lon="15.0894">
        <time>2020-03-08T17:03:00Z</time>
      </trkpt>
      <trkpt lat="65.76011" lon="15.11605">
        <time>2020-03-08T17:33:00Z</time>
      </trkpt>
      <trkpt lat="65.78775" lon="15.1053">
        <time>2020-03-08T18:04:00Z</time>
      </trkpt>
      <trkpt lat="65.80717" lon="15.0885">
        <time>2020-03-08T18:34:00Z</time>
      </trkpt>
      <trkpt lat="65.81847" lon="15.09011">
        <time>2020-03-08T19:04:00Z</time>
      </trkpt>
      <trkpt lat="65.81753" lon="15.0909">
        <time>2020-03-10T08:53:00Z</time>
      </trkpt>
      <trkpt lat="65.81534" lon="15.11811">
        <time>2020-03-10T09:26:00Z</time>
      </trkpt>
      <trkpt lat="65.82514" lon="15.10678">
        <time>2020-03-10T09:56:00Z</time>
      </trkpt>
      <trkpt lat="65.83499" lon="15.10047">
        <time>2020-03-10T10:26:00Z</time>
      </trkpt>
    </trkseg>
  </trk>
</gpx>
