<?xml version="1.0" encoding="UTF-8"?>
<gpx xmlns="http://www.topografix.com/GPX/1/1" version="1.1" creator="VitaBandet">
  <metadata>
    <name>Klimpf→Hemavan · Emil Johansson (village)</name>
  </metadata>
  <wpt lat="65.05198" lon="14.78195">
    <name>Klimpfjäll</name>
  </wpt>
  <wpt lat="65.83805" lon="15.08972">
    <name>Hemavan</name>
  </wpt>
  <trk>
    <name>Klimpf→Hemavan · Emil Johansson (village)</name>
    <trkseg>
      <trkpt lat="65.05198" lon="14.78195">
        <time>2025-03-14T13:01:00Z</time>
      </trkpt>
      <trkpt lat="65.05364" lon="14.79238">
        <time>2025-03-14T13:11:00Z</time>
      </trkpt>
      <trkpt lat="65.05899" lon="14.80761">
        <time>2025-03-14T13:21:00Z</time>
      </trkpt>
      <trkpt lat="65.06333" lon="14.80939">
        <time>2025-03-14T13:31:00Z</time>
      </trkpt>
      <trkpt lat="65.06331" lon="14.80937">
        <time>2025-03-14T13:32:00Z</time>
      </trkpt>
      <trkpt lat="65.06331" lon="14.80939">
        <time>2025-03-15T09:41:00Z</time>
      </trkpt>
      <trkpt lat="65.06384" lon="14.82188">
        <time>2025-03-15T09:51:00Z</time>
      </trkpt>
      <trkpt lat="65.0628" lon="14.83727">
        <time>2025-03-15T10:01:00Z</time>
      </trkpt>
      <trkpt lat="65.06206" lon="14.84798">
        <time>2025-03-15T10:11:00Z</time>
      </trkpt>
      <trkpt lat="65.06103" lon="14.85903">
        <time>2025-03-15T10:21:00Z</time>
      </trkpt>
      <trkpt lat="65.05872" lon="14.8783">
        <time>2025-03-15T10:31:00Z</time>
      </trkpt>
      <trkpt lat="65.05673" lon="14.89649">
        <time>2025-03-15T10:41:00Z</time>
      </trkpt>
      <trkpt lat="65.05514" lon="14.91651">
        <time>2025-03-15T10:51:00Z</time>
      </trkpt>
      <trkpt lat="65.05456" lon="14.93898">
        <time>2025-03-15T11:01:00Z</time>
      </trkpt>
      <trkpt lat="65.05525" lon="14.95567">
        <time>2025-03-15T11:11:00Z</time>
      </trkpt>
      <trkpt lat="65.05725" lon="14.97694">
        <time>2025-03-15T11:21:00Z</time>
      </trkpt>
      <trkpt lat="65.05893" lon="15.00015">
        <time>2025-03-15T11:31:00Z</time>
      </trkpt>
      <trkpt lat="65.06002" lon="15.01981">
        <time>2025-03-15T11:41:00Z</time>
      </trkpt>
      <trkpt lat="65.06123" lon="15.0391">
        <time>2025-03-15T11:51:00Z</time>
      </trkpt>
      <trkpt lat="65.06134" lon="15.05657">
        <time>2025-03-15T12:01:00Z</time>
      </trkpt>
      <trkpt lat="65.06157" lon="15.05704">
        <time>2025-03-15T12:05:00Z</time>
      </trkpt>
      <trkpt lat="65.06156" lon="15.05714">
        <time>2025-03-15T12:24:00Z</time>
      </trkpt>
      <trkpt lat="65.06588" lon="15.05388">
        <time>2025-03-15T12:34:00Z</time>
      </trkpt>
      <trkpt lat="65.07004" lon="15.06122">
        <time>2025-03-15T12:44:00Z</time>
      </trkpt>
      <trkpt lat="65.07708" lon="15.07129">
        <time>2025-03-15T12:54:00Z</time>
      </trkpt>
      <trkpt lat="65.08223" lon="15.08598">
        <time>2025-03-15T13:04:00Z</time>
      </trkpt>
      <trkpt lat="65.09165" lon="15.09635">
        <time>2025-03-15T13:14:00Z</time>
      </trkpt>
      <trkpt lat="65.09839" lon="15.10225">
        <time>2025-03-15T13:24:00Z</time>
      </trkpt>
      <trkpt lat="65.10621" lon="15.09214">
        <time>2025-03-15T13:34:00Z</time>
      </trkpt>
      <trkpt lat="65.11258" lon="15.08214">
        <time>2025-03-15T13:44:00Z</time>
      </trkpt>
      <trkpt lat="65.1192" lon="15.07002">
        <time>2025-03-15T13:54:00Z</time>
      </trkpt>
      <trkpt lat="65.12426" lon="15.0571">
        <time>2025-03-15T14:04:00Z</time>
      </trkpt>
      <trkpt lat="65.12682" lon="15.05062">
        <time>2025-03-15T14:10:00Z</time>
      </trkpt>
      <trkpt lat="65.12676" lon="15.05043">
        <time>2025-03-15T14:36:00Z</time>
      </trkpt>
      <trkpt lat="65.13075" lon="15.04588">
        <time>2025-03-15T14:46:00Z</time>
      </trkpt>
      <trkpt lat="65.13957" lon="15.04356">
        <time>2025-03-15T14:56:00Z</time>
      </trkpt>
      <trkpt lat="65.14628" lon="15.04687">
        <time>2025-03-15T15:06:00Z</time>
      </trkpt>
      <trkpt lat="65.15197" lon="15.0509">
        <time>2025-03-15T15:16:00Z</time>
      </trkpt>
      <trkpt lat="65.15723" lon="15.06232">
        <time>2025-03-15T15:26:00Z</time>
      </trkpt>
      <trkpt lat="65.16434" lon="15.06871">
        <time>2025-03-15T15:36:00Z</time>
      </trkpt>
      <trkpt lat="65.17228" lon="15.07367">
        <time>2025-03-15T15:46:00Z</time>
      </trkpt>
      <trkpt lat="65.17712" lon="15.08266">
        <time>2025-03-15T15:56:00Z</time>
      </trkpt>
      <trkpt lat="65.18166" lon="15.08515">
        <time>2025-03-15T16:06:00Z</time>
      </trkpt>
      <trkpt lat="65.18166" lon="15.08517">
        <time>2025-03-15T16:11:00Z</time>
      </trkpt>
      <trkpt lat="65.18184" lon="15.08534">
        <time>2025-03-16T08:10:00Z</time>
      </trkpt>
      <trkpt lat="65.18476" lon="15.08581">
        <time>2025-03-16T08:20:00Z</time>
      </trkpt>
      <trkpt lat="65.18836" lon="15.08583">
        <time>2025-03-16T08:30:00Z</time>
      </trkpt>
      <trkpt lat="65.19367" lon="15.08231">
        <time>2025-03-16T08:40:00Z</time>
      </trkpt>
      <trkpt lat="65.19852" lon="15.07886">
        <time>2025-03-16T08:50:00Z</time>
      </trkpt>
      <trkpt lat="65.20368" lon="15.07296">
        <time>2025-03-16T09:00:00Z</time>
      </trkpt>
      <trkpt lat="65.21091" lon="15.07253">
        <time>2025-03-16T09:10:00Z</time>
      </trkpt>
      <trkpt lat="65.21784" lon="15.0695">
        <time>2025-03-16T09:20:00Z</time>
      </trkpt>
      <trkpt lat="65.22377" lon="15.063">
        <time>2025-03-16T09:30:00Z</time>
      </trkpt>
      <trkpt lat="65.22996" lon="15.05794">
        <time>2025-03-16T09:40:00Z</time>
      </trkpt>
      <trkpt lat="65.23481" lon="15.05541">
        <time>2025-03-16T09:50:00Z</time>
      </trkpt>
      <trkpt lat="65.23858" lon="15.05262">
        <time>2025-03-16T09:59:00Z</time>
      </trkpt>
      <trkpt lat="65.23854" lon="15.0526">
        <time>2025-03-16T10:15:00Z</time>
      </trkpt>
      <trkpt lat="65.24281" lon="15.04768">
        <time>2025-03-16T10:25:00Z</time>
      </trkpt>
      <trkpt lat="65.24938" lon="15.04251">
        <time>2025-03-16T10:35:00Z</time>
      </trkpt>
      <trkpt lat="65.25476" lon="15.03775">
        <time>2025-03-16T10:45:00Z</time>
      </trkpt>
      <trkpt lat="65.26002" lon="15.03481">
        <time>2025-03-16T10:55:00Z</time>
      </trkpt>
      <trkpt lat="65.26521" lon="15.03408">
        <time>2025-03-16T11:05:00Z</time>
      </trkpt>
      <trkpt lat="65.26994" lon="15.03378">
        <time>2025-03-16T11:15:00Z</time>
      </trkpt>
      <trkpt lat="65.27213" lon="15.0327">
        <time>2025-03-16T11:25:00Z</time>
      </trkpt>
      <trkpt lat="65.27831" lon="15.03056">
        <time>2025-03-16T11:35:00Z</time>
      </trkpt>
      <trkpt lat="65.28328" lon="15.03137">
        <time>2025-03-16T11:45:00Z</time>
      </trkpt>
      <trkpt lat="65.28815" lon="15.03307">
        <time>2025-03-16T11:55:00Z</time>
      </trkpt>
      <trkpt lat="65.29389" lon="15.03243">
        <time>2025-03-16T12:05:00Z</time>
      </trkpt>
      <trkpt lat="65.29862" lon="15.02595">
        <time>2025-03-16T12:15:00Z</time>
      </trkpt>
      <trkpt lat="65.30381" lon="15.02678">
        <time>2025-03-16T12:25:00Z</time>
      </trkpt>
      <trkpt lat="65.30381" lon="15.02678">
        <time>2025-03-16T12:53:00Z</time>
      </trkpt>
      <trkpt lat="65.30783" lon="15.03019">
        <time>2025-03-16T13:03:00Z</time>
      </trkpt>
      <trkpt lat="65.31303" lon="15.03987">
        <time>2025-03-16T13:13:00Z</time>
      </trkpt>
      <trkpt lat="65.31878" lon="15.05275">
        <time>2025-03-16T13:23:00Z</time>
      </trkpt>
      <trkpt lat="65.3234" lon="15.06092">
        <time>2025-03-16T13:33:00Z</time>
      </trkpt>
      <trkpt lat="65.3282" lon="15.06347">
        <time>2025-03-16T13:43:00Z</time>
      </trkpt>
      <trkpt lat="65.33349" lon="15.07337">
        <time>2025-03-16T13:53:00Z</time>
      </trkpt>
      <trkpt lat="65.33723" lon="15.09109">
        <time>2025-03-16T14:03:00Z</time>
      </trkpt>
      <trkpt lat="65.33996" lon="15.10229">
        <time>2025-03-16T14:12:00Z</time>
      </trkpt>
      <trkpt lat="65.33995" lon="15.10227">
        <time>2025-03-16T14:30:00Z</time>
      </trkpt>
      <trkpt lat="65.34509" lon="15.0977">
        <time>2025-03-16T14:40:00Z</time>
      </trkpt>
      <trkpt lat="65.34821" lon="15.08231">
        <time>2025-03-16T14:50:00Z</time>
      </trkpt>
      <trkpt lat="65.35078" lon="15.06622">
        <time>2025-03-16T15:00:00Z</time>
      </trkpt>
      <trkpt lat="65.35613" lon="15.05013">
        <time>2025-03-16T15:10:00Z</time>
      </trkpt>
      <trkpt lat="65.36295" lon="15.04558">
        <time>2025-03-16T15:20:00Z</time>
      </trkpt>
      <trkpt lat="65.36873" lon="15.03517">
        <time>2025-03-16T15:30:00Z</time>
      </trkpt>
      <trkpt lat="65.37654" lon="15.03084">
        <time>2025-03-16T15:40:00Z</time>
      </trkpt>
      <trkpt lat="65.38373" lon="15.02498">
        <time>2025-03-16T15:50:00Z</time>
      </trkpt>
      <trkpt lat="65.38817" lon="15.01614">
        <time>2025-03-16T16:00:00Z</time>
      </trkpt>
      <trkpt lat="65.39144" lon="15.01146">
        <time>2025-03-16T16:10:00Z</time>
      </trkpt>
      <trkpt lat="65.39568" lon="14.99472">
        <time>2025-03-16T16:20:00Z</time>
      </trkpt>
      <trkpt lat="65.40046" lon="14.97889">
        <time>2025-03-16T16:30:00Z</time>
      </trkpt>
      <trkpt lat="65.40047" lon="14.97887">
        <time>2025-03-16T16:39:00Z</time>
      </trkpt>
      <trkpt lat="65.40388" lon="14.97097">
        <time>2025-03-16T16:39:00Z</time>
      </trkpt>
      <trkpt lat="65.41329" lon="15.13604">
        <time>2025-03-17T10:18:00Z</time>
      </trkpt>
      <trkpt lat="65.41331" lon="15.13604">
        <time>2025-03-17T10:21:00Z</time>
      </trkpt>
      <trkpt lat="65.41332" lon="15.13611">
        <time>2025-03-17T10:35:00Z</time>
      </trkpt>
      <trkpt lat="65.41273" lon="15.1481">
        <time>2025-03-17T10:45:00Z</time>
      </trkpt>
      <trkpt lat="65.41377" lon="15.16381">
        <time>2025-03-17T10:55:00Z</time>
      </trkpt>
      <trkpt lat="65.41698" lon="15.1775">
        <time>2025-03-17T11:05:00Z</time>
      </trkpt>
      <trkpt lat="65.42083" lon="15.19005">
        <time>2025-03-17T11:15:00Z</time>
      </trkpt>
      <trkpt lat="65.42518" lon="15.20454">
        <time>2025-03-17T11:25:00Z</time>
      </trkpt>
      <trkpt lat="65.42936" lon="15.21831">
        <time>2025-03-17T11:35:00Z</time>
      </trkpt>
      <trkpt lat="65.43247" lon="15.22325">
        <time>2025-03-17T11:45:00Z</time>
      </trkpt>
      <trkpt lat="65.4358" lon="15.2358">
        <time>2025-03-17T11:55:00Z</time>
      </trkpt>
      <trkpt lat="65.44254" lon="15.23499">
        <time>2025-03-17T12:05:00Z</time>
      </trkpt>
      <trkpt lat="65.44955" lon="15.24728">
        <time>2025-03-17T12:15:00Z</time>
      </trkpt>
      <trkpt lat="65.4502" lon="15.24889">
        <time>2025-03-17T12:20:00Z</time>
      </trkpt>
      <trkpt lat="65.4502" lon="15.24895">
        <time>2025-03-17T12:45:00Z</time>
      </trkpt>
      <trkpt lat="65.45701" lon="15.25029">
        <time>2025-03-17T12:55:00Z</time>
      </trkpt>
      <trkpt lat="65.46192" lon="15.26627">
        <time>2025-03-17T13:05:00Z</time>
      </trkpt>
      <trkpt lat="65.46889" lon="15.28241">
        <time>2025-03-17T13:15:00Z</time>
      </trkpt>
      <trkpt lat="65.47387" lon="15.30189">
        <time>2025-03-17T13:25:00Z</time>
      </trkpt>
      <trkpt lat="65.4828" lon="15.33079">
        <time>2025-03-17T13:35:00Z</time>
      </trkpt>
      <trkpt lat="65.49052" lon="15.35618">
        <time>2025-03-17T13:45:00Z</time>
      </trkpt>
      <trkpt lat="65.4961" lon="15.34208">
        <time>2025-03-17T13:55:00Z</time>
      </trkpt>
      <trkpt lat="65.5037" lon="15.3421">
        <time>2025-03-17T14:05:00Z</time>
      </trkpt>
      <trkpt lat="65.50479" lon="15.34172">
        <time>2025-03-17T14:09:00Z</time>
      </trkpt>
      <trkpt lat="65.50475" lon="15.34185">
        <time>2025-03-17T14:24:00Z</time>
      </trkpt>
      <trkpt lat="65.50997" lon="15.33906">
        <time>2025-03-17T14:34:00Z</time>
      </trkpt>
      <trkpt lat="65.51384" lon="15.33588">
        <time>2025-03-17T14:44:00Z</time>
      </trkpt>
      <trkpt lat="65.52177" lon="15.32601">
        <time>2025-03-17T14:54:00Z</time>
      </trkpt>
      <trkpt lat="65.52926" lon="15.31762">
        <time>2025-03-17T15:04:00Z</time>
      </trkpt>
      <trkpt lat="65.53753" lon="15.32204">
        <time>2025-03-17T15:14:00Z</time>
      </trkpt>
      <trkpt lat="65.54235" lon="15.31537">
        <time>2025-03-17T15:24:00Z</time>
      </trkpt>
      <trkpt lat="65.54857" lon="15.30387">
        <time>2025-03-17T15:34:00Z</time>
      </trkpt>
      <trkpt lat="65.55381" lon="15.29861">
        <time>2025-03-17T15:44:00Z</time>
      </trkpt>
      <trkpt lat="65.5538" lon="15.29861">
        <time>2025-03-17T15:46:00Z</time>
      </trkpt>
      <trkpt lat="65.55381" lon="15.29859">
        <time>2025-03-17T15:46:00Z</time>
      </trkpt>
      <trkpt lat="65.5538" lon="15.29865">
        <time>2025-03-18T08:25:00Z</time>
      </trkpt>
      <trkpt lat="65.55855" lon="15.29691">
        <time>2025-03-18T08:35:00Z</time>
      </trkpt>
      <trkpt lat="65.55843" lon="15.28468">
        <time>2025-03-18T08:45:00Z</time>
      </trkpt>
      <trkpt lat="65.55955" lon="15.26419">
        <time>2025-03-18T08:55:00Z</time>
      </trkpt>
      <trkpt lat="65.56096" lon="15.24368">
        <time>2025-03-18T09:05:00Z</time>
      </trkpt>
      <trkpt lat="65.56082" lon="15.2205">
        <time>2025-03-18T09:15:00Z</time>
      </trkpt>
      <trkpt lat="65.56707" lon="15.2078">
        <time>2025-03-18T09:25:00Z</time>
      </trkpt>
      <trkpt lat="65.57449" lon="15.19904">
        <time>2025-03-18T09:35:00Z</time>
      </trkpt>
      <trkpt lat="65.57976" lon="15.19055">
        <time>2025-03-18T09:45:00Z</time>
      </trkpt>
      <trkpt lat="65.57977" lon="15.19044">
        <time>2025-03-18T10:03:00Z</time>
      </trkpt>
      <trkpt lat="65.58664" lon="15.19505">
        <time>2025-03-18T10:13:00Z</time>
      </trkpt>
      <trkpt lat="65.59401" lon="15.20471">
        <time>2025-03-18T10:24:00Z</time>
      </trkpt>
      <trkpt lat="65.60214" lon="15.18984">
        <time>2025-03-18T10:34:00Z</time>
      </trkpt>
      <trkpt lat="65.60925" lon="15.17319">
        <time>2025-03-18T10:44:00Z</time>
      </trkpt>
      <trkpt lat="65.61604" lon="15.16705">
        <time>2025-03-18T10:54:00Z</time>
      </trkpt>
      <trkpt lat="65.62453" lon="15.16141">
        <time>2025-03-18T11:04:00Z</time>
      </trkpt>
      <trkpt lat="65.6343" lon="15.16014">
        <time>2025-03-18T11:14:00Z</time>
      </trkpt>
      <trkpt lat="65.64169" lon="15.15059">
        <time>2025-03-18T11:24:00Z</time>
      </trkpt>
      <trkpt lat="65.64815" lon="15.13879">
        <time>2025-03-18T11:34:00Z</time>
      </trkpt>
      <trkpt lat="65.65408" lon="15.12748">
        <time>2025-03-18T11:44:00Z</time>
      </trkpt>
      <trkpt lat="65.65995" lon="15.12903">
        <time>2025-03-18T11:54:00Z</time>
      </trkpt>
      <trkpt lat="65.66508" lon="15.12997">
        <time>2025-03-18T12:04:00Z</time>
      </trkpt>
      <trkpt lat="65.67018" lon="15.13111">
        <time>2025-03-18T12:14:00Z</time>
      </trkpt>
      <trkpt lat="65.67197" lon="15.13053">
        <time>2025-03-18T12:24:00Z</time>
      </trkpt>
      <trkpt lat="65.67197" lon="15.13055">
        <time>2025-03-18T12:28:00Z</time>
      </trkpt>
      <trkpt lat="65.67198" lon="15.13064">
        <time>2025-03-18T12:55:00Z</time>
      </trkpt>
      <trkpt lat="65.67678" lon="15.12667">
        <time>2025-03-18T13:05:00Z</time>
      </trkpt>
      <trkpt lat="65.68269" lon="15.12216">
        <time>2025-03-18T13:15:00Z</time>
      </trkpt>
      <trkpt lat="65.68905" lon="15.12072">
        <time>2025-03-18T13:25:00Z</time>
      </trkpt>
      <trkpt lat="65.69337" lon="15.11025">
        <time>2025-03-18T13:35:00Z</time>
      </trkpt>
      <trkpt lat="65.69923" lon="15.10984">
        <time>2025-03-18T13:45:00Z</time>
      </trkpt>
      <trkpt lat="65.70436" lon="15.10341">
        <time>2025-03-18T13:55:00Z</time>
      </trkpt>
      <trkpt lat="65.7106" lon="15.09836">
        <time>2025-03-18T14:05:00Z</time>
      </trkpt>
      <trkpt lat="65.71566" lon="15.09349">
        <time>2025-03-18T14:15:00Z</time>
      </trkpt>
      <trkpt lat="65.72075" lon="15.09206">
        <time>2025-03-18T14:25:00Z</time>
      </trkpt>
      <trkpt lat="65.72174" lon="15.10208">
        <time>2025-03-18T14:35:00Z</time>
      </trkpt>
      <trkpt lat="65.72174" lon="15.10208">
        <time>2025-03-18T14:37:00Z</time>
      </trkpt>
      <trkpt lat="65.72172" lon="15.1021">
        <time>2025-03-19T08:42:00Z</time>
      </trkpt>
      <trkpt lat="65.72056" lon="15.10686">
        <time>2025-03-19T08:52:00Z</time>
      </trkpt>
      <trkpt lat="65.72124" lon="15.11319">
        <time>2025-03-19T09:02:00Z</time>
      </trkpt>
      <trkpt lat="65.72516" lon="15.11051">
        <time>2025-03-19T09:12:00Z</time>
      </trkpt>
      <trkpt lat="65.72907" lon="15.11193">
        <time>2025-03-19T09:22:00Z</time>
      </trkpt>
      <trkpt lat="65.73496" lon="15.113">
        <time>2025-03-19T09:32:00Z</time>
      </trkpt>
      <trkpt lat="65.73888" lon="15.12165">
        <time>2025-03-19T09:42:00Z</time>
      </trkpt>
      <trkpt lat="65.74683" lon="15.12637">
        <time>2025-03-19T09:52:00Z</time>
      </trkpt>
      <trkpt lat="65.75456" lon="15.12961">
        <time>2025-03-19T10:02:00Z</time>
      </trkpt>
      <trkpt lat="65.76094" lon="15.12639">
        <time>2025-03-19T10:12:00Z</time>
      </trkpt>
      <trkpt lat="65.76327" lon="15.12298">
        <time>2025-03-19T10:19:00Z</time>
      </trkpt>
      <trkpt lat="65.76329" lon="15.12281">
        <time>2025-03-19T10:34:00Z</time>
      </trkpt>
      <trkpt lat="65.76589" lon="15.11838">
        <time>2025-03-19T10:44:00Z</time>
      </trkpt>
      <trkpt lat="65.77128" lon="15.11308">
        <time>2025-03-19T10:54:00Z</time>
      </trkpt>
      <trkpt lat="65.77684" lon="15.10542">
        <time>2025-03-19T11:04:00Z</time>
      </trkpt>
      <trkpt lat="65.78526" lon="15.10002">
        <time>2025-03-19T11:14:00Z</time>
      </trkpt>
      <trkpt lat="65.79154" lon="15.08641">
        <time>2025-03-19T11:24:00Z</time>
      </trkpt>
      <trkpt lat="65.79648" lon="15.07118">
        <time>2025-03-19T11:34:00Z</time>
      </trkpt>
      <trkpt lat="65.80438" lon="15.07071">
        <time>2025-03-19T11:44:00Z</time>
      </trkpt>
      <trkpt lat="65.81234" lon="15.07461">
        <time>2025-03-19T11:54:00Z</time>
      </trkpt>
      <trkpt lat="65.81438" lon="15.07731">
        <time>2025-03-19T12:04:00Z</time>
      </trkpt>
      <trkpt lat="65.81757" lon="15.09094">
        <time>2025-03-21T09:16:00Z</time>
      </trkpt>
      <trkpt lat="65.81646" lon="15.09766">
        <time>2025-03-21T09:26:00Z</time>
      </trkpt>
      <trkpt lat="65.81461" lon="15.10706">
        <time>2025-03-21T09:36:00Z</time>
      </trkpt>
      <trkpt lat="65.81453" lon="15.11626">
        <time>2025-03-21T09:46:00Z</time>
      </trkpt>
      <trkpt lat="65.81801" lon="15.11918">
        <time>2025-03-21T09:56:00Z</time>
      </trkpt>
      <trkpt lat="65.82124" lon="15.11096">
        <time>2025-03-21T10:06:00Z</time>
      </trkpt>
      <trkpt lat="65.8247" lon="15.10697">
        <time>2025-03-21T10:16:00Z</time>
      </trkpt>
      <trkpt lat="65.82639" lon="15.10622">
        <time>2025-03-21T10:26:00Z</time>
      </trkpt>
      <trkpt lat="65.83073" lon="15.10343">
        <time>2025-03-21T10:36:00Z</time>
      </trkpt>
      <trkpt lat="65.83477" lon="15.10133">
        <time>2025-03-21T10:46:00Z</time>
      </trkpt>
      <trkpt lat="65.83805" lon="15.08972">
        <time>2025-03-21T10:56:00Z</time>
      </trkpt>
    </trkseg>
  </trk>
</gpx>
