<?xml version="1.0" encoding="UTF-8"?>
<gpx xmlns="http://www.topografix.com/GPX/1/1" version="1.1" creator="VitaBandet">
  <metadata>
    <name>Klimpf→Hemavan · Mårten Thelander (village)</name>
  </metadata>
  <wpt lat="65.05215" lon="14.78285">
    <name>Klimpfjäll</name>
  </wpt>
  <wpt lat="65.82923" lon="15.09828">
    <name>Hemavan</name>
  </wpt>
  <trk>
    <name>Klimpf→Hemavan · Mårten Thelander (village)</name>
    <trkseg>
      <trkpt lat="65.05215" lon="14.78285">
        <time>2026-03-08T12:45:00Z</time>
      </trkpt>
      <trkpt lat="65.05557" lon="14.79899">
        <time>2026-03-08T12:55:00Z</time>
      </trkpt>
      <trkpt lat="65.05555" lon="14.79903">
        <time>2026-03-08T13:05:00Z</time>
      </trkpt>
      <trkpt lat="65.0618" lon="14.81188">
        <time>2026-03-08T13:15:00Z</time>
      </trkpt>
      <trkpt lat="65.06332" lon="14.80965">
        <time>2026-03-08T13:25:00Z</time>
      </trkpt>
      <trkpt lat="65.06337" lon="14.80952">
        <time>2026-03-08T13:35:00Z</time>
      </trkpt>
      <trkpt lat="65.06388" lon="14.80746">
        <time>2026-03-08T13:47:00Z</time>
      </trkpt>
      <trkpt lat="65.06301" lon="14.80884">
        <time>2026-03-08T15:47:00Z</time>
      </trkpt>
      <trkpt lat="65.06303" lon="14.80899">
        <time>2026-03-08T17:25:00Z</time>
      </trkpt>
      <trkpt lat="65.06301" lon="14.80877">
        <time>2026-03-08T19:15:00Z</time>
      </trkpt>
      <trkpt lat="65.06294" lon="14.80866">
        <time>2026-03-08T20:15:00Z</time>
      </trkpt>
      <trkpt lat="65.06301" lon="14.80875">
        <time>2026-03-08T21:15:00Z</time>
      </trkpt>
      <trkpt lat="65.06296" lon="14.80886">
        <time>2026-03-08T22:15:00Z</time>
      </trkpt>
      <trkpt lat="65.06291" lon="14.80886">
        <time>2026-03-08T23:15:00Z</time>
      </trkpt>
      <trkpt lat="65.06291" lon="14.8086">
        <time>2026-03-09T01:15:00Z</time>
      </trkpt>
      <trkpt lat="65.06309" lon="14.80866">
        <time>2026-03-09T03:15:00Z</time>
      </trkpt>
      <trkpt lat="65.06295" lon="14.80886">
        <time>2026-03-09T04:28:00Z</time>
      </trkpt>
      <trkpt lat="65.06294" lon="14.8086">
        <time>2026-03-09T05:28:00Z</time>
      </trkpt>
      <trkpt lat="65.06303" lon="14.80884">
        <time>2026-03-09T07:28:00Z</time>
      </trkpt>
      <trkpt lat="65.06305" lon="14.80864">
        <time>2026-03-09T08:28:00Z</time>
      </trkpt>
      <trkpt lat="65.06163" lon="14.81268">
        <time>2026-03-09T08:38:00Z</time>
      </trkpt>
      <trkpt lat="65.05833" lon="14.82995">
        <time>2026-03-09T08:48:00Z</time>
      </trkpt>
      <trkpt lat="65.0573" lon="14.84838">
        <time>2026-03-09T08:58:00Z</time>
      </trkpt>
      <trkpt lat="65.0557" lon="14.86703">
        <time>2026-03-09T09:08:00Z</time>
      </trkpt>
      <trkpt lat="65.05538" lon="14.87072">
        <time>2026-03-09T09:18:00Z</time>
      </trkpt>
      <trkpt lat="65.05485" lon="14.87604">
        <time>2026-03-09T09:28:00Z</time>
      </trkpt>
      <trkpt lat="65.05376" lon="14.89353">
        <time>2026-03-09T09:38:00Z</time>
      </trkpt>
      <trkpt lat="65.05254" lon="14.91222">
        <time>2026-03-09T09:48:00Z</time>
      </trkpt>
      <trkpt lat="65.05301" lon="14.93123">
        <time>2026-03-09T09:58:00Z</time>
      </trkpt>
      <trkpt lat="65.05411" lon="14.94941">
        <time>2026-03-09T10:08:00Z</time>
      </trkpt>
      <trkpt lat="65.05521" lon="14.96696">
        <time>2026-03-09T10:18:00Z</time>
      </trkpt>
      <trkpt lat="65.05519" lon="14.96696">
        <time>2026-03-09T10:28:00Z</time>
      </trkpt>
      <trkpt lat="65.05549" lon="14.97234">
        <time>2026-03-09T10:38:00Z</time>
      </trkpt>
      <trkpt lat="65.0568" lon="14.99537">
        <time>2026-03-09T10:48:00Z</time>
      </trkpt>
      <trkpt lat="65.0584" lon="15.01517">
        <time>2026-03-09T10:58:00Z</time>
      </trkpt>
      <trkpt lat="65.06011" lon="15.03461">
        <time>2026-03-09T11:08:00Z</time>
      </trkpt>
      <trkpt lat="65.06003" lon="15.04948">
        <time>2026-03-09T11:18:00Z</time>
      </trkpt>
      <trkpt lat="65.06008" lon="15.05354">
        <time>2026-03-09T11:28:00Z</time>
      </trkpt>
      <trkpt lat="65.06009" lon="15.05354">
        <time>2026-03-09T11:38:00Z</time>
      </trkpt>
      <trkpt lat="65.06162" lon="15.05721">
        <time>2026-03-09T12:08:00Z</time>
      </trkpt>
      <trkpt lat="65.06435" lon="15.06279">
        <time>2026-03-09T12:18:00Z</time>
      </trkpt>
      <trkpt lat="65.06622" lon="15.06461">
        <time>2026-03-09T12:28:00Z</time>
      </trkpt>
      <trkpt lat="65.06999" lon="15.08139">
        <time>2026-03-09T12:38:00Z</time>
      </trkpt>
      <trkpt lat="65.07584" lon="15.08819">
        <time>2026-03-09T12:48:00Z</time>
      </trkpt>
      <trkpt lat="65.08303" lon="15.08961">
        <time>2026-03-09T12:58:00Z</time>
      </trkpt>
      <trkpt lat="65.0839" lon="15.08946">
        <time>2026-03-09T13:08:00Z</time>
      </trkpt>
      <trkpt lat="65.08601" lon="15.08643">
        <time>2026-03-09T13:48:00Z</time>
      </trkpt>
      <trkpt lat="65.09497" lon="15.08815">
        <time>2026-03-09T13:58:00Z</time>
      </trkpt>
      <trkpt lat="65.10154" lon="15.07929">
        <time>2026-03-09T14:08:00Z</time>
      </trkpt>
      <trkpt lat="65.10776" lon="15.07472">
        <time>2026-03-09T14:18:00Z</time>
      </trkpt>
      <trkpt lat="65.11483" lon="15.06433">
        <time>2026-03-09T14:28:00Z</time>
      </trkpt>
      <trkpt lat="65.1155" lon="15.06315">
        <time>2026-03-09T14:38:00Z</time>
      </trkpt>
      <trkpt lat="65.11719" lon="15.06066">
        <time>2026-03-09T14:48:00Z</time>
      </trkpt>
      <trkpt lat="65.12375" lon="15.04863">
        <time>2026-03-09T14:58:00Z</time>
      </trkpt>
      <trkpt lat="65.1308" lon="15.03635">
        <time>2026-03-09T15:08:00Z</time>
      </trkpt>
      <trkpt lat="65.13745" lon="15.03088">
        <time>2026-03-09T15:18:00Z</time>
      </trkpt>
      <trkpt lat="65.14417" lon="15.0374">
        <time>2026-03-09T15:28:00Z</time>
      </trkpt>
      <trkpt lat="65.14767" lon="15.04004">
        <time>2026-03-09T15:38:00Z</time>
      </trkpt>
      <trkpt lat="65.14767" lon="15.04002">
        <time>2026-03-09T15:48:00Z</time>
      </trkpt>
      <trkpt lat="65.15401" lon="15.04779">
        <time>2026-03-09T15:58:00Z</time>
      </trkpt>
      <trkpt lat="65.15747" lon="15.05805">
        <time>2026-03-09T16:08:00Z</time>
      </trkpt>
      <trkpt lat="65.1613" lon="15.0591">
        <time>2026-03-09T16:18:00Z</time>
      </trkpt>
      <trkpt lat="65.16795" lon="15.05912">
        <time>2026-03-09T16:28:00Z</time>
      </trkpt>
      <trkpt lat="65.17428" lon="15.06813">
        <time>2026-03-09T16:38:00Z</time>
      </trkpt>
      <trkpt lat="65.17712" lon="15.06995">
        <time>2026-03-09T16:48:00Z</time>
      </trkpt>
      <trkpt lat="65.18261" lon="15.07311">
        <time>2026-03-09T16:58:00Z</time>
      </trkpt>
      <trkpt lat="65.18263" lon="15.07311">
        <time>2026-03-09T17:08:00Z</time>
      </trkpt>
      <trkpt lat="65.18573" lon="15.06925">
        <time>2026-03-09T17:18:00Z</time>
      </trkpt>
      <trkpt lat="65.19315" lon="15.05912">
        <time>2026-03-09T17:28:00Z</time>
      </trkpt>
      <trkpt lat="65.20051" lon="15.04925">
        <time>2026-03-09T17:38:00Z</time>
      </trkpt>
      <trkpt lat="65.20806" lon="15.04011">
        <time>2026-03-09T17:48:00Z</time>
      </trkpt>
      <trkpt lat="65.21485" lon="15.02798">
        <time>2026-03-09T17:58:00Z</time>
      </trkpt>
      <trkpt lat="65.21666" lon="15.0241">
        <time>2026-03-09T18:08:00Z</time>
      </trkpt>
      <trkpt lat="65.21665" lon="15.02406">
        <time>2026-03-09T18:18:00Z</time>
      </trkpt>
      <trkpt lat="65.2205" lon="15.01494">
        <time>2026-03-09T18:28:00Z</time>
      </trkpt>
      <trkpt lat="65.22585" lon="15.00249">
        <time>2026-03-09T18:38:00Z</time>
      </trkpt>
      <trkpt lat="65.2298" lon="14.995">
        <time>2026-03-09T18:48:00Z</time>
      </trkpt>
      <trkpt lat="65.23566" lon="14.98526">
        <time>2026-03-09T18:58:00Z</time>
      </trkpt>
      <trkpt lat="65.23922" lon="14.97629">
        <time>2026-03-09T19:08:00Z</time>
      </trkpt>
      <trkpt lat="65.24246" lon="14.96503">
        <time>2026-03-09T19:18:00Z</time>
      </trkpt>
      <trkpt lat="65.24561" lon="14.95443">
        <time>2026-03-09T19:28:00Z</time>
      </trkpt>
      <trkpt lat="65.25074" lon="14.94142">
        <time>2026-03-09T19:38:00Z</time>
      </trkpt>
      <trkpt lat="65.25353" lon="14.93303">
        <time>2026-03-09T19:48:00Z</time>
      </trkpt>
      <trkpt lat="65.25173" lon="14.94316">
        <time>2026-03-09T19:58:00Z</time>
      </trkpt>
      <trkpt lat="65.25347" lon="14.93376">
        <time>2026-03-09T20:08:00Z</time>
      </trkpt>
      <trkpt lat="65.25328" lon="14.93213">
        <time>2026-03-09T20:18:00Z</time>
      </trkpt>
      <trkpt lat="65.25324" lon="14.93239">
        <time>2026-03-09T20:23:00Z</time>
      </trkpt>
      <trkpt lat="65.39846" lon="15.02339">
        <time>2026-03-10T18:29:00Z</time>
      </trkpt>
      <trkpt lat="65.39846" lon="15.02356">
        <time>2026-03-10T18:32:00Z</time>
      </trkpt>
      <trkpt lat="65.39849" lon="15.02339">
        <time>2026-03-11T06:40:00Z</time>
      </trkpt>
      <trkpt lat="65.3985" lon="15.02335">
        <time>2026-03-11T06:50:00Z</time>
      </trkpt>
      <trkpt lat="65.39946" lon="15.02552">
        <time>2026-03-11T07:40:00Z</time>
      </trkpt>
      <trkpt lat="65.40169" lon="15.0238">
        <time>2026-03-11T07:50:00Z</time>
      </trkpt>
      <trkpt lat="65.40327" lon="15.04219">
        <time>2026-03-11T08:00:00Z</time>
      </trkpt>
      <trkpt lat="65.40474" lon="15.05809">
        <time>2026-03-11T08:10:00Z</time>
      </trkpt>
      <trkpt lat="65.40586" lon="15.07109">
        <time>2026-03-11T08:20:00Z</time>
      </trkpt>
      <trkpt lat="65.40774" lon="15.09062">
        <time>2026-03-11T08:30:00Z</time>
      </trkpt>
      <trkpt lat="65.40773" lon="15.0906">
        <time>2026-03-11T08:40:00Z</time>
      </trkpt>
      <trkpt lat="65.40886" lon="15.10264">
        <time>2026-03-11T09:00:00Z</time>
      </trkpt>
      <trkpt lat="65.41066" lon="15.12388">
        <time>2026-03-11T09:10:00Z</time>
      </trkpt>
      <trkpt lat="65.41213" lon="15.14469">
        <time>2026-03-11T09:20:00Z</time>
      </trkpt>
      <trkpt lat="65.41503" lon="15.16366">
        <time>2026-03-11T09:30:00Z</time>
      </trkpt>
      <trkpt lat="65.41648" lon="15.17113">
        <time>2026-03-11T09:40:00Z</time>
      </trkpt>
      <trkpt lat="65.42135" lon="15.18827">
        <time>2026-03-11T09:50:00Z</time>
      </trkpt>
      <trkpt lat="65.42596" lon="15.20537">
        <time>2026-03-11T10:00:00Z</time>
      </trkpt>
      <trkpt lat="65.43171" lon="15.21887">
        <time>2026-03-11T10:10:00Z</time>
      </trkpt>
      <trkpt lat="65.43169" lon="15.21872">
        <time>2026-03-11T10:20:00Z</time>
      </trkpt>
      <trkpt lat="65.43301" lon="15.22544">
        <time>2026-03-11T11:10:00Z</time>
      </trkpt>
      <trkpt lat="65.43671" lon="15.2361">
        <time>2026-03-11T11:20:00Z</time>
      </trkpt>
      <trkpt lat="65.44514" lon="15.23649">
        <time>2026-03-11T11:30:00Z</time>
      </trkpt>
      <trkpt lat="65.45123" lon="15.25003">
        <time>2026-03-11T11:40:00Z</time>
      </trkpt>
      <trkpt lat="65.45753" lon="15.25039">
        <time>2026-03-11T11:50:00Z</time>
      </trkpt>
      <trkpt lat="65.45757" lon="15.25037">
        <time>2026-03-11T12:00:00Z</time>
      </trkpt>
      <trkpt lat="65.4593" lon="15.25526">
        <time>2026-03-11T12:10:00Z</time>
      </trkpt>
      <trkpt lat="65.46756" lon="15.27867">
        <time>2026-03-11T12:20:00Z</time>
      </trkpt>
      <trkpt lat="65.47193" lon="15.29605">
        <time>2026-03-11T12:30:00Z</time>
      </trkpt>
      <trkpt lat="65.47985" lon="15.31704">
        <time>2026-03-11T12:40:00Z</time>
      </trkpt>
      <trkpt lat="65.48249" lon="15.32794">
        <time>2026-03-11T12:50:00Z</time>
      </trkpt>
      <trkpt lat="65.48647" lon="15.34157">
        <time>2026-03-11T13:00:00Z</time>
      </trkpt>
      <trkpt lat="65.48913" lon="15.35478">
        <time>2026-03-11T13:10:00Z</time>
      </trkpt>
      <trkpt lat="65.49223" lon="15.35659">
        <time>2026-03-11T13:20:00Z</time>
      </trkpt>
      <trkpt lat="65.49222" lon="15.35661">
        <time>2026-03-11T13:30:00Z</time>
      </trkpt>
      <trkpt lat="65.4946" lon="15.3574">
        <time>2026-03-11T15:20:00Z</time>
      </trkpt>
      <trkpt lat="65.50217" lon="15.35302">
        <time>2026-03-11T15:30:00Z</time>
      </trkpt>
      <trkpt lat="65.50733" lon="15.34882">
        <time>2026-03-11T15:40:00Z</time>
      </trkpt>
      <trkpt lat="65.51238" lon="15.34736">
        <time>2026-03-11T15:50:00Z</time>
      </trkpt>
      <trkpt lat="65.51281" lon="15.34757">
        <time>2026-03-11T16:00:00Z</time>
      </trkpt>
      <trkpt lat="65.51967" lon="15.33856">
        <time>2026-03-11T16:10:00Z</time>
      </trkpt>
      <trkpt lat="65.52705" lon="15.33189">
        <time>2026-03-11T16:20:00Z</time>
      </trkpt>
      <trkpt lat="65.53158" lon="15.33247">
        <time>2026-03-11T16:30:00Z</time>
      </trkpt>
      <trkpt lat="65.53805" lon="15.33361">
        <time>2026-03-11T16:40:00Z</time>
      </trkpt>
      <trkpt lat="65.54303" lon="15.33337">
        <time>2026-03-11T16:50:00Z</time>
      </trkpt>
      <trkpt lat="65.54737" lon="15.33515">
        <time>2026-03-11T17:00:00Z</time>
      </trkpt>
      <trkpt lat="65.5478" lon="15.33622">
        <time>2026-03-11T17:10:00Z</time>
      </trkpt>
      <trkpt lat="65.54774" lon="15.33605">
        <time>2026-03-11T18:05:00Z</time>
      </trkpt>
      <trkpt lat="65.54783" lon="15.33618">
        <time>2026-03-12T07:49:00Z</time>
      </trkpt>
      <trkpt lat="65.5494" lon="15.33755">
        <time>2026-03-12T07:59:00Z</time>
      </trkpt>
      <trkpt lat="65.55589" lon="15.34564">
        <time>2026-03-12T08:09:00Z</time>
      </trkpt>
      <trkpt lat="65.55887" lon="15.34221">
        <time>2026-03-12T08:19:00Z</time>
      </trkpt>
      <trkpt lat="65.5646" lon="15.33657">
        <time>2026-03-12T08:29:00Z</time>
      </trkpt>
      <trkpt lat="65.56981" lon="15.3261">
        <time>2026-03-12T08:39:00Z</time>
      </trkpt>
      <trkpt lat="65.57424" lon="15.31232">
        <time>2026-03-12T08:49:00Z</time>
      </trkpt>
      <trkpt lat="65.57736" lon="15.30129">
        <time>2026-03-12T08:59:00Z</time>
      </trkpt>
      <trkpt lat="65.57741" lon="15.30138">
        <time>2026-03-12T09:09:00Z</time>
      </trkpt>
      <trkpt lat="65.58217" lon="15.29769">
        <time>2026-03-12T09:19:00Z</time>
      </trkpt>
      <trkpt lat="65.58785" lon="15.28865">
        <time>2026-03-12T09:29:00Z</time>
      </trkpt>
      <trkpt lat="65.59356" lon="15.2852">
        <time>2026-03-12T09:39:00Z</time>
      </trkpt>
      <trkpt lat="65.59719" lon="15.28243">
        <time>2026-03-12T09:49:00Z</time>
      </trkpt>
      <trkpt lat="65.60131" lon="15.27655">
        <time>2026-03-12T09:59:00Z</time>
      </trkpt>
      <trkpt lat="65.60185" lon="15.27028">
        <time>2026-03-12T10:09:00Z</time>
      </trkpt>
      <trkpt lat="65.60137" lon="15.27627">
        <time>2026-03-12T10:19:00Z</time>
      </trkpt>
      <trkpt lat="65.60184" lon="15.26784">
        <time>2026-03-12T10:29:00Z</time>
      </trkpt>
      <trkpt lat="65.60568" lon="15.2564">
        <time>2026-03-12T10:39:00Z</time>
      </trkpt>
      <trkpt lat="65.61199" lon="15.24376">
        <time>2026-03-12T10:49:00Z</time>
      </trkpt>
      <trkpt lat="65.61905" lon="15.23393">
        <time>2026-03-12T10:59:00Z</time>
      </trkpt>
      <trkpt lat="65.62373" lon="15.22739">
        <time>2026-03-12T11:09:00Z</time>
      </trkpt>
      <trkpt lat="65.62861" lon="15.21851">
        <time>2026-03-12T11:19:00Z</time>
      </trkpt>
      <trkpt lat="65.6286" lon="15.21853">
        <time>2026-03-12T11:29:00Z</time>
      </trkpt>
      <trkpt lat="65.63231" lon="15.21149">
        <time>2026-03-12T11:59:00Z</time>
      </trkpt>
      <trkpt lat="65.6383" lon="15.19982">
        <time>2026-03-12T12:09:00Z</time>
      </trkpt>
      <trkpt lat="65.64371" lon="15.1845">
        <time>2026-03-12T12:19:00Z</time>
      </trkpt>
      <trkpt lat="65.64833" lon="15.17332">
        <time>2026-03-12T12:29:00Z</time>
      </trkpt>
      <trkpt lat="65.65378" lon="15.15808">
        <time>2026-03-12T12:39:00Z</time>
      </trkpt>
      <trkpt lat="65.6564" lon="15.15076">
        <time>2026-03-12T12:49:00Z</time>
      </trkpt>
      <trkpt lat="65.65816" lon="15.14263">
        <time>2026-03-12T12:59:00Z</time>
      </trkpt>
      <trkpt lat="65.65813" lon="15.14246">
        <time>2026-03-12T13:09:00Z</time>
      </trkpt>
      <trkpt lat="65.65893" lon="15.14132">
        <time>2026-03-12T13:49:00Z</time>
      </trkpt>
      <trkpt lat="65.65907" lon="15.13461">
        <time>2026-03-12T13:59:00Z</time>
      </trkpt>
      <trkpt lat="65.65926" lon="15.13201">
        <time>2026-03-12T14:09:00Z</time>
      </trkpt>
      <trkpt lat="65.66073" lon="15.12939">
        <time>2026-03-12T14:19:00Z</time>
      </trkpt>
      <trkpt lat="65.66545" lon="15.12995">
        <time>2026-03-12T14:29:00Z</time>
      </trkpt>
      <trkpt lat="65.67114" lon="15.13102">
        <time>2026-03-12T14:39:00Z</time>
      </trkpt>
      <trkpt lat="65.67512" lon="15.1283">
        <time>2026-03-12T14:49:00Z</time>
      </trkpt>
      <trkpt lat="65.67814" lon="15.12514">
        <time>2026-03-12T14:59:00Z</time>
      </trkpt>
      <trkpt lat="65.68296" lon="15.1224">
        <time>2026-03-12T15:09:00Z</time>
      </trkpt>
      <trkpt lat="65.68799" lon="15.1218">
        <time>2026-03-12T15:19:00Z</time>
      </trkpt>
      <trkpt lat="65.69044" lon="15.1186">
        <time>2026-03-12T15:29:00Z</time>
      </trkpt>
      <trkpt lat="65.69286" lon="15.11077">
        <time>2026-03-12T15:39:00Z</time>
      </trkpt>
      <trkpt lat="65.69668" lon="15.11098">
        <time>2026-03-12T15:49:00Z</time>
      </trkpt>
      <trkpt lat="65.69668" lon="15.1109">
        <time>2026-03-12T15:59:00Z</time>
      </trkpt>
      <trkpt lat="65.69907" lon="15.1101">
        <time>2026-03-12T16:09:00Z</time>
      </trkpt>
      <trkpt lat="65.70273" lon="15.1053">
        <time>2026-03-12T16:19:00Z</time>
      </trkpt>
      <trkpt lat="65.70829" lon="15.09903">
        <time>2026-03-12T16:29:00Z</time>
      </trkpt>
      <trkpt lat="65.71353" lon="15.09377">
        <time>2026-03-12T16:39:00Z</time>
      </trkpt>
      <trkpt lat="65.71734" lon="15.09103">
        <time>2026-03-12T16:49:00Z</time>
      </trkpt>
      <trkpt lat="65.72136" lon="15.09347">
        <time>2026-03-12T16:59:00Z</time>
      </trkpt>
      <trkpt lat="65.72037" lon="15.09937">
        <time>2026-03-12T17:09:00Z</time>
      </trkpt>
      <trkpt lat="65.72038" lon="15.09927">
        <time>2026-03-12T17:19:00Z</time>
      </trkpt>
      <trkpt lat="65.72033" lon="15.09909">
        <time>2026-03-12T17:57:00Z</time>
      </trkpt>
      <trkpt lat="65.72093" lon="15.11019">
        <time>2026-03-13T08:07:00Z</time>
      </trkpt>
      <trkpt lat="65.72458" lon="15.11111">
        <time>2026-03-13T08:17:00Z</time>
      </trkpt>
      <trkpt lat="65.72871" lon="15.10957">
        <time>2026-03-13T08:27:00Z</time>
      </trkpt>
      <trkpt lat="65.7351" lon="15.11356">
        <time>2026-03-13T08:37:00Z</time>
      </trkpt>
      <trkpt lat="65.73705" lon="15.11553">
        <time>2026-03-13T08:47:00Z</time>
      </trkpt>
      <trkpt lat="65.73705" lon="15.11538">
        <time>2026-03-13T08:57:00Z</time>
      </trkpt>
      <trkpt lat="65.74252" lon="15.12287">
        <time>2026-03-13T09:07:00Z</time>
      </trkpt>
      <trkpt lat="65.75116" lon="15.12832">
        <time>2026-03-13T09:17:00Z</time>
      </trkpt>
      <trkpt lat="65.75767" lon="15.13008">
        <time>2026-03-13T09:27:00Z</time>
      </trkpt>
      <trkpt lat="65.75775" lon="15.13032">
        <time>2026-03-13T09:37:00Z</time>
      </trkpt>
      <trkpt lat="65.76197" lon="15.12514">
        <time>2026-03-13T09:57:00Z</time>
      </trkpt>
      <trkpt lat="65.76703" lon="15.11678">
        <time>2026-03-13T10:07:00Z</time>
      </trkpt>
      <trkpt lat="65.77199" lon="15.11205">
        <time>2026-03-13T10:17:00Z</time>
      </trkpt>
      <trkpt lat="65.77658" lon="15.10708">
        <time>2026-03-13T10:27:00Z</time>
      </trkpt>
      <trkpt lat="65.77701" lon="15.10476">
        <time>2026-03-13T10:37:00Z</time>
      </trkpt>
      <trkpt lat="65.77698" lon="15.10489">
        <time>2026-03-13T10:47:00Z</time>
      </trkpt>
      <trkpt lat="65.78303" lon="15.10148">
        <time>2026-03-13T11:57:00Z</time>
      </trkpt>
      <trkpt lat="65.78938" lon="15.09388">
        <time>2026-03-13T12:07:00Z</time>
      </trkpt>
      <trkpt lat="65.79265" lon="15.08259">
        <time>2026-03-13T12:17:00Z</time>
      </trkpt>
      <trkpt lat="65.7983" lon="15.07141">
        <time>2026-03-13T12:27:00Z</time>
      </trkpt>
      <trkpt lat="65.8013" lon="15.07399">
        <time>2026-03-13T12:37:00Z</time>
      </trkpt>
      <trkpt lat="65.80899" lon="15.07468">
        <time>2026-03-13T12:47:00Z</time>
      </trkpt>
      <trkpt lat="65.8143" lon="15.07729">
        <time>2026-03-13T12:57:00Z</time>
      </trkpt>
      <trkpt lat="65.81514" lon="15.08652">
        <time>2026-03-13T13:07:00Z</time>
      </trkpt>
      <trkpt lat="65.8153" lon="15.08706">
        <time>2026-03-13T13:17:00Z</time>
      </trkpt>
      <trkpt lat="65.8153" lon="15.08654">
        <time>2026-03-13T13:42:00Z</time>
      </trkpt>
      <trkpt lat="65.81484" lon="15.09847">
        <time>2026-03-15T08:25:00Z</time>
      </trkpt>
      <trkpt lat="65.8149" lon="15.09832">
        <time>2026-03-15T08:35:00Z</time>
      </trkpt>
      <trkpt lat="65.81605" lon="15.09961">
        <time>2026-03-15T08:45:00Z</time>
      </trkpt>
      <trkpt lat="65.81464" lon="15.10703">
        <time>2026-03-15T08:55:00Z</time>
      </trkpt>
      <trkpt lat="65.8146" lon="15.11512">
        <time>2026-03-15T09:05:00Z</time>
      </trkpt>
      <trkpt lat="65.81742" lon="15.12019">
        <time>2026-03-15T09:15:00Z</time>
      </trkpt>
      <trkpt lat="65.81924" lon="15.11592">
        <time>2026-03-15T09:25:00Z</time>
      </trkpt>
      <trkpt lat="65.82293" lon="15.10778">
        <time>2026-03-15T09:35:00Z</time>
      </trkpt>
      <trkpt lat="65.82791" lon="15.10405">
        <time>2026-03-15T09:45:00Z</time>
      </trkpt>
      <trkpt lat="65.82923" lon="15.09828">
        <time>2026-03-15T09:55:00Z</time>
      </trkpt>
    </trkseg>
  </trk>
</gpx>
