<?xml version="1.0" encoding="UTF-8"?>
<gpx xmlns="http://www.topografix.com/GPX/1/1" version="1.1" creator="VitaBandet">
  <metadata>
    <name>Klimpf→Hemavan · Noah Lund Bovin (west-skip)</name>
  </metadata>
  <wpt lat="65.05159" lon="14.77495">
    <name>Klimpfjäll</name>
  </wpt>
  <wpt lat="65.85153" lon="15.32919">
    <name>Hemavan</name>
  </wpt>
  <trk>
    <name>Klimpf→Hemavan · Noah Lund Bovin (west-skip)</name>
    <trkseg>
      <trkpt lat="65.05159" lon="14.77495">
        <time>2026-03-19T13:13:00Z</time>
      </trkpt>
      <trkpt lat="65.05374" lon="14.79146">
        <time>2026-03-19T13:23:00Z</time>
      </trkpt>
      <trkpt lat="65.0576" lon="14.80403">
        <time>2026-03-19T13:33:00Z</time>
      </trkpt>
      <trkpt lat="65.06263" lon="14.81231">
        <time>2026-03-19T13:43:00Z</time>
      </trkpt>
      <trkpt lat="65.06337" lon="14.80914">
        <time>2026-03-19T13:49:00Z</time>
      </trkpt>
      <trkpt lat="65.06331" lon="14.80871">
        <time>2026-03-21T08:54:00Z</time>
      </trkpt>
      <trkpt lat="65.06307" lon="14.81598">
        <time>2026-03-21T09:04:00Z</time>
      </trkpt>
      <trkpt lat="65.06294" lon="14.82489">
        <time>2026-03-21T09:14:00Z</time>
      </trkpt>
      <trkpt lat="65.06048" lon="14.83989">
        <time>2026-03-21T09:24:00Z</time>
      </trkpt>
      <trkpt lat="65.05905" lon="14.85952">
        <time>2026-03-21T09:34:00Z</time>
      </trkpt>
      <trkpt lat="65.05749" lon="14.87913">
        <time>2026-03-21T09:44:00Z</time>
      </trkpt>
      <trkpt lat="65.05563" lon="14.89971">
        <time>2026-03-21T09:54:00Z</time>
      </trkpt>
      <trkpt lat="65.05459" lon="14.91419">
        <time>2026-03-21T10:04:00Z</time>
      </trkpt>
      <trkpt lat="65.05422" lon="14.93366">
        <time>2026-03-21T10:14:00Z</time>
      </trkpt>
      <trkpt lat="65.05496" lon="14.95374">
        <time>2026-03-21T10:24:00Z</time>
      </trkpt>
      <trkpt lat="65.05647" lon="14.97046">
        <time>2026-03-21T10:34:00Z</time>
      </trkpt>
      <trkpt lat="65.05762" lon="14.98503">
        <time>2026-03-21T10:44:00Z</time>
      </trkpt>
      <trkpt lat="65.0587" lon="15.00361">
        <time>2026-03-21T10:54:00Z</time>
      </trkpt>
      <trkpt lat="65.05979" lon="15.02125">
        <time>2026-03-21T11:04:00Z</time>
      </trkpt>
      <trkpt lat="65.06132" lon="15.03996">
        <time>2026-03-21T11:14:00Z</time>
      </trkpt>
      <trkpt lat="65.06134" lon="15.05691">
        <time>2026-03-21T11:24:00Z</time>
      </trkpt>
      <trkpt lat="65.06339" lon="15.05978">
        <time>2026-03-21T11:34:00Z</time>
      </trkpt>
      <trkpt lat="65.06592" lon="15.06822">
        <time>2026-03-21T11:44:00Z</time>
      </trkpt>
      <trkpt lat="65.06997" lon="15.08124">
        <time>2026-03-21T11:54:00Z</time>
      </trkpt>
      <trkpt lat="65.07394" lon="15.08043">
        <time>2026-03-21T12:04:00Z</time>
      </trkpt>
      <trkpt lat="65.07829" lon="15.08895">
        <time>2026-03-21T12:14:00Z</time>
      </trkpt>
      <trkpt lat="65.08437" lon="15.08871">
        <time>2026-03-21T12:24:00Z</time>
      </trkpt>
      <trkpt lat="65.08955" lon="15.08882">
        <time>2026-03-21T12:34:00Z</time>
      </trkpt>
      <trkpt lat="65.09659" lon="15.08637">
        <time>2026-03-21T12:44:00Z</time>
      </trkpt>
      <trkpt lat="65.10326" lon="15.08216">
        <time>2026-03-21T12:54:00Z</time>
      </trkpt>
      <trkpt lat="65.10747" lon="15.07373">
        <time>2026-03-21T13:04:00Z</time>
      </trkpt>
      <trkpt lat="65.11268" lon="15.06468">
        <time>2026-03-21T13:14:00Z</time>
      </trkpt>
      <trkpt lat="65.11639" lon="15.05202">
        <time>2026-03-21T13:24:00Z</time>
      </trkpt>
      <trkpt lat="65.11896" lon="15.04206">
        <time>2026-03-21T13:34:00Z</time>
      </trkpt>
      <trkpt lat="65.12323" lon="15.03466">
        <time>2026-03-21T13:44:00Z</time>
      </trkpt>
      <trkpt lat="65.13056" lon="15.03303">
        <time>2026-03-21T13:54:00Z</time>
      </trkpt>
      <trkpt lat="65.1373" lon="15.0285">
        <time>2026-03-21T14:04:00Z</time>
      </trkpt>
      <trkpt lat="65.14255" lon="15.03388">
        <time>2026-03-21T14:14:00Z</time>
      </trkpt>
      <trkpt lat="65.14655" lon="15.03998">
        <time>2026-03-21T14:24:00Z</time>
      </trkpt>
      <trkpt lat="65.15023" lon="15.04277">
        <time>2026-03-21T14:34:00Z</time>
      </trkpt>
      <trkpt lat="65.15411" lon="15.04794">
        <time>2026-03-21T14:44:00Z</time>
      </trkpt>
      <trkpt lat="65.15789" lon="15.05787">
        <time>2026-03-21T14:54:00Z</time>
      </trkpt>
      <trkpt lat="65.16337" lon="15.06032">
        <time>2026-03-21T15:04:00Z</time>
      </trkpt>
      <trkpt lat="65.16758" lon="15.05912">
        <time>2026-03-21T15:14:00Z</time>
      </trkpt>
      <trkpt lat="65.17323" lon="15.06429">
        <time>2026-03-21T15:24:00Z</time>
      </trkpt>
      <trkpt lat="65.17578" lon="15.06841">
        <time>2026-03-21T15:34:00Z</time>
      </trkpt>
      <trkpt lat="65.18073" lon="15.0751">
        <time>2026-03-21T15:44:00Z</time>
      </trkpt>
      <trkpt lat="65.18706" lon="15.07053">
        <time>2026-03-21T15:54:00Z</time>
      </trkpt>
      <trkpt lat="65.18907" lon="15.06893">
        <time>2026-03-21T16:04:00Z</time>
      </trkpt>
      <trkpt lat="65.19627" lon="15.06328">
        <time>2026-03-21T16:14:00Z</time>
      </trkpt>
      <trkpt lat="65.20316" lon="15.0577">
        <time>2026-03-21T16:24:00Z</time>
      </trkpt>
      <trkpt lat="65.21064" lon="15.05174">
        <time>2026-03-21T16:34:00Z</time>
      </trkpt>
      <trkpt lat="65.21686" lon="15.04689">
        <time>2026-03-21T16:44:00Z</time>
      </trkpt>
      <trkpt lat="65.22383" lon="15.04112">
        <time>2026-03-21T16:54:00Z</time>
      </trkpt>
      <trkpt lat="65.23072" lon="15.03601">
        <time>2026-03-21T17:04:00Z</time>
      </trkpt>
      <trkpt lat="65.2374" lon="15.03125">
        <time>2026-03-21T17:14:00Z</time>
      </trkpt>
      <trkpt lat="65.24309" lon="15.02706">
        <time>2026-03-21T17:24:00Z</time>
      </trkpt>
      <trkpt lat="65.24989" lon="15.02213">
        <time>2026-03-21T17:34:00Z</time>
      </trkpt>
      <trkpt lat="65.2551" lon="15.02408">
        <time>2026-03-21T17:44:00Z</time>
      </trkpt>
      <trkpt lat="65.25671" lon="15.02798">
        <time>2026-03-21T17:54:00Z</time>
      </trkpt>
      <trkpt lat="65.25663" lon="15.02796">
        <time>2026-03-21T17:59:00Z</time>
      </trkpt>
      <trkpt lat="65.25777" lon="15.03043">
        <time>2026-03-22T07:49:00Z</time>
      </trkpt>
      <trkpt lat="65.26352" lon="15.02283">
        <time>2026-03-22T07:59:00Z</time>
      </trkpt>
      <trkpt lat="65.27007" lon="15.02084">
        <time>2026-03-22T08:09:00Z</time>
      </trkpt>
      <trkpt lat="65.27644" lon="15.01929">
        <time>2026-03-22T08:19:00Z</time>
      </trkpt>
      <trkpt lat="65.28125" lon="15.0235">
        <time>2026-03-22T08:29:00Z</time>
      </trkpt>
      <trkpt lat="65.2843" lon="15.0235">
        <time>2026-03-22T08:39:00Z</time>
      </trkpt>
      <trkpt lat="65.2912" lon="15.02161">
        <time>2026-03-22T08:49:00Z</time>
      </trkpt>
      <trkpt lat="65.29731" lon="15.02449">
        <time>2026-03-22T08:59:00Z</time>
      </trkpt>
      <trkpt lat="65.29876" lon="15.02547">
        <time>2026-03-22T09:09:00Z</time>
      </trkpt>
      <trkpt lat="65.30377" lon="15.02676">
        <time>2026-03-22T09:19:00Z</time>
      </trkpt>
      <trkpt lat="65.30761" lon="15.02981">
        <time>2026-03-22T09:29:00Z</time>
      </trkpt>
      <trkpt lat="65.31132" lon="15.0371">
        <time>2026-03-22T09:39:00Z</time>
      </trkpt>
      <trkpt lat="65.31621" lon="15.04442">
        <time>2026-03-22T09:49:00Z</time>
      </trkpt>
      <trkpt lat="65.32055" lon="15.05607">
        <time>2026-03-22T09:59:00Z</time>
      </trkpt>
      <trkpt lat="65.32347" lon="15.06073">
        <time>2026-03-22T10:09:00Z</time>
      </trkpt>
      <trkpt lat="65.32749" lon="15.06553">
        <time>2026-03-22T10:19:00Z</time>
      </trkpt>
      <trkpt lat="65.33133" lon="15.07156">
        <time>2026-03-22T10:29:00Z</time>
      </trkpt>
      <trkpt lat="65.33323" lon="15.08191">
        <time>2026-03-22T10:39:00Z</time>
      </trkpt>
      <trkpt lat="65.33408" lon="15.09085">
        <time>2026-03-22T10:49:00Z</time>
      </trkpt>
      <trkpt lat="65.33638" lon="15.09725">
        <time>2026-03-22T10:59:00Z</time>
      </trkpt>
      <trkpt lat="65.3386" lon="15.1006">
        <time>2026-03-22T11:09:00Z</time>
      </trkpt>
      <trkpt lat="65.34081" lon="15.10251">
        <time>2026-03-22T11:19:00Z</time>
      </trkpt>
      <trkpt lat="65.34177" lon="15.10847">
        <time>2026-03-22T11:29:00Z</time>
      </trkpt>
      <trkpt lat="65.34594" lon="15.1071">
        <time>2026-03-22T11:39:00Z</time>
      </trkpt>
      <trkpt lat="65.3514" lon="15.10049">
        <time>2026-03-22T11:49:00Z</time>
      </trkpt>
      <trkpt lat="65.35613" lon="15.09701">
        <time>2026-03-22T11:59:00Z</time>
      </trkpt>
      <trkpt lat="65.36027" lon="15.09562">
        <time>2026-03-22T12:09:00Z</time>
      </trkpt>
      <trkpt lat="65.36259" lon="15.09695">
        <time>2026-03-22T12:19:00Z</time>
      </trkpt>
      <trkpt lat="65.36537" lon="15.106">
        <time>2026-03-22T12:29:00Z</time>
      </trkpt>
      <trkpt lat="65.36552" lon="15.11881">
        <time>2026-03-22T12:39:00Z</time>
      </trkpt>
      <trkpt lat="65.36695" lon="15.1298">
        <time>2026-03-22T12:49:00Z</time>
      </trkpt>
      <trkpt lat="65.36842" lon="15.14321">
        <time>2026-03-22T12:59:00Z</time>
      </trkpt>
      <trkpt lat="65.37083" lon="15.14832">
        <time>2026-03-22T13:09:00Z</time>
      </trkpt>
      <trkpt lat="65.37242" lon="15.14735">
        <time>2026-03-22T13:19:00Z</time>
      </trkpt>
      <trkpt lat="65.37603" lon="15.13789">
        <time>2026-03-22T13:29:00Z</time>
      </trkpt>
      <trkpt lat="65.38035" lon="15.13306">
        <time>2026-03-22T13:39:00Z</time>
      </trkpt>
      <trkpt lat="65.38518" lon="15.1351">
        <time>2026-03-22T13:49:00Z</time>
      </trkpt>
      <trkpt lat="65.38724" lon="15.13677">
        <time>2026-03-22T13:59:00Z</time>
      </trkpt>
      <trkpt lat="65.38923" lon="15.13587">
        <time>2026-03-22T14:09:00Z</time>
      </trkpt>
      <trkpt lat="65.39004" lon="15.13463">
        <time>2026-03-22T14:19:00Z</time>
      </trkpt>
      <trkpt lat="65.39153" lon="15.13383">
        <time>2026-03-22T14:29:00Z</time>
      </trkpt>
      <trkpt lat="65.39283" lon="15.13317">
        <time>2026-03-22T14:39:00Z</time>
      </trkpt>
      <trkpt lat="65.39448" lon="15.14177">
        <time>2026-03-22T14:49:00Z</time>
      </trkpt>
      <trkpt lat="65.39871" lon="15.14677">
        <time>2026-03-22T14:59:00Z</time>
      </trkpt>
      <trkpt lat="65.40415" lon="15.1524">
        <time>2026-03-22T15:09:00Z</time>
      </trkpt>
      <trkpt lat="65.40719" lon="15.15742">
        <time>2026-03-22T15:19:00Z</time>
      </trkpt>
      <trkpt lat="65.41165" lon="15.1587">
        <time>2026-03-22T15:29:00Z</time>
      </trkpt>
      <trkpt lat="65.41505" lon="15.16892">
        <time>2026-03-22T15:39:00Z</time>
      </trkpt>
      <trkpt lat="65.41918" lon="15.18304">
        <time>2026-03-22T15:49:00Z</time>
      </trkpt>
      <trkpt lat="65.42371" lon="15.19804">
        <time>2026-03-22T15:59:00Z</time>
      </trkpt>
      <trkpt lat="65.4276" lon="15.21093">
        <time>2026-03-22T16:09:00Z</time>
      </trkpt>
      <trkpt lat="65.43158" lon="15.21971">
        <time>2026-03-22T16:19:00Z</time>
      </trkpt>
      <trkpt lat="65.4323" lon="15.22254">
        <time>2026-03-22T16:29:00Z</time>
      </trkpt>
      <trkpt lat="65.43351" lon="15.22552">
        <time>2026-03-22T16:39:00Z</time>
      </trkpt>
      <trkpt lat="65.43388" lon="15.23052">
        <time>2026-03-22T16:49:00Z</time>
      </trkpt>
      <trkpt lat="65.43424" lon="15.23434">
        <time>2026-03-22T16:59:00Z</time>
      </trkpt>
      <trkpt lat="65.43544" lon="15.23638">
        <time>2026-03-22T17:04:00Z</time>
      </trkpt>
      <trkpt lat="65.43542" lon="15.23636">
        <time>2026-03-23T08:07:00Z</time>
      </trkpt>
      <trkpt lat="65.43638" lon="15.23599">
        <time>2026-03-23T08:17:00Z</time>
      </trkpt>
      <trkpt lat="65.44528" lon="15.23655">
        <time>2026-03-23T08:27:00Z</time>
      </trkpt>
      <trkpt lat="65.45166" lon="15.25007">
        <time>2026-03-23T08:37:00Z</time>
      </trkpt>
      <trkpt lat="65.45874" lon="15.25299">
        <time>2026-03-23T08:47:00Z</time>
      </trkpt>
      <trkpt lat="65.46343" lon="15.27041">
        <time>2026-03-23T08:57:00Z</time>
      </trkpt>
      <trkpt lat="65.46993" lon="15.28597">
        <time>2026-03-23T09:07:00Z</time>
      </trkpt>
      <trkpt lat="65.47498" lon="15.3052">
        <time>2026-03-23T09:17:00Z</time>
      </trkpt>
      <trkpt lat="65.47997" lon="15.31717">
        <time>2026-03-23T09:27:00Z</time>
      </trkpt>
      <trkpt lat="65.48282" lon="15.33084">
        <time>2026-03-23T09:37:00Z</time>
      </trkpt>
      <trkpt lat="65.48656" lon="15.34236">
        <time>2026-03-23T09:47:00Z</time>
      </trkpt>
      <trkpt lat="65.49" lon="15.35586">
        <time>2026-03-23T09:57:00Z</time>
      </trkpt>
      <trkpt lat="65.49169" lon="15.35579">
        <time>2026-03-23T10:07:00Z</time>
      </trkpt>
      <trkpt lat="65.49474" lon="15.35122">
        <time>2026-03-23T10:17:00Z</time>
      </trkpt>
      <trkpt lat="65.49747" lon="15.34721">
        <time>2026-03-23T10:27:00Z</time>
      </trkpt>
      <trkpt lat="65.50457" lon="15.34614">
        <time>2026-03-23T10:37:00Z</time>
      </trkpt>
      <trkpt lat="65.51066" lon="15.34571">
        <time>2026-03-23T10:47:00Z</time>
      </trkpt>
      <trkpt lat="65.51523" lon="15.34367">
        <time>2026-03-23T10:57:00Z</time>
      </trkpt>
      <trkpt lat="65.52236" lon="15.33685">
        <time>2026-03-23T11:07:00Z</time>
      </trkpt>
      <trkpt lat="65.52769" lon="15.3318">
        <time>2026-03-23T11:17:00Z</time>
      </trkpt>
      <trkpt lat="65.53591" lon="15.33264">
        <time>2026-03-23T11:27:00Z</time>
      </trkpt>
      <trkpt lat="65.54334" lon="15.33253">
        <time>2026-03-23T11:37:00Z</time>
      </trkpt>
      <trkpt lat="65.5501" lon="15.33818">
        <time>2026-03-23T11:47:00Z</time>
      </trkpt>
      <trkpt lat="65.55513" lon="15.34519">
        <time>2026-03-23T11:57:00Z</time>
      </trkpt>
      <trkpt lat="65.55617" lon="15.34659">
        <time>2026-03-23T12:07:00Z</time>
      </trkpt>
      <trkpt lat="65.55811" lon="15.34905">
        <time>2026-03-23T12:17:00Z</time>
      </trkpt>
      <trkpt lat="65.56052" lon="15.35041">
        <time>2026-03-23T12:27:00Z</time>
      </trkpt>
      <trkpt lat="65.56423" lon="15.35659">
        <time>2026-03-23T12:37:00Z</time>
      </trkpt>
      <trkpt lat="65.56607" lon="15.36047">
        <time>2026-03-23T12:47:00Z</time>
      </trkpt>
      <trkpt lat="65.5693" lon="15.36182">
        <time>2026-03-23T12:57:00Z</time>
      </trkpt>
      <trkpt lat="65.57235" lon="15.36133">
        <time>2026-03-23T13:07:00Z</time>
      </trkpt>
      <trkpt lat="65.57525" lon="15.35948">
        <time>2026-03-23T13:17:00Z</time>
      </trkpt>
      <trkpt lat="65.57946" lon="15.36058">
        <time>2026-03-23T13:27:00Z</time>
      </trkpt>
      <trkpt lat="65.58369" lon="15.36594">
        <time>2026-03-23T13:37:00Z</time>
      </trkpt>
      <trkpt lat="65.58807" lon="15.36556">
        <time>2026-03-23T13:47:00Z</time>
      </trkpt>
      <trkpt lat="65.59223" lon="15.36564">
        <time>2026-03-23T13:57:00Z</time>
      </trkpt>
      <trkpt lat="65.59719" lon="15.36822">
        <time>2026-03-23T14:07:00Z</time>
      </trkpt>
      <trkpt lat="65.6026" lon="15.36877">
        <time>2026-03-23T14:17:00Z</time>
      </trkpt>
      <trkpt lat="65.6043" lon="15.36345">
        <time>2026-03-23T14:27:00Z</time>
      </trkpt>
      <trkpt lat="65.60772" lon="15.35985">
        <time>2026-03-23T14:37:00Z</time>
      </trkpt>
      <trkpt lat="65.61363" lon="15.36146">
        <time>2026-03-23T14:47:00Z</time>
      </trkpt>
      <trkpt lat="65.62059" lon="15.36487">
        <time>2026-03-23T14:57:00Z</time>
      </trkpt>
      <trkpt lat="65.62633" lon="15.36498">
        <time>2026-03-23T15:07:00Z</time>
      </trkpt>
      <trkpt lat="65.6304" lon="15.35708">
        <time>2026-03-23T15:17:00Z</time>
      </trkpt>
      <trkpt lat="65.63279" lon="15.34337">
        <time>2026-03-23T15:27:00Z</time>
      </trkpt>
      <trkpt lat="65.6357" lon="15.3329">
        <time>2026-03-23T15:37:00Z</time>
      </trkpt>
      <trkpt lat="65.63544" lon="15.31678">
        <time>2026-03-23T15:47:00Z</time>
      </trkpt>
      <trkpt lat="65.64069" lon="15.3165">
        <time>2026-03-23T15:57:00Z</time>
      </trkpt>
      <trkpt lat="65.64585" lon="15.3167">
        <time>2026-03-23T16:07:00Z</time>
      </trkpt>
      <trkpt lat="65.65078" lon="15.30505">
        <time>2026-03-23T16:17:00Z</time>
      </trkpt>
      <trkpt lat="65.65461" lon="15.29365">
        <time>2026-03-23T16:27:00Z</time>
      </trkpt>
      <trkpt lat="65.65493" lon="15.2914">
        <time>2026-03-23T16:29:00Z</time>
      </trkpt>
      <trkpt lat="65.65502" lon="15.29148">
        <time>2026-03-24T07:40:00Z</time>
      </trkpt>
      <trkpt lat="65.66017" lon="15.29116">
        <time>2026-03-24T07:50:00Z</time>
      </trkpt>
      <trkpt lat="65.66179" lon="15.28754">
        <time>2026-03-24T08:00:00Z</time>
      </trkpt>
      <trkpt lat="65.66534" lon="15.27689">
        <time>2026-03-24T08:10:00Z</time>
      </trkpt>
      <trkpt lat="65.6688" lon="15.26486">
        <time>2026-03-24T08:20:00Z</time>
      </trkpt>
      <trkpt lat="65.67016" lon="15.25556">
        <time>2026-03-24T08:30:00Z</time>
      </trkpt>
      <trkpt lat="65.67251" lon="15.24466">
        <time>2026-03-24T08:40:00Z</time>
      </trkpt>
      <trkpt lat="65.6745" lon="15.23496">
        <time>2026-03-24T08:50:00Z</time>
      </trkpt>
      <trkpt lat="65.67492" lon="15.23119">
        <time>2026-03-24T09:00:00Z</time>
      </trkpt>
      <trkpt lat="65.6778" lon="15.2196">
        <time>2026-03-24T09:10:00Z</time>
      </trkpt>
      <trkpt lat="65.68054" lon="15.2108">
        <time>2026-03-24T09:20:00Z</time>
      </trkpt>
      <trkpt lat="65.68466" lon="15.19662">
        <time>2026-03-24T09:30:00Z</time>
      </trkpt>
      <trkpt lat="65.68953" lon="15.1898">
        <time>2026-03-24T09:40:00Z</time>
      </trkpt>
      <trkpt lat="65.69543" lon="15.18308">
        <time>2026-03-24T09:50:00Z</time>
      </trkpt>
      <trkpt lat="65.69871" lon="15.17864">
        <time>2026-03-24T10:00:00Z</time>
      </trkpt>
      <trkpt lat="65.70293" lon="15.16767">
        <time>2026-03-24T10:10:00Z</time>
      </trkpt>
      <trkpt lat="65.70746" lon="15.14954">
        <time>2026-03-24T10:20:00Z</time>
      </trkpt>
      <trkpt lat="65.71238" lon="15.15782">
        <time>2026-03-24T10:30:00Z</time>
      </trkpt>
      <trkpt lat="65.71266" lon="15.17136">
        <time>2026-03-24T10:40:00Z</time>
      </trkpt>
      <trkpt lat="65.71039" lon="15.18748">
        <time>2026-03-24T10:50:00Z</time>
      </trkpt>
      <trkpt lat="65.70807" lon="15.20359">
        <time>2026-03-24T11:00:00Z</time>
      </trkpt>
      <trkpt lat="65.70859" lon="15.21881">
        <time>2026-03-24T11:10:00Z</time>
      </trkpt>
      <trkpt lat="65.71103" lon="15.22295">
        <time>2026-03-24T11:20:00Z</time>
      </trkpt>
      <trkpt lat="65.70836" lon="15.23778">
        <time>2026-03-24T11:30:00Z</time>
      </trkpt>
      <trkpt lat="65.70981" lon="15.24378">
        <time>2026-03-24T11:40:00Z</time>
      </trkpt>
      <trkpt lat="65.71137" lon="15.24983">
        <time>2026-03-24T11:50:00Z</time>
      </trkpt>
      <trkpt lat="65.71155" lon="15.24983">
        <time>2026-03-24T11:51:00Z</time>
      </trkpt>
      <trkpt lat="65.71177" lon="15.2511">
        <time>2026-03-25T08:25:00Z</time>
      </trkpt>
      <trkpt lat="65.7111" lon="15.25586">
        <time>2026-03-25T08:35:00Z</time>
      </trkpt>
      <trkpt lat="65.71109" lon="15.25591">
        <time>2026-03-25T08:45:00Z</time>
      </trkpt>
      <trkpt lat="65.70969" lon="15.26835">
        <time>2026-03-25T08:55:00Z</time>
      </trkpt>
      <trkpt lat="65.7109" lon="15.28685">
        <time>2026-03-25T09:05:00Z</time>
      </trkpt>
      <trkpt lat="65.71304" lon="15.30513">
        <time>2026-03-25T09:15:00Z</time>
      </trkpt>
      <trkpt lat="65.71295" lon="15.31964">
        <time>2026-03-25T09:25:00Z</time>
      </trkpt>
      <trkpt lat="65.7155" lon="15.33403">
        <time>2026-03-25T09:35:00Z</time>
      </trkpt>
      <trkpt lat="65.71772" lon="15.33764">
        <time>2026-03-25T09:45:00Z</time>
      </trkpt>
      <trkpt lat="65.72169" lon="15.33303">
        <time>2026-03-25T09:55:00Z</time>
      </trkpt>
      <trkpt lat="65.72559" lon="15.33034">
        <time>2026-03-25T10:05:00Z</time>
      </trkpt>
      <trkpt lat="65.72879" lon="15.33511">
        <time>2026-03-25T10:15:00Z</time>
      </trkpt>
      <trkpt lat="65.7337" lon="15.33951">
        <time>2026-03-25T10:25:00Z</time>
      </trkpt>
      <trkpt lat="65.73769" lon="15.33446">
        <time>2026-03-25T10:35:00Z</time>
      </trkpt>
      <trkpt lat="65.7399" lon="15.32238">
        <time>2026-03-25T10:45:00Z</time>
      </trkpt>
      <trkpt lat="65.74565" lon="15.31256">
        <time>2026-03-25T10:55:00Z</time>
      </trkpt>
      <trkpt lat="65.75303" lon="15.30865">
        <time>2026-03-25T11:05:00Z</time>
      </trkpt>
      <trkpt lat="65.75755" lon="15.31">
        <time>2026-03-25T11:15:00Z</time>
      </trkpt>
      <trkpt lat="65.75915" lon="15.31386">
        <time>2026-03-25T11:25:00Z</time>
      </trkpt>
      <trkpt lat="65.7618" lon="15.31474">
        <time>2026-03-25T11:35:00Z</time>
      </trkpt>
      <trkpt lat="65.76217" lon="15.32384">
        <time>2026-03-25T11:45:00Z</time>
      </trkpt>
      <trkpt lat="65.76258" lon="15.33167">
        <time>2026-03-25T11:55:00Z</time>
      </trkpt>
      <trkpt lat="65.76286" lon="15.33837">
        <time>2026-03-25T12:05:00Z</time>
      </trkpt>
      <trkpt lat="65.7641" lon="15.34251">
        <time>2026-03-25T12:15:00Z</time>
      </trkpt>
      <trkpt lat="65.7664" lon="15.3468">
        <time>2026-03-25T12:25:00Z</time>
      </trkpt>
      <trkpt lat="65.76893" lon="15.34985">
        <time>2026-03-25T12:35:00Z</time>
      </trkpt>
      <trkpt lat="65.77182" lon="15.35148">
        <time>2026-03-25T12:45:00Z</time>
      </trkpt>
      <trkpt lat="65.77475" lon="15.3515">
        <time>2026-03-25T12:55:00Z</time>
      </trkpt>
      <trkpt lat="65.78009" lon="15.34942">
        <time>2026-03-25T13:05:00Z</time>
      </trkpt>
      <trkpt lat="65.78624" lon="15.35214">
        <time>2026-03-25T13:15:00Z</time>
      </trkpt>
      <trkpt lat="65.78849" lon="15.35348">
        <time>2026-03-25T13:25:00Z</time>
      </trkpt>
      <trkpt lat="65.79295" lon="15.35607">
        <time>2026-03-25T13:35:00Z</time>
      </trkpt>
      <trkpt lat="65.79699" lon="15.35839">
        <time>2026-03-25T13:45:00Z</time>
      </trkpt>
      <trkpt lat="65.80313" lon="15.35783">
        <time>2026-03-25T13:55:00Z</time>
      </trkpt>
      <trkpt lat="65.81002" lon="15.35678">
        <time>2026-03-25T14:05:00Z</time>
      </trkpt>
      <trkpt lat="65.81704" lon="15.35438">
        <time>2026-03-25T14:15:00Z</time>
      </trkpt>
      <trkpt lat="65.82296" lon="15.35088">
        <time>2026-03-25T14:25:00Z</time>
      </trkpt>
      <trkpt lat="65.82938" lon="15.34504">
        <time>2026-03-25T14:35:00Z</time>
      </trkpt>
      <trkpt lat="65.83331" lon="15.34148">
        <time>2026-03-25T14:45:00Z</time>
      </trkpt>
      <trkpt lat="65.83919" lon="15.33682">
        <time>2026-03-25T14:55:00Z</time>
      </trkpt>
      <trkpt lat="65.84495" lon="15.33326">
        <time>2026-03-25T15:05:00Z</time>
      </trkpt>
      <trkpt lat="65.85153" lon="15.32919">
        <time>2026-03-25T15:15:00Z</time>
      </trkpt>
    </trkseg>
  </trk>
</gpx>
