<?xml version="1.0" encoding="UTF-8"?>
<gpx xmlns="http://www.topografix.com/GPX/1/1" version="1.1" creator="VitaBandet section">
  <metadata>
    <name>Section 6 — Abisko → Pältsa</name>
    <desc>Section 6 of Vita Bandet 2028 — Abisko → Pältsa. Sources: martens-band-track.json.</desc>
  </metadata>
  <trk>
    <name>Section 6</name>
    <trkseg>
      <name>Abisko → Pältsa</name>
      <trkpt lat="68.34952" lon="18.83097">
        <time>2028-04-11T16:01:01Z</time>
      </trkpt>
      <trkpt lat="68.35435" lon="18.84305">
        <time>2028-04-11T16:52:33Z</time>
      </trkpt>
      <trkpt lat="68.35666" lon="18.84951">
        <time>2028-04-11T17:18:34Z</time>
      </trkpt>
      <trkpt lat="68.3637" lon="18.86985">
        <time>2028-04-11T18:39:15Z</time>
      </trkpt>
      <trkpt lat="68.36631" lon="18.89251">
        <time>2028-04-11T19:47:53Z</time>
      </trkpt>
      <trkpt lat="68.36618" lon="18.91266">
        <time>2028-04-11T20:46:09Z</time>
      </trkpt>
      <trkpt lat="68.3635" lon="18.9333">
        <time>2028-04-11T21:49:25Z</time>
      </trkpt>
      <trkpt lat="68.36709" lon="18.95806">
        <time>2028-04-11T23:06:21Z</time>
      </trkpt>
      <trkpt lat="68.36733" lon="18.98353">
        <time>2028-04-12T00:20:00Z</time>
      </trkpt>
      <trkpt lat="68.36748" lon="19.01003">
        <time>2028-04-12T01:36:37Z</time>
      </trkpt>
      <trkpt lat="68.36871" lon="19.02287">
        <time>2028-04-12T02:14:59Z</time>
      </trkpt>
      <trkpt lat="68.36937" lon="19.04941">
        <time>2028-04-12T03:31:52Z</time>
      </trkpt>
      <trkpt lat="68.36971" lon="19.07486">
        <time>2028-04-12T04:45:29Z</time>
      </trkpt>
      <trkpt lat="68.36703" lon="19.09335">
        <time>2028-04-12T05:42:56Z</time>
      </trkpt>
      <trkpt lat="68.36623" lon="19.1152">
        <time>2028-04-12T06:46:24Z</time>
      </trkpt>
      <trkpt lat="68.36504" lon="19.13678">
        <time>2028-04-12T07:49:30Z</time>
      </trkpt>
      <trkpt lat="68.36311" lon="19.16159">
        <time>2028-04-12T09:02:49Z</time>
      </trkpt>
      <trkpt lat="68.36137" lon="19.18569">
        <time>2028-04-12T10:13:49Z</time>
      </trkpt>
      <trkpt lat="68.35967" lon="19.19837">
        <time>2028-04-12T10:52:50Z</time>
      </trkpt>
      <trkpt lat="68.35334" lon="19.21757">
        <time>2028-04-12T12:07:20Z</time>
      </trkpt>
      <trkpt lat="68.3517" lon="19.22682">
        <time>2028-04-12T12:37:01Z</time>
      </trkpt>
      <trkpt lat="68.34969" lon="19.23686">
        <time>2028-04-12T13:10:04Z</time>
      </trkpt>
      <trkpt lat="68.34565" lon="19.26079">
        <time>2028-04-12T14:26:13Z</time>
      </trkpt>
      <trkpt lat="68.34586" lon="19.28731">
        <time>2028-04-12T15:42:58Z</time>
      </trkpt>
      <trkpt lat="68.34474" lon="19.31338">
        <time>2028-04-12T16:58:55Z</time>
      </trkpt>
      <trkpt lat="68.34199" lon="19.33797">
        <time>2028-04-12T18:13:17Z</time>
      </trkpt>
      <trkpt lat="68.34096" lon="19.35278">
        <time>2028-04-12T18:56:54Z</time>
      </trkpt>
      <trkpt lat="68.33975" lon="19.37741">
        <time>2028-04-12T20:08:49Z</time>
      </trkpt>
      <trkpt lat="68.33628" lon="19.39393">
        <time>2028-04-12T21:03:50Z</time>
      </trkpt>
      <trkpt lat="68.33299" lon="19.40805">
        <time>2028-04-12T21:52:11Z</time>
      </trkpt>
      <trkpt lat="68.32811" lon="19.42927">
        <time>2028-04-12T23:04:34Z</time>
      </trkpt>
      <trkpt lat="68.32329" lon="19.44994">
        <time>2028-04-13T00:15:22Z</time>
      </trkpt>
      <trkpt lat="68.3198" lon="19.46502">
        <time>2028-04-13T01:06:55Z</time>
      </trkpt>
      <trkpt lat="68.31552" lon="19.48378">
        <time>2028-04-13T02:10:48Z</time>
      </trkpt>
      <trkpt lat="68.31111" lon="19.5044">
        <time>2028-04-13T03:19:51Z</time>
      </trkpt>
      <trkpt lat="68.30709" lon="19.52433">
        <time>2028-04-13T04:25:39Z</time>
      </trkpt>
      <trkpt lat="68.30391" lon="19.53997">
        <time>2028-04-13T05:17:24Z</time>
      </trkpt>
      <trkpt lat="68.3014" lon="19.56315">
        <time>2028-04-13T06:27:26Z</time>
      </trkpt>
      <trkpt lat="68.30157" lon="19.58014">
        <time>2028-04-13T07:16:42Z</time>
      </trkpt>
      <trkpt lat="68.30235" lon="19.60651">
        <time>2028-04-13T08:33:24Z</time>
      </trkpt>
      <trkpt lat="68.30499" lon="19.6184">
        <time>2028-04-13T09:13:37Z</time>
      </trkpt>
      <trkpt lat="68.30664" lon="19.6425">
        <time>2028-04-13T10:24:40Z</time>
      </trkpt>
      <trkpt lat="68.30592" lon="19.6705">
        <time>2028-04-13T11:46:02Z</time>
      </trkpt>
      <trkpt lat="68.30532" lon="19.68029">
        <time>2028-04-13T12:14:48Z</time>
      </trkpt>
      <trkpt lat="68.30457" lon="19.70775">
        <time>2028-04-13T13:34:37Z</time>
      </trkpt>
      <trkpt lat="68.30497" lon="19.72844">
        <time>2028-04-13T14:34:41Z</time>
      </trkpt>
      <trkpt lat="68.30651" lon="19.75869">
        <time>2028-04-13T16:03:12Z</time>
      </trkpt>
      <trkpt lat="68.30703" lon="19.78195">
        <time>2028-04-13T17:10:45Z</time>
      </trkpt>
      <trkpt lat="68.30938" lon="19.80753">
        <time>2028-04-13T18:27:09Z</time>
      </trkpt>
      <trkpt lat="68.30825" lon="19.8309">
        <time>2028-04-13T19:35:27Z</time>
      </trkpt>
      <trkpt lat="68.30273" lon="19.85004">
        <time>2028-04-13T20:45:50Z</time>
      </trkpt>
      <trkpt lat="68.30079" lon="19.86017">
        <time>2028-04-13T21:18:54Z</time>
      </trkpt>
      <trkpt lat="68.29594" lon="19.87317">
        <time>2028-04-13T22:12:28Z</time>
      </trkpt>
      <trkpt lat="68.29137" lon="19.88892">
        <time>2028-04-13T23:10:31Z</time>
      </trkpt>
      <trkpt lat="68.28998" lon="19.89716">
        <time>2028-04-13T23:36:47Z</time>
      </trkpt>
      <trkpt lat="68.29267" lon="19.90218">
        <time>2028-04-14T00:02:25Z</time>
      </trkpt>
      <trkpt lat="68.29979" lon="19.91254">
        <time>2028-04-14T01:05:50Z</time>
      </trkpt>
      <trkpt lat="68.30404" lon="19.9254">
        <time>2028-04-14T01:55:50Z</time>
      </trkpt>
      <trkpt lat="68.31009" lon="19.93587">
        <time>2028-04-14T02:52:10Z</time>
      </trkpt>
      <trkpt lat="68.31895" lon="19.94022">
        <time>2028-04-14T04:02:47Z</time>
      </trkpt>
      <trkpt lat="68.3231" lon="19.94737">
        <time>2028-04-14T04:41:21Z</time>
      </trkpt>
      <trkpt lat="68.32785" lon="19.95239">
        <time>2028-04-14T05:21:20Z</time>
      </trkpt>
      <trkpt lat="68.3318" lon="19.95612">
        <time>2028-04-14T05:54:09Z</time>
      </trkpt>
      <trkpt lat="68.33753" lon="19.96203">
        <time>2028-04-14T06:42:14Z</time>
      </trkpt>
      <trkpt lat="68.34057" lon="19.96318">
        <time>2028-04-14T07:06:18Z</time>
      </trkpt>
      <trkpt lat="68.34712" lon="19.97119">
        <time>2028-04-14T08:02:39Z</time>
      </trkpt>
      <trkpt lat="68.35448" lon="19.99582">
        <time>2028-04-14T09:34:21Z</time>
      </trkpt>
      <trkpt lat="68.35932" lon="20.0152">
        <time>2028-04-14T10:42:03Z</time>
      </trkpt>
      <trkpt lat="68.36391" lon="20.02614">
        <time>2028-04-14T11:29:58Z</time>
      </trkpt>
      <trkpt lat="68.36693" lon="20.03917">
        <time>2028-04-14T12:14:28Z</time>
      </trkpt>
      <trkpt lat="68.36807" lon="20.04704">
        <time>2028-04-14T12:38:55Z</time>
      </trkpt>
      <trkpt lat="68.37176" lon="20.05908">
        <time>2028-04-14T13:24:11Z</time>
      </trkpt>
      <trkpt lat="68.37457" lon="20.07515">
        <time>2028-04-14T14:15:35Z</time>
      </trkpt>
      <trkpt lat="68.3803" lon="20.07727">
        <time>2028-04-14T15:00:56Z</time>
      </trkpt>
      <trkpt lat="68.38559" lon="20.07208">
        <time>2028-04-14T15:45:03Z</time>
      </trkpt>
      <trkpt lat="68.3931" lon="20.06238">
        <time>2028-04-14T16:50:16Z</time>
      </trkpt>
      <trkpt lat="68.39854" lon="20.0641">
        <time>2028-04-14T17:33:13Z</time>
      </trkpt>
      <trkpt lat="68.40123" lon="20.06884">
        <time>2028-04-14T17:58:22Z</time>
      </trkpt>
      <trkpt lat="68.4073" lon="20.07562">
        <time>2028-04-14T18:49:50Z</time>
      </trkpt>
      <trkpt lat="68.4121" lon="20.08152">
        <time>2028-04-14T19:31:08Z</time>
      </trkpt>
      <trkpt lat="68.41827" lon="20.09916">
        <time>2028-04-14T20:41:22Z</time>
      </trkpt>
      <trkpt lat="68.41973" lon="20.10566">
        <time>2028-04-14T21:03:20Z</time>
      </trkpt>
      <trkpt lat="68.42036" lon="20.11946">
        <time>2028-04-14T21:43:26Z</time>
      </trkpt>
      <trkpt lat="68.42231" lon="20.13697">
        <time>2028-04-14T22:36:12Z</time>
      </trkpt>
      <trkpt lat="68.42241" lon="20.14641">
        <time>2028-04-14T23:03:26Z</time>
      </trkpt>
      <trkpt lat="68.42632" lon="20.15791">
        <time>2028-04-14T23:48:36Z</time>
      </trkpt>
      <trkpt lat="68.43284" lon="20.1704">
        <time>2028-04-15T00:51:09Z</time>
      </trkpt>
      <trkpt lat="68.44419" lon="20.19308">
        <time>2028-04-15T02:41:34Z</time>
      </trkpt>
      <trkpt lat="68.4526" lon="20.20289">
        <time>2028-04-15T03:53:19Z</time>
      </trkpt>
      <trkpt lat="68.45723" lon="20.20851">
        <time>2028-04-15T04:33:05Z</time>
      </trkpt>
      <trkpt lat="68.46723" lon="20.22048">
        <time>2028-04-15T05:58:44Z</time>
      </trkpt>
      <trkpt lat="68.47479" lon="20.22924">
        <time>2028-04-15T07:03:10Z</time>
      </trkpt>
      <trkpt lat="68.48085" lon="20.23861">
        <time>2028-04-15T07:57:48Z</time>
      </trkpt>
      <trkpt lat="68.48585" lon="20.25194">
        <time>2028-04-15T08:52:38Z</time>
      </trkpt>
      <trkpt lat="68.48929" lon="20.25943">
        <time>2028-04-15T09:27:09Z</time>
      </trkpt>
      <trkpt lat="68.49588" lon="20.27999">
        <time>2028-04-15T10:45:40Z</time>
      </trkpt>
      <trkpt lat="68.50119" lon="20.28771">
        <time>2028-04-15T11:32:51Z</time>
      </trkpt>
      <trkpt lat="68.51042" lon="20.29121">
        <time>2028-04-15T12:45:56Z</time>
      </trkpt>
      <trkpt lat="68.51578" lon="20.29492">
        <time>2028-04-15T13:29:18Z</time>
      </trkpt>
      <trkpt lat="68.52511" lon="20.29398">
        <time>2028-04-15T14:42:31Z</time>
      </trkpt>
      <trkpt lat="68.53234" lon="20.2931">
        <time>2028-04-15T15:39:16Z</time>
      </trkpt>
      <trkpt lat="68.53691" lon="20.29262">
        <time>2028-04-15T16:15:08Z</time>
      </trkpt>
      <trkpt lat="68.54024" lon="20.29322">
        <time>2028-04-15T16:41:18Z</time>
      </trkpt>
      <trkpt lat="68.54943" lon="20.30475">
        <time>2028-04-15T18:00:36Z</time>
      </trkpt>
      <trkpt lat="68.55485" lon="20.32099">
        <time>2028-04-15T19:03:39Z</time>
      </trkpt>
      <trkpt lat="68.56106" lon="20.33472">
        <time>2028-04-15T20:06:16Z</time>
      </trkpt>
      <trkpt lat="68.56352" lon="20.33897">
        <time>2028-04-15T20:29:05Z</time>
      </trkpt>
      <trkpt lat="68.56578" lon="20.34434">
        <time>2028-04-15T20:52:33Z</time>
      </trkpt>
      <trkpt lat="68.57195" lon="20.35676">
        <time>2028-04-15T21:52:37Z</time>
      </trkpt>
      <trkpt lat="68.57565" lon="20.36491">
        <time>2028-04-15T22:29:52Z</time>
      </trkpt>
      <trkpt lat="68.57931" lon="20.37989">
        <time>2028-04-15T23:21:29Z</time>
      </trkpt>
      <trkpt lat="68.58334" lon="20.39332">
        <time>2028-04-16T00:11:16Z</time>
      </trkpt>
      <trkpt lat="68.58728" lon="20.40103">
        <time>2028-04-16T00:49:14Z</time>
      </trkpt>
      <trkpt lat="68.59275" lon="20.41043">
        <time>2028-04-16T01:39:52Z</time>
      </trkpt>
      <trkpt lat="68.59559" lon="20.41598">
        <time>2028-04-16T02:07:14Z</time>
      </trkpt>
      <trkpt lat="68.6016" lon="20.41731">
        <time>2028-04-16T02:54:31Z</time>
      </trkpt>
      <trkpt lat="68.60577" lon="20.41259">
        <time>2028-04-16T03:29:54Z</time>
      </trkpt>
      <trkpt lat="68.61054" lon="20.41412">
        <time>2028-04-16T04:07:33Z</time>
      </trkpt>
      <trkpt lat="68.61594" lon="20.42064">
        <time>2028-04-16T04:53:50Z</time>
      </trkpt>
      <trkpt lat="68.62321" lon="20.42427">
        <time>2028-04-16T05:51:46Z</time>
      </trkpt>
      <trkpt lat="68.63071" lon="20.431">
        <time>2028-04-16T06:53:39Z</time>
      </trkpt>
      <trkpt lat="68.6336" lon="20.4327">
        <time>2028-04-16T07:16:50Z</time>
      </trkpt>
      <trkpt lat="68.64205" lon="20.43439">
        <time>2028-04-16T08:23:16Z</time>
      </trkpt>
      <trkpt lat="68.64946" lon="20.44244">
        <time>2028-04-16T09:25:46Z</time>
      </trkpt>
      <trkpt lat="68.65285" lon="20.44675">
        <time>2028-04-16T09:55:04Z</time>
      </trkpt>
      <trkpt lat="68.65654" lon="20.45145">
        <time>2028-04-16T10:26:57Z</time>
      </trkpt>
      <trkpt lat="68.66475" lon="20.46124">
        <time>2028-04-16T11:37:08Z</time>
      </trkpt>
      <trkpt lat="68.67322" lon="20.46905">
        <time>2028-04-16T12:47:12Z</time>
      </trkpt>
      <trkpt lat="68.68139" lon="20.47922">
        <time>2028-04-16T13:57:32Z</time>
      </trkpt>
      <trkpt lat="68.68731" lon="20.48961">
        <time>2028-04-16T14:52:36Z</time>
      </trkpt>
      <trkpt lat="68.69594" lon="20.50044">
        <time>2028-04-16T16:06:59Z</time>
      </trkpt>
      <trkpt lat="68.69934" lon="20.5043">
        <time>2028-04-16T16:35:49Z</time>
      </trkpt>
      <trkpt lat="68.70608" lon="20.51782">
        <time>2028-04-16T17:41:13Z</time>
      </trkpt>
      <trkpt lat="68.71193" lon="20.51574">
        <time>2028-04-16T18:27:28Z</time>
      </trkpt>
      <trkpt lat="68.71713" lon="20.51246">
        <time>2028-04-16T19:09:18Z</time>
      </trkpt>
      <trkpt lat="68.7214" lon="20.51634">
        <time>2028-04-16T19:44:34Z</time>
      </trkpt>
      <trkpt lat="68.72514" lon="20.52679">
        <time>2028-04-16T20:26:20Z</time>
      </trkpt>
      <trkpt lat="68.73346" lon="20.53587">
        <time>2028-04-16T21:36:30Z</time>
      </trkpt>
      <trkpt lat="68.73981" lon="20.54059">
        <time>2028-04-16T22:28:05Z</time>
      </trkpt>
      <trkpt lat="68.74706" lon="20.5466">
        <time>2028-04-16T23:27:27Z</time>
      </trkpt>
      <trkpt lat="68.75374" lon="20.55499">
        <time>2028-04-17T00:25:00Z</time>
      </trkpt>
      <trkpt lat="68.75812" lon="20.56211">
        <time>2028-04-17T01:04:52Z</time>
      </trkpt>
      <trkpt lat="68.76313" lon="20.56093">
        <time>2028-04-17T01:44:18Z</time>
      </trkpt>
      <trkpt lat="68.76804" lon="20.57024">
        <time>2028-04-17T02:31:01Z</time>
      </trkpt>
      <trkpt lat="68.77158" lon="20.58035">
        <time>2028-04-17T03:10:57Z</time>
      </trkpt>
      <trkpt lat="68.77032" lon="20.59915">
        <time>2028-04-17T04:05:14Z</time>
      </trkpt>
      <trkpt lat="68.76741" lon="20.61153">
        <time>2028-04-17T04:47:09Z</time>
      </trkpt>
      <trkpt lat="68.77215" lon="20.60088">
        <time>2028-04-17T05:35:04Z</time>
      </trkpt>
      <trkpt lat="68.77955" lon="20.59264">
        <time>2028-04-17T06:37:39Z</time>
      </trkpt>
      <trkpt lat="68.78506" lon="20.58689">
        <time>2028-04-17T07:23:50Z</time>
      </trkpt>
      <trkpt lat="68.79011" lon="20.57305">
        <time>2028-04-17T08:19:36Z</time>
      </trkpt>
      <trkpt lat="68.79569" lon="20.56778">
        <time>2028-04-17T09:05:51Z</time>
      </trkpt>
      <trkpt lat="68.80176" lon="20.55378">
        <time>2028-04-17T10:07:50Z</time>
      </trkpt>
      <trkpt lat="68.80682" lon="20.54132">
        <time>2028-04-17T11:00:58Z</time>
      </trkpt>
      <trkpt lat="68.81237" lon="20.53705">
        <time>2028-04-17T11:46:08Z</time>
      </trkpt>
      <trkpt lat="68.81795" lon="20.53645">
        <time>2028-04-17T12:29:56Z</time>
      </trkpt>
      <trkpt lat="68.82563" lon="20.53591">
        <time>2028-04-17T13:30:10Z</time>
      </trkpt>
      <trkpt lat="68.83308" lon="20.54211">
        <time>2028-04-17T14:31:11Z</time>
      </trkpt>
      <trkpt lat="68.84003" lon="20.53613">
        <time>2028-04-17T15:28:15Z</time>
      </trkpt>
      <trkpt lat="68.84505" lon="20.51945">
        <time>2028-04-17T16:29:43Z</time>
      </trkpt>
      <trkpt lat="68.8505" lon="20.50561">
        <time>2028-04-17T17:27:42Z</time>
      </trkpt>
      <trkpt lat="68.85888" lon="20.50542">
        <time>2028-04-17T18:33:25Z</time>
      </trkpt>
      <trkpt lat="68.86243" lon="20.50585">
        <time>2028-04-17T19:01:17Z</time>
      </trkpt>
      <trkpt lat="68.86816" lon="20.49922">
        <time>2028-04-17T19:49:58Z</time>
      </trkpt>
      <trkpt lat="68.8767" lon="20.49085">
        <time>2028-04-17T21:01:00Z</time>
      </trkpt>
      <trkpt lat="68.88349" lon="20.47525">
        <time>2028-04-17T22:10:07Z</time>
      </trkpt>
      <trkpt lat="68.89139" lon="20.46014">
        <time>2028-04-17T23:25:21Z</time>
      </trkpt>
      <trkpt lat="68.89832" lon="20.44763">
        <time>2028-04-18T00:30:10Z</time>
      </trkpt>
      <trkpt lat="68.90333" lon="20.42924">
        <time>2028-04-18T01:35:17Z</time>
      </trkpt>
      <trkpt lat="68.90951" lon="20.41616">
        <time>2028-04-18T02:36:12Z</time>
      </trkpt>
      <trkpt lat="68.91793" lon="20.39873">
        <time>2028-04-18T03:58:32Z</time>
      </trkpt>
      <trkpt lat="68.92779" lon="20.3829">
        <time>2028-04-18T05:27:49Z</time>
      </trkpt>
      <trkpt lat="68.9327" lon="20.37768">
        <time>2028-04-18T06:09:02Z</time>
      </trkpt>
      <trkpt lat="68.94047" lon="20.3732">
        <time>2028-04-18T07:11:16Z</time>
      </trkpt>
      <trkpt lat="68.94721" lon="20.35972">
        <time>2028-04-18T08:16:21Z</time>
      </trkpt>
      <trkpt lat="68.95182" lon="20.35854">
        <time>2028-04-18T08:52:39Z</time>
      </trkpt>
      <trkpt lat="68.96603" lon="20.35457">
        <time>2028-04-18T10:44:39Z</time>
      </trkpt>
      <trkpt lat="68.97335" lon="20.36279">
        <time>2028-04-18T11:46:32Z</time>
      </trkpt>
      <trkpt lat="68.97765" lon="20.36938">
        <time>2028-04-18T12:25:01Z</time>
      </trkpt>
      <trkpt lat="68.98036" lon="20.38579">
        <time>2028-04-18T13:15:50Z</time>
      </trkpt>
      <trkpt lat="68.98143" lon="20.39545">
        <time>2028-04-18T13:44:17Z</time>
      </trkpt>
      <trkpt lat="68.98102" lon="20.40341">
        <time>2028-04-18T14:06:54Z</time>
      </trkpt>
      <trkpt lat="68.98206" lon="20.41289">
        <time>2028-04-18T14:34:47Z</time>
      </trkpt>
      <trkpt lat="68.98279" lon="20.42195">
        <time>2028-04-18T15:00:54Z</time>
      </trkpt>
      <trkpt lat="68.98627" lon="20.4363">
        <time>2028-04-18T15:49:37Z</time>
      </trkpt>
      <trkpt lat="68.98988" lon="20.44315">
        <time>2028-04-18T16:23:51Z</time>
      </trkpt>
      <trkpt lat="68.99258" lon="20.4495">
        <time>2028-04-18T16:51:33Z</time>
      </trkpt>
      <trkpt lat="68.99471" lon="20.45798">
        <time>2028-04-18T17:20:40Z</time>
      </trkpt>
      <trkpt lat="69.00062" lon="20.4681">
        <time>2028-04-18T18:15:02Z</time>
      </trkpt>
      <trkpt lat="69.00271" lon="20.47516">
        <time>2028-04-18T18:40:46Z</time>
      </trkpt>
      <trkpt lat="69.0069" lon="20.48437">
        <time>2028-04-18T19:22:36Z</time>
      </trkpt>
      <trkpt lat="69.01264" lon="20.49267">
        <time>2028-04-18T20:13:17Z</time>
      </trkpt>
      <trkpt lat="69.0188" lon="20.50104">
        <time>2028-04-18T21:07:01Z</time>
      </trkpt>
      <trkpt lat="69.02368" lon="20.51162">
        <time>2028-04-18T21:55:28Z</time>
      </trkpt>
      <trkpt lat="69.02761" lon="20.51922">
        <time>2028-04-18T22:32:56Z</time>
      </trkpt>
      <trkpt lat="69.0418" lon="20.51422">
        <time>2028-04-19T00:25:06Z</time>
      </trkpt>
      <trkpt lat="69.04583" lon="20.51771">
        <time>2028-04-19T00:58:11Z</time>
      </trkpt>
      <trkpt lat="69.04948" lon="20.52435">
        <time>2028-04-19T01:32:20Z</time>
      </trkpt>
      <trkpt lat="69.05636" lon="20.53499">
        <time>2028-04-19T02:33:59Z</time>
      </trkpt>
      <trkpt lat="69.0599" lon="20.54859">
        <time>2028-04-19T03:21:08Z</time>
      </trkpt>
      <trkpt lat="69.05709" lon="20.56351">
        <time>2028-04-19T04:08:25Z</time>
      </trkpt>
      <trkpt lat="69.05288" lon="20.58739">
        <time>2028-04-19T05:23:03Z</time>
      </trkpt>
      <trkpt lat="69.05071" lon="20.60919">
        <time>2028-04-19T06:26:30Z</time>
      </trkpt>
      <trkpt lat="69.04724" lon="20.63286">
        <time>2028-04-19T07:38:14Z</time>
      </trkpt>
      <trkpt lat="69.04577" lon="20.65822">
        <time>2028-04-19T08:50:17Z</time>
      </trkpt>
      <trkpt lat="69.04548" lon="20.67444">
        <time>2028-04-19T09:35:50Z</time>
      </trkpt>
      <trkpt lat="69.04516" lon="20.70088">
        <time>2028-04-19T10:50:01Z</time>
      </trkpt>
      <trkpt lat="69.04482" lon="20.72581">
        <time>2028-04-19T12:00:00Z</time>
      </trkpt>
    </trkseg>
  </trk>
  <wpt lat="68.350000" lon="18.830000">
    <name>Abisko</name>
  </wpt>
  <wpt lat="69.060000" lon="20.550000">
    <name>Treriksröset</name>
  </wpt>
  <wpt lat="69.045000" lon="20.739000">
    <name>Pältsa</name>
  </wpt>
</gpx>
