<?xml version="1.0" encoding="UTF-8"?>
<gpx version="1.1" creator="VitaBandet section" xmlns="http://www.topografix.com/GPX/1/1" xmlns:xsi="http://www.w3.org/2001/XMLSchema-instance" xsi:schemaLocation="http://www.topografix.com/GPX/1/1 http://www.topografix.com/GPX/1/1/gpx.xsd http://www.garmin.com/xmlschemas/GpxExtensions/v3 http://www.garmin.com/xmlschemas/GpxExtensionsv3.xsd http://www.garmin.com/xmlschemas/TrackPointExtension/v1 http://www.garmin.com/xmlschemas/TrackPointExtensionv1.xsd http://www.garmin.com/xmlschemas/PowerExtension/v1 http://www.garmin.com/xmlschemas/PowerExtensionv1.xsd http://www.topografix.com/GPX/gpx_style/0/2 http://www.topografix.com/GPX/gpx_style/0/2/gpx_style.xsd" xmlns:gpxtpx="http://www.garmin.com/xmlschemas/TrackPointExtension/v1" xmlns:gpxx="http://www.garmin.com/xmlschemas/GpxExtensions/v3" xmlns:gpxpx="http://www.garmin.com/xmlschemas/PowerExtension/v1" xmlns:gpx_style="http://www.topografix.com/GPX/gpx_style/0/2">
  <metadata>
    <name>Section 2 — Storlien → Gäddede</name>
    <desc>Section 2 of Vita Bandet 2028 — Storlien → Gäddede. Sources: lottas-och-bjorns-band-track.json.</desc>
    <author>
      <name>gpx.studio</name>
      <link href="https://gpx.studio"/>
    </author>
  </metadata>
  <wpt lat="63.41813431" lon="12.22428203">
    <name>D11 · Norder Rensjön</name>
    <desc>Section 2 · 2028-02-25 · cum 183 km · T · Track leaves north end of lake · carry 10–12 days food</desc>
    <sym>Campground</sym>
    <type>camp</type>
  </wpt>
  <wpt lat="63.57125814" lon="12.26638717">
    <name>D12 · Skalstugan</name>
    <desc>Section 2 · 2028-02-26 · cum 201 km · T · Depot optional</desc>
    <sym>Campground</sym>
    <type>camp</type>
  </wpt>
  <wpt lat="63.67652" lon="12.5457">
    <name>D13 · Stor-Rensjön N</name>
    <desc>Section 2 · 2028-02-27 · cum 221 km · T · Track leaves north end of lake · Hotagen fringe</desc>
    <sym>Campground</sym>
    <type>camp</type>
  </wpt>
  <wpt lat="63.70222556" lon="12.77860102">
    <name>D14 · Mot Kolåsen</name>
    <desc>Section 2 · 2028-02-28 · cum 239 km · T · Remote · no scooter spår</desc>
    <sym>Campground</sym>
    <type>camp</type>
  </wpt>
  <wpt lat="63.7014" lon="12.9571">
    <name>D15 · Kallsedet</name>
    <desc>Section 2 · 2028-02-29 · cum 251 km · T · On band track · road 336 corridor</desc>
    <sym>Campground</sym>
    <type>camp</type>
  </wpt>
  <wpt lat="63.68314698905408" lon="13.3269910575832">
    <ele>407.7752839303853</ele>
    <name>D16 · Mot Olden</name>
    <desc>Section 2 · 2028-03-01 · cum 255 km · T · On track · halfway Kallsedet–Olden</desc>
    <sym>Campground</sym>
    <type>camp</type>
  </wpt>
  <wpt lat="63.697961357582756" lon="13.631668981322832">
    <ele>350.5449755463119</ele>
    <name>D17 · Olden</name>
    <cmt>Section 2 · 2028-03-02 · cum 259 km · T · On track — not Valsjöbua (that is D21)</cmt>
    <desc>Section 2 · 2028-03-02 · cum 259 km · T · On track — not Valsjöbua (that is D21)</desc>
    <sym>Campground</sym>
    <type>camp</type>
  </wpt>
  <wpt lat="63.77982438753645" lon="13.824771705180382">
    <ele>626.4571934874873</ele>
    <name>D18 · Jänsmässholen</name>
    <cmt>Section 2 · 2028-03-03 · cum 285 km · T · Undersåker väster om corridor (bridge ~55 km E)</cmt>
    <desc>Section 2 · 2028-03-03 · cum 285 km · T · Undersåker väster om corridor (bridge ~55 km E)</desc>
    <sym>Campground</sym>
    <type>camp</type>
  </wpt>
  <wpt lat="63.94824470323789" lon="13.924002733160023">
    <ele>483.1210442153576</ele>
    <name>D19 · Ansättfjällen approach</name>
    <desc>Section 2 · 2028-03-04 · cum 303 km · T</desc>
    <sym>Campground</sym>
    <type>camp</type>
  </wpt>
  <wpt lat="64.217959" lon="14.283445">
    <ele>828.4102034894113</ele>
    <name>D21 · North of Vals</name>
    <cmt>Section 2 · 2028-03-05 · cum 321 km · T</cmt>
    <desc>Section 2 · 2028-03-05 · cum 321 km · T</desc>
    <sym>Campground</sym>
    <type>camp</type>
  </wpt>
  <wpt lat="64.068" lon="14.139">
    <ele>332.21875</ele>
    <name>D20 · Valsjöbua</name>
    <cmt>Section 2 · 2028-03-06 · cum 357 km · D · Valsjöbua ★ · Bandare vandrarhem</cmt>
    <desc>Section 2 · 2028-03-06 · cum 357 km · D · Valsjöbua ★ · Bandare vandrarhem</desc>
    <sym>City</sym>
    <type>resupply</type>
  </wpt>
  <wpt lat="64.37360692955463" lon="14.369229528049573">
    <ele>302.9880218199512</ele>
    <name>D22 · Björkvattnet</name>
    <desc>Section 2 · 2028-03-07 · cum 380 km · T · After Valsjöbua resupply</desc>
    <sym>Campground</sym>
    <type>camp</type>
  </wpt>
  <wpt lat="64.507363" lon="14.155243">
    <ele>329.5217274675503</ele>
    <name>D23 · Gäddede väster om</name>
    <cmt>Section 2 · 2028-03-08 · cum 402 km · T · Optional Blåsjö detour (~35 km off track)</cmt>
    <desc>Section 2 · 2028-03-08 · cum 402 km · T · Optional Blåsjö detour (~35 km off track)</desc>
    <sym>Campground</sym>
    <type>camp</type>
  </wpt>
  <wpt lat="63.298" lon="12.101">
    <name>Storlien</name>
  </wpt>
  <wpt lat="63.416652" lon="12.225886">
    <name>Norder-Rensjön (track leaves lake)</name>
  </wpt>
  <wpt lat="63.67652" lon="12.5457">
    <name>Stor-Rensjön (track leaves lake)</name>
  </wpt>
  <wpt lat="64.068" lon="14.139">
    <name>Valsjöbua Lanthandel</name>
  </wpt>
  <trk>
    <name>Section 2</name>
    <trkseg>
      <trkpt lat="63.29926" lon="12.09262">
        <time>2028-02-23T05:34:46.000Z</time>
      </trkpt>
      <trkpt lat="63.30237" lon="12.09596">
        <time>2028-02-23T06:01:38.000Z</time>
      </trkpt>
      <trkpt lat="63.30246" lon="12.10513">
        <time>2028-02-23T06:33:42.000Z</time>
      </trkpt>
      <trkpt lat="63.29961" lon="12.11392">
        <time>2028-02-23T07:11:36.000Z</time>
      </trkpt>
      <trkpt lat="63.30439" lon="12.11341">
        <time>2028-02-23T07:48:51.000Z</time>
      </trkpt>
      <trkpt lat="63.30965" lon="12.11571">
        <time>2028-02-23T08:30:34.000Z</time>
      </trkpt>
      <trkpt lat="63.31411" lon="12.1095">
        <time>2028-02-23T09:11:30.000Z</time>
      </trkpt>
      <trkpt lat="63.32195" lon="12.11294">
        <time>2028-02-23T10:13:41.000Z</time>
      </trkpt>
      <trkpt lat="63.32963" lon="12.11753">
        <time>2028-02-23T11:15:34.000Z</time>
      </trkpt>
      <trkpt lat="63.3355" lon="12.12377">
        <time>2028-02-23T12:06:10.000Z</time>
      </trkpt>
      <trkpt lat="63.34313" lon="12.13446">
        <time>2028-02-23T13:16:18.000Z</time>
      </trkpt>
      <trkpt lat="63.34963" lon="12.14317">
        <time>2028-02-23T14:15:20.000Z</time>
      </trkpt>
      <trkpt lat="63.35516" lon="12.17004">
        <time>2028-02-23T15:58:31.000Z</time>
      </trkpt>
      <trkpt lat="63.35757" lon="12.18862">
        <time>2028-02-23T17:06:01.000Z</time>
      </trkpt>
      <trkpt lat="63.35638" lon="12.20302">
        <time>2028-02-23T17:57:07.000Z</time>
      </trkpt>
      <trkpt lat="63.35284" lon="12.22565">
        <time>2028-02-23T19:20:45.000Z</time>
      </trkpt>
      <trkpt lat="63.35442" lon="12.24707">
        <time>2028-02-23T20:36:31.000Z</time>
      </trkpt>
      <trkpt lat="63.35691" lon="12.27565">
        <time>2028-02-23T22:18:07.000Z</time>
      </trkpt>
      <trkpt lat="63.36343" lon="12.28127">
        <time>2028-02-23T23:12:31.000Z</time>
      </trkpt>
      <trkpt lat="63.36997" lon="12.27587">
        <time>2028-02-24T00:06:47.000Z</time>
      </trkpt>
      <trkpt lat="63.37723" lon="12.27709">
        <time>2028-02-24T01:03:27.000Z</time>
      </trkpt>
      <trkpt lat="63.38475" lon="12.27003">
        <time>2028-02-24T02:06:56.000Z</time>
      </trkpt>
      <trkpt lat="63.39085" lon="12.26024">
        <time>2028-02-24T03:05:24.000Z</time>
      </trkpt>
      <trkpt lat="63.39685" lon="12.24945">
        <time>2028-02-24T04:05:21.000Z</time>
      </trkpt>
      <trkpt lat="63.40283" lon="12.23862">
        <time>2028-02-24T05:05:16.000Z</time>
      </trkpt>
      <trkpt lat="63.40975" lon="12.2322">
        <time>2028-02-24T06:03:35.000Z</time>
      </trkpt>
      <trkpt lat="63.41601" lon="12.22658">
        <time>2028-02-24T06:56:05.000Z</time>
      </trkpt>
      <trkpt lat="63.42127" lon="12.22089">
        <time>2028-02-24T07:41:33.000Z</time>
      </trkpt>
      <trkpt lat="63.42574" lon="12.21578">
        <time>2028-02-24T08:20:38.000Z</time>
      </trkpt>
      <trkpt lat="63.43041" lon="12.22111">
        <time>2028-02-24T09:01:26.000Z</time>
      </trkpt>
      <trkpt lat="63.43563" lon="12.23615">
        <time>2028-02-24T10:07:41.000Z</time>
      </trkpt>
      <trkpt lat="63.44216" lon="12.23915">
        <time>2028-02-24T10:59:34.000Z</time>
      </trkpt>
      <trkpt lat="63.44896" lon="12.24048">
        <time>2028-02-24T11:52:41.000Z</time>
      </trkpt>
      <trkpt lat="63.45712" lon="12.2414">
        <time>2028-02-24T12:56:16.000Z</time>
      </trkpt>
      <trkpt lat="63.46364" lon="12.24211">
        <time>2028-02-24T13:47:04.000Z</time>
      </trkpt>
      <trkpt lat="63.46981" lon="12.24383">
        <time>2028-02-24T14:35:27.000Z</time>
      </trkpt>
      <trkpt lat="63.47885" lon="12.24909">
        <time>2028-02-24T15:48:09.000Z</time>
      </trkpt>
      <trkpt lat="63.48639" lon="12.24939">
        <time>2028-02-24T16:46:50.000Z</time>
      </trkpt>
      <trkpt lat="63.49265" lon="12.24437">
        <time>2028-02-24T17:38:34.000Z</time>
      </trkpt>
      <trkpt lat="63.4993" lon="12.23761">
        <time>2028-02-24T18:35:24.000Z</time>
      </trkpt>
      <trkpt lat="63.50619" lon="12.23583">
        <time>2028-02-24T19:29:22.000Z</time>
      </trkpt>
      <trkpt lat="63.50995" lon="12.23799">
        <time>2028-02-24T19:59:35.000Z</time>
      </trkpt>
      <trkpt lat="63.51766" lon="12.24192">
        <time>2028-02-24T21:01:06.000Z</time>
      </trkpt>
      <trkpt lat="63.52557" lon="12.24587">
        <time>2028-02-24T22:04:10.000Z</time>
      </trkpt>
      <trkpt lat="63.53048" lon="12.24829">
        <time>2028-02-24T22:43:18.000Z</time>
      </trkpt>
      <trkpt lat="63.53786" lon="12.25694">
        <time>2028-02-24T23:48:05.000Z</time>
      </trkpt>
      <trkpt lat="63.54689" lon="12.26097">
        <time>2028-02-25T00:59:44.000Z</time>
      </trkpt>
      <trkpt lat="63.55299" lon="12.26338">
        <time>2028-02-25T01:47:56.000Z</time>
      </trkpt>
      <trkpt lat="63.55859" lon="12.26767">
        <time>2028-02-25T02:33:59.000Z</time>
      </trkpt>
      <trkpt lat="63.56441" lon="12.26863">
        <time>2028-02-25T03:19:24.000Z</time>
      </trkpt>
      <trkpt lat="63.56997" lon="12.26567">
        <time>2028-02-25T04:03:52.000Z</time>
      </trkpt>
      <trkpt lat="63.57649" lon="12.2693">
        <time>2028-02-25T04:56:08.000Z</time>
      </trkpt>
      <trkpt lat="63.58387" lon="12.272">
        <time>2028-02-25T05:54:19.000Z</time>
      </trkpt>
      <trkpt lat="63.58884" lon="12.27745">
        <time>2028-02-25T06:37:21.000Z</time>
      </trkpt>
      <trkpt lat="63.59002" lon="12.29192">
        <time>2028-02-25T07:28:17.000Z</time>
      </trkpt>
      <trkpt lat="63.59186" lon="12.30966">
        <time>2028-02-25T08:31:20.000Z</time>
      </trkpt>
      <trkpt lat="63.59447" lon="12.32277">
        <time>2028-02-25T09:21:02.000Z</time>
      </trkpt>
      <trkpt lat="63.59828" lon="12.33256">
        <time>2028-02-25T10:06:04.000Z</time>
      </trkpt>
      <trkpt lat="63.6015" lon="12.34015">
        <time>2028-02-25T10:42:22.000Z</time>
      </trkpt>
      <trkpt lat="63.60306" lon="12.35524">
        <time>2028-02-25T11:35:58.000Z</time>
      </trkpt>
      <trkpt lat="63.60541" lon="12.3717">
        <time>2028-02-25T12:35:46.000Z</time>
      </trkpt>
      <trkpt lat="63.60592" lon="12.37809">
        <time>2028-02-25T12:58:14.000Z</time>
      </trkpt>
      <trkpt lat="63.60795" lon="12.3897">
        <time>2028-02-25T13:41:23.000Z</time>
      </trkpt>
      <trkpt lat="63.61514" lon="12.39957">
        <time>2028-02-25T14:46:56.000Z</time>
      </trkpt>
      <trkpt lat="63.61939" lon="12.41888">
        <time>2028-02-25T16:01:27.000Z</time>
      </trkpt>
      <trkpt lat="63.62611" lon="12.43375">
        <time>2028-02-25T17:14:47.000Z</time>
      </trkpt>
      <trkpt lat="63.62647" lon="12.44476">
        <time>2028-02-25T17:52:57.000Z</time>
      </trkpt>
      <trkpt lat="63.62529" lon="12.45761">
        <time>2028-02-25T18:38:19.000Z</time>
      </trkpt>
      <trkpt lat="63.62604" lon="12.4707">
        <time>2028-02-25T19:23:57.000Z</time>
      </trkpt>
      <trkpt lat="63.62646" lon="12.4831">
        <time>2028-02-25T20:06:56.000Z</time>
      </trkpt>
      <trkpt lat="63.62851" lon="12.49881">
        <time>2028-02-25T21:03:32.000Z</time>
      </trkpt>
      <trkpt lat="63.63389" lon="12.51076">
        <time>2028-02-25T22:02:21.000Z</time>
      </trkpt>
      <trkpt lat="63.63602" lon="12.51456">
        <time>2028-02-25T22:23:30.000Z</time>
      </trkpt>
      <trkpt lat="63.64099" lon="12.51741">
        <time>2028-02-25T23:03:24.000Z</time>
      </trkpt>
      <trkpt lat="63.64711" lon="12.5207">
        <time>2028-02-25T23:52:22.000Z</time>
      </trkpt>
      <trkpt lat="63.65477" lon="12.52473">
        <time>2028-02-26T00:53:35.000Z</time>
      </trkpt>
      <trkpt lat="63.66204" lon="12.52909">
        <time>2028-02-26T01:52:08.000Z</time>
      </trkpt>
      <trkpt lat="63.66701" lon="12.53246">
        <time>2028-02-26T02:32:31.000Z</time>
      </trkpt>
      <trkpt lat="63.67198" lon="12.53866">
        <time>2028-02-26T03:16:43.000Z</time>
      </trkpt>
      <trkpt lat="63.67652" lon="12.5457">
        <time>2028-02-26T03:59:36.000Z</time>
      </trkpt>
      <trkpt lat="63.68071" lon="12.53686">
        <time>2028-02-26T04:44:15.000Z</time>
      </trkpt>
      <trkpt lat="63.68671" lon="12.52877">
        <time>2028-02-26T05:38:39.000Z</time>
      </trkpt>
      <trkpt lat="63.69242" lon="12.52454">
        <time>2028-02-26T06:25:25.000Z</time>
      </trkpt>
      <trkpt lat="63.69647" lon="12.51967">
        <time>2028-02-26T07:01:08.000Z</time>
      </trkpt>
      <trkpt lat="63.70137" lon="12.51516">
        <time>2028-02-26T07:42:19.000Z</time>
      </trkpt>
      <trkpt lat="63.70554" lon="12.5334">
        <time>2028-02-26T08:53:04.000Z</time>
      </trkpt>
      <trkpt lat="63.70976" lon="12.53879">
        <time>2028-02-26T09:30:48.000Z</time>
      </trkpt>
      <trkpt lat="63.7073" lon="12.55769">
        <time>2028-02-26T10:38:42.000Z</time>
      </trkpt>
      <trkpt lat="63.70461" lon="12.57567">
        <time>2028-02-26T11:44:08.000Z</time>
      </trkpt>
      <trkpt lat="63.70281" lon="12.58799">
        <time>2028-02-26T12:28:51.000Z</time>
      </trkpt>
      <trkpt lat="63.70189" lon="12.59661">
        <time>2028-02-26T12:59:25.000Z</time>
      </trkpt>
      <trkpt lat="63.70151" lon="12.61389">
        <time>2028-02-26T13:59:04.000Z</time>
      </trkpt>
      <trkpt lat="63.70629" lon="12.62563">
        <time>2028-02-26T14:54:03.000Z</time>
      </trkpt>
      <trkpt lat="63.70966" lon="12.62809">
        <time>2028-02-26T15:21:36.000Z</time>
      </trkpt>
      <trkpt lat="63.70395" lon="12.63773">
        <time>2028-02-26T16:17:06.000Z</time>
      </trkpt>
      <trkpt lat="63.70159" lon="12.65672">
        <time>2028-02-26T17:25:06.000Z</time>
      </trkpt>
      <trkpt lat="63.7004" lon="12.67217">
        <time>2028-02-26T18:19:10.000Z</time>
      </trkpt>
      <trkpt lat="63.69867" lon="12.68116">
        <time>2028-02-26T18:52:57.000Z</time>
      </trkpt>
      <trkpt lat="63.69879" lon="12.69515">
        <time>2028-02-26T19:41:12.000Z</time>
      </trkpt>
      <trkpt lat="63.69839" lon="12.70659">
        <time>2028-02-26T20:20:47.000Z</time>
      </trkpt>
      <trkpt lat="63.69891" lon="12.71457">
        <time>2028-02-26T20:48:35.000Z</time>
      </trkpt>
      <trkpt lat="63.69916" lon="12.72401">
        <time>2028-02-26T21:21:12.000Z</time>
      </trkpt>
      <trkpt lat="63.70017" lon="12.7303">
        <time>2028-02-26T21:44:16.000Z</time>
      </trkpt>
      <trkpt lat="63.70125" lon="12.73742">
        <time>2028-02-26T22:10:13.000Z</time>
      </trkpt>
      <trkpt lat="63.70069" lon="12.75369">
        <time>2028-02-26T23:06:29.000Z</time>
      </trkpt>
      <trkpt lat="63.7016" lon="12.76366">
        <time>2028-02-26T23:41:35.000Z</time>
      </trkpt>
      <trkpt lat="63.7024" lon="12.77607">
        <time>2028-02-27T00:24:49.000Z</time>
      </trkpt>
      <trkpt lat="63.70185" lon="12.78405">
        <time>2028-02-27T00:52:39.000Z</time>
      </trkpt>
      <trkpt lat="63.7039" lon="12.78879">
        <time>2028-02-27T01:15:30.000Z</time>
      </trkpt>
      <trkpt lat="63.70836" lon="12.7975">
        <time>2028-02-27T02:01:23.000Z</time>
      </trkpt>
      <trkpt lat="63.71242" lon="12.80368">
        <time>2028-02-27T02:39:30.000Z</time>
      </trkpt>
      <trkpt lat="63.71688" lon="12.81602">
        <time>2028-02-27T03:34:23.000Z</time>
      </trkpt>
      <trkpt lat="63.72179" lon="12.82763">
        <time>2028-02-27T04:29:42.000Z</time>
      </trkpt>
      <trkpt lat="63.72612" lon="12.84192">
        <time>2028-02-27T05:29:22.000Z</time>
      </trkpt>
      <trkpt lat="63.72577" lon="12.85372">
        <time>2028-02-27T06:10:06.000Z</time>
      </trkpt>
      <trkpt lat="63.72452" lon="12.86883">
        <time>2028-02-27T07:03:03.000Z</time>
      </trkpt>
      <trkpt lat="63.72385" lon="12.87602">
        <time>2028-02-27T07:28:22.000Z</time>
      </trkpt>
      <trkpt lat="63.72317" lon="12.88619">
        <time>2028-02-27T08:03:48.000Z</time>
      </trkpt>
      <trkpt lat="63.71888" lon="12.90065">
        <time>2028-02-27T09:03:47.000Z</time>
      </trkpt>
      <trkpt lat="63.71547" lon="12.91136">
        <time>2028-02-27T09:49:14.000Z</time>
      </trkpt>
      <trkpt lat="63.7143" lon="12.91857">
        <time>2028-02-27T10:15:42.000Z</time>
      </trkpt>
      <trkpt lat="63.71332" lon="12.93041">
        <time>2028-02-27T10:57:12.000Z</time>
      </trkpt>
      <trkpt lat="63.7106" lon="12.94496">
        <time>2028-02-27T11:51:38.000Z</time>
      </trkpt>
      <trkpt lat="63.7045" lon="12.95013">
        <time>2028-02-27T12:42:21.000Z</time>
      </trkpt>
      <trkpt lat="63.7014" lon="12.9571">
        <time>2028-02-27T13:16:24.000Z</time>
      </trkpt>
      <trkpt lat="63.69854" lon="12.97131">
        <time>2028-02-27T14:10:13.000Z</time>
      </trkpt>
      <trkpt lat="63.70114" lon="12.98131">
        <time>2028-02-27T14:50:11.000Z</time>
      </trkpt>
      <trkpt lat="63.70572" lon="12.9938">
        <time>2028-02-27T15:46:05.000Z</time>
      </trkpt>
      <trkpt lat="63.70953" lon="13.00659">
        <time>2028-02-27T16:39:13.000Z</time>
      </trkpt>
      <trkpt lat="63.71275" lon="13.01856">
        <time>2028-02-27T17:27:29.000Z</time>
      </trkpt>
      <trkpt lat="63.71333" lon="13.03658">
        <time>2028-02-27T18:29:45.000Z</time>
      </trkpt>
      <trkpt lat="63.71319" lon="13.05257">
        <time>2028-02-27T19:24:52.000Z</time>
      </trkpt>
      <trkpt lat="63.71297" lon="13.06849">
        <time>2028-02-27T20:19:46.000Z</time>
      </trkpt>
      <trkpt lat="63.71217" lon="13.08109">
        <time>2028-02-27T21:03:38.000Z</time>
      </trkpt>
      <trkpt lat="63.71077" lon="13.09192">
        <time>2028-02-27T21:42:31.000Z</time>
      </trkpt>
      <trkpt lat="63.7076" lon="13.10319">
        <time>2028-02-27T22:28:32.000Z</time>
      </trkpt>
      <trkpt lat="63.7062" lon="13.11928">
        <time>2028-02-27T23:25:04.000Z</time>
      </trkpt>
      <trkpt lat="63.70787" lon="13.13636">
        <time>2028-02-28T00:25:21.000Z</time>
      </trkpt>
      <trkpt lat="63.70795" lon="13.15271">
        <time>2028-02-28T01:21:43.000Z</time>
      </trkpt>
      <trkpt lat="63.70832" lon="13.16885">
        <time>2028-02-28T02:17:26.000Z</time>
      </trkpt>
      <trkpt lat="63.71334" lon="13.18428">
        <time>2028-02-28T03:23:25.000Z</time>
      </trkpt>
      <trkpt lat="63.71673" lon="13.19756">
        <time>2028-02-28T04:16:15.000Z</time>
      </trkpt>
      <trkpt lat="63.71616" lon="13.21069">
        <time>2028-02-28T05:01:42.000Z</time>
      </trkpt>
      <trkpt lat="63.71488" lon="13.2249">
        <time>2028-02-28T05:51:41.000Z</time>
      </trkpt>
      <trkpt lat="63.70999" lon="13.23552">
        <time>2028-02-28T06:44:29.000Z</time>
      </trkpt>
      <trkpt lat="63.70571" lon="13.247">
        <time>2028-02-28T07:36:12.000Z</time>
      </trkpt>
      <trkpt lat="63.70188" lon="13.25929">
        <time>2028-02-28T08:28:00.000Z</time>
      </trkpt>
      <trkpt lat="63.6989" lon="13.27212">
        <time>2028-02-28T09:17:57.000Z</time>
      </trkpt>
      <trkpt lat="63.69603" lon="13.28431">
        <time>2028-02-28T10:05:33.000Z</time>
      </trkpt>
      <trkpt lat="63.69237" lon="13.29678">
        <time>2028-02-28T10:57:08.000Z</time>
      </trkpt>
      <trkpt lat="63.6861" lon="13.30669">
        <time>2028-02-28T11:56:43.000Z</time>
      </trkpt>
      <trkpt lat="63.6815" lon="13.31478">
        <time>2028-02-28T12:42:06.000Z</time>
      </trkpt>
      <trkpt lat="63.68074" lon="13.3245">
        <time>2028-02-28T13:16:09.000Z</time>
      </trkpt>
      <trkpt lat="63.68276" lon="13.33435">
        <time>2028-02-28T13:53:36.000Z</time>
      </trkpt>
      <trkpt lat="63.68422" lon="13.34894">
        <time>2028-02-28T14:45:12.000Z</time>
      </trkpt>
      <trkpt lat="63.68545" lon="13.36192">
        <time>2028-02-28T15:31:00.000Z</time>
      </trkpt>
      <trkpt lat="63.68698" lon="13.37495">
        <time>2028-02-28T16:17:30.000Z</time>
      </trkpt>
      <trkpt lat="63.68734" lon="13.38724">
        <time>2028-02-28T16:59:59.000Z</time>
      </trkpt>
      <trkpt lat="63.6888" lon="13.40368">
        <time>2028-02-28T17:57:49.000Z</time>
      </trkpt>
      <trkpt lat="63.69019" lon="13.4107">
        <time>2028-02-28T18:24:20.000Z</time>
      </trkpt>
      <trkpt lat="63.68807" lon="13.43211">
        <time>2028-02-28T19:40:00.000Z</time>
      </trkpt>
      <trkpt lat="63.68988" lon="13.44185">
        <time>2028-02-28T20:16:26.000Z</time>
      </trkpt>
      <trkpt lat="63.69276" lon="13.45653">
        <time>2028-02-28T21:11:48.000Z</time>
      </trkpt>
      <trkpt lat="63.69175" lon="13.47323">
        <time>2028-02-28T22:09:56.000Z</time>
      </trkpt>
      <trkpt lat="63.69019" lon="13.48631">
        <time>2028-02-28T22:56:39.000Z</time>
      </trkpt>
      <trkpt lat="63.68944" lon="13.5043">
        <time>2028-02-28T23:58:59.000Z</time>
      </trkpt>
      <trkpt lat="63.68785" lon="13.51324">
        <time>2028-02-29T00:32:13.000Z</time>
      </trkpt>
      <trkpt lat="63.6908" lon="13.52251">
        <time>2028-02-29T01:11:34.000Z</time>
      </trkpt>
      <trkpt lat="63.69327" lon="13.53758">
        <time>2028-02-29T02:06:59.000Z</time>
      </trkpt>
      <trkpt lat="63.69359" lon="13.55487">
        <time>2028-02-29T03:06:40.000Z</time>
      </trkpt>
      <trkpt lat="63.6929" lon="13.56809">
        <time>2028-02-29T03:52:35.000Z</time>
      </trkpt>
      <trkpt lat="63.6916" lon="13.57611">
        <time>2028-02-29T04:22:02.000Z</time>
      </trkpt>
      <trkpt lat="63.69112" lon="13.59257">
        <time>2028-02-29T05:18:56.000Z</time>
      </trkpt>
      <trkpt lat="63.69566" lon="13.60759">
        <time>2028-02-29T06:21:38.000Z</time>
      </trkpt>
      <trkpt lat="63.69559" lon="13.62553">
        <time>2028-02-29T07:23:30.000Z</time>
      </trkpt>
      <trkpt lat="63.69932" lon="13.62624">
        <time>2028-02-29T07:52:38.000Z</time>
      </trkpt>
      <trkpt lat="63.70124" lon="13.61206">
        <time>2028-02-29T08:43:45.000Z</time>
      </trkpt>
      <trkpt lat="63.706" lon="13.60682">
        <time>2028-02-29T09:24:58.000Z</time>
      </trkpt>
      <trkpt lat="63.71283" lon="13.60744">
        <time>2028-02-29T10:18:10.000Z</time>
      </trkpt>
      <trkpt lat="63.71577" lon="13.61083">
        <time>2028-02-29T10:43:51.000Z</time>
      </trkpt>
      <trkpt lat="63.72239" lon="13.61663">
        <time>2028-02-29T11:39:06.000Z</time>
      </trkpt>
      <trkpt lat="63.72586" lon="13.6201">
        <time>2028-02-29T12:08:38.000Z</time>
      </trkpt>
      <trkpt lat="63.72897" lon="13.61985">
        <time>2028-02-29T12:32:51.000Z</time>
      </trkpt>
      <trkpt lat="63.7344" lon="13.62034">
        <time>2028-02-29T13:15:09.000Z</time>
      </trkpt>
      <trkpt lat="63.7395" lon="13.62607">
        <time>2028-02-29T13:59:28.000Z</time>
      </trkpt>
      <trkpt lat="63.74535" lon="13.63006">
        <time>2028-02-29T14:47:01.000Z</time>
      </trkpt>
      <trkpt lat="63.7486" lon="13.64087">
        <time>2028-02-29T15:32:01.000Z</time>
      </trkpt>
      <trkpt lat="63.74942" lon="13.65135">
        <time>2028-02-29T16:08:39.000Z</time>
      </trkpt>
      <trkpt lat="63.75431" lon="13.66074">
        <time>2028-02-29T16:58:34.000Z</time>
      </trkpt>
      <trkpt lat="63.75192" lon="13.67596">
        <time>2028-02-29T17:54:09.000Z</time>
      </trkpt>
      <trkpt lat="63.74929" lon="13.69334">
        <time>2028-02-29T18:57:23.000Z</time>
      </trkpt>
      <trkpt lat="63.74685" lon="13.70913">
        <time>2028-02-29T19:54:57.000Z</time>
      </trkpt>
      <trkpt lat="63.74297" lon="13.73231">
        <time>2028-02-29T21:20:16.000Z</time>
      </trkpt>
      <trkpt lat="63.74762" lon="13.74584">
        <time>2028-02-29T22:19:15.000Z</time>
      </trkpt>
      <trkpt lat="63.75048" lon="13.76078">
        <time>2028-02-29T23:15:17.000Z</time>
      </trkpt>
      <trkpt lat="63.753" lon="13.77299">
        <time>2028-03-01T00:01:40.000Z</time>
      </trkpt>
      <trkpt lat="63.75778" lon="13.77814">
        <time>2028-03-01T00:42:52.000Z</time>
      </trkpt>
      <trkpt lat="63.76205" lon="13.78601">
        <time>2028-03-01T01:25:44.000Z</time>
      </trkpt>
      <trkpt lat="63.76411" lon="13.79758">
        <time>2028-03-01T02:08:39.000Z</time>
      </trkpt>
      <trkpt lat="63.76785" lon="13.80715">
        <time>2028-03-01T02:52:35.000Z</time>
      </trkpt>
      <trkpt lat="63.77174" lon="13.81809">
        <time>2028-03-01T03:40:53.000Z</time>
      </trkpt>
      <trkpt lat="63.77536" lon="13.82904">
        <time>2028-03-01T04:27:54.000Z</time>
      </trkpt>
      <trkpt lat="63.78006" lon="13.82635">
        <time>2028-03-01T05:05:38.000Z</time>
      </trkpt>
      <trkpt lat="63.78621" lon="13.83258">
        <time>2028-03-01T05:58:04.000Z</time>
      </trkpt>
      <trkpt lat="63.7922" lon="13.83792">
        <time>2028-03-01T06:48:10.000Z</time>
      </trkpt>
      <trkpt lat="63.80003" lon="13.83532">
        <time>2028-03-01T07:49:45.000Z</time>
      </trkpt>
      <trkpt lat="63.80367" lon="13.83575">
        <time>2028-03-01T08:18:07.000Z</time>
      </trkpt>
      <trkpt lat="63.81097" lon="13.83004">
        <time>2028-03-01T09:18:13.000Z</time>
      </trkpt>
      <trkpt lat="63.8189" lon="13.83045">
        <time>2028-03-01T10:19:57.000Z</time>
      </trkpt>
      <trkpt lat="63.82288" lon="13.84112">
        <time>2028-03-01T11:07:55.000Z</time>
      </trkpt>
      <trkpt lat="63.82624" lon="13.8588">
        <time>2028-03-01T12:14:00.000Z</time>
      </trkpt>
      <trkpt lat="63.83152" lon="13.86968">
        <time>2028-03-01T13:09:31.000Z</time>
      </trkpt>
      <trkpt lat="63.83856" lon="13.87682">
        <time>2028-03-01T14:09:32.000Z</time>
      </trkpt>
      <trkpt lat="63.84711" lon="13.87798">
        <time>2028-03-01T15:16:12.000Z</time>
      </trkpt>
      <trkpt lat="63.85471" lon="13.87614">
        <time>2028-03-01T16:15:40.000Z</time>
      </trkpt>
      <trkpt lat="63.85757" lon="13.87483">
        <time>2028-03-01T16:38:23.000Z</time>
      </trkpt>
      <trkpt lat="63.86579" lon="13.87341">
        <time>2028-03-01T17:42:32.000Z</time>
      </trkpt>
      <trkpt lat="63.87377" lon="13.86882">
        <time>2028-03-01T18:46:36.000Z</time>
      </trkpt>
      <trkpt lat="63.88088" lon="13.86">
        <time>2028-03-01T19:49:38.000Z</time>
      </trkpt>
      <trkpt lat="63.88791" lon="13.85504">
        <time>2028-03-01T20:46:56.000Z</time>
      </trkpt>
      <trkpt lat="63.89063" lon="13.85861">
        <time>2028-03-01T21:11:22.000Z</time>
      </trkpt>
      <trkpt lat="63.89599" lon="13.86534">
        <time>2028-03-01T21:59:02.000Z</time>
      </trkpt>
      <trkpt lat="63.90272" lon="13.86474">
        <time>2028-03-01T22:51:26.000Z</time>
      </trkpt>
      <trkpt lat="63.90898" lon="13.86678">
        <time>2028-03-01T23:40:39.000Z</time>
      </trkpt>
      <trkpt lat="63.91688" lon="13.86809">
        <time>2028-03-02T00:42:18.000Z</time>
      </trkpt>
      <trkpt lat="63.92557" lon="13.87367">
        <time>2028-03-02T01:52:34.000Z</time>
      </trkpt>
      <trkpt lat="63.9313" lon="13.89154">
        <time>2028-03-02T03:08:13.000Z</time>
      </trkpt>
      <trkpt lat="63.93774" lon="13.89667">
        <time>2028-03-02T04:01:19.000Z</time>
      </trkpt>
      <trkpt lat="63.94095" lon="13.90124">
        <time>2028-03-02T04:30:47.000Z</time>
      </trkpt>
      <trkpt lat="63.94437" lon="13.91665">
        <time>2028-03-02T05:29:48.000Z</time>
      </trkpt>
      <trkpt lat="63.95657" lon="13.93225">
        <time>2028-03-02T07:18:41.000Z</time>
      </trkpt>
      <trkpt lat="63.95913" lon="13.94888">
        <time>2028-03-02T08:18:54.000Z</time>
      </trkpt>
      <trkpt lat="63.96582" lon="13.94658">
        <time>2028-03-02T09:11:33.000Z</time>
      </trkpt>
      <trkpt lat="63.97066" lon="13.95186">
        <time>2028-03-02T09:53:18.000Z</time>
      </trkpt>
      <trkpt lat="63.97476" lon="13.96182">
        <time>2028-03-02T10:39:56.000Z</time>
      </trkpt>
      <trkpt lat="63.97905" lon="13.97106">
        <time>2028-03-02T11:25:52.000Z</time>
      </trkpt>
      <trkpt lat="63.98646" lon="13.97179">
        <time>2028-03-02T12:23:36.000Z</time>
      </trkpt>
      <trkpt lat="63.99342" lon="13.98278">
        <time>2028-03-02T13:29:28.000Z</time>
      </trkpt>
      <trkpt lat="63.99762" lon="13.98701">
        <time>2028-03-02T14:05:12.000Z</time>
      </trkpt>
      <trkpt lat="63.99697" lon="13.99583">
        <time>2028-03-02T14:35:43.000Z</time>
      </trkpt>
      <trkpt lat="64.00058" lon="14.00263">
        <time>2028-03-02T15:12:09.000Z</time>
      </trkpt>
      <trkpt lat="64.00619" lon="14.01226">
        <time>2028-03-02T16:06:47.000Z</time>
      </trkpt>
      <trkpt lat="64.00513" lon="14.02409">
        <time>2028-03-02T16:47:58.000Z</time>
      </trkpt>
      <trkpt lat="64.00821" lon="14.02089">
        <time>2028-03-02T17:14:18.000Z</time>
      </trkpt>
      <trkpt lat="64.0132" lon="14.01437">
        <time>2028-03-02T17:59:03.000Z</time>
      </trkpt>
      <trkpt lat="64.01782" lon="14.01471">
        <time>2028-03-02T18:35:01.000Z</time>
      </trkpt>
      <trkpt lat="64.02102" lon="14.02924">
        <time>2028-03-02T19:30:28.000Z</time>
      </trkpt>
      <trkpt lat="64.02479" lon="14.03924">
        <time>2028-03-02T20:15:26.000Z</time>
      </trkpt>
      <trkpt lat="64.02474" lon="14.05237">
        <time>2028-03-02T21:00:12.000Z</time>
      </trkpt>
      <trkpt lat="64.02758" lon="14.07393">
        <time>2028-03-02T22:16:56.000Z</time>
      </trkpt>
      <trkpt lat="64.03038" lon="14.08666">
        <time>2028-03-02T23:05:28.000Z</time>
      </trkpt>
      <trkpt lat="64.04178" lon="14.09337">
        <time>2028-03-03T00:37:05.000Z</time>
      </trkpt>
      <trkpt lat="64.04763" lon="14.10288">
        <time>2028-03-03T01:32:58.000Z</time>
      </trkpt>
      <trkpt lat="64.0504" lon="14.11893">
        <time>2028-03-03T02:31:43.000Z</time>
      </trkpt>
      <trkpt lat="64.05622" lon="14.12972">
        <time>2028-03-03T03:30:02.000Z</time>
      </trkpt>
      <trkpt lat="64.06299" lon="14.13661">
        <time>2028-03-03T04:27:42.000Z</time>
      </trkpt>
      <trkpt lat="64.06697" lon="14.14135">
        <time>2028-03-03T05:02:37.000Z</time>
      </trkpt>
      <trkpt lat="64.06947" lon="14.13661">
        <time>2028-03-03T05:27:54.000Z</time>
      </trkpt>
      <trkpt lat="64.07093" lon="14.145">
        <time>2028-03-03T05:58:37.000Z</time>
      </trkpt>
      <trkpt lat="64.07138" lon="14.157">
        <time>2028-03-03T06:39:36.000Z</time>
      </trkpt>
      <trkpt lat="64.07468" lon="14.16197">
        <time>2028-03-03T07:10:21.000Z</time>
      </trkpt>
      <trkpt lat="64.07598" lon="14.16828">
        <time>2028-03-03T07:34:05.000Z</time>
      </trkpt>
      <trkpt lat="64.07893" lon="14.17807">
        <time>2028-03-03T08:14:32.000Z</time>
      </trkpt>
      <trkpt lat="64.0827" lon="14.18579">
        <time>2028-03-03T08:53:55.000Z</time>
      </trkpt>
      <trkpt lat="64.08667" lon="14.19242">
        <time>2028-03-03T09:32:10.000Z</time>
      </trkpt>
      <trkpt lat="64.09078" lon="14.19603">
        <time>2028-03-03T10:06:25.000Z</time>
      </trkpt>
      <trkpt lat="64.09459" lon="14.20075">
        <time>2028-03-03T10:40:08.000Z</time>
      </trkpt>
      <trkpt lat="64.10064" lon="14.20579">
        <time>2028-03-03T11:30:14.000Z</time>
      </trkpt>
      <trkpt lat="64.1064" lon="14.21298">
        <time>2028-03-03T12:21:17.000Z</time>
      </trkpt>
      <trkpt lat="64.11374" lon="14.21618">
        <time>2028-03-03T13:19:26.000Z</time>
      </trkpt>
      <trkpt lat="64.11796" lon="14.21025">
        <time>2028-03-03T13:57:58.000Z</time>
      </trkpt>
      <trkpt lat="64.12435" lon="14.20746">
        <time>2028-03-03T14:48:35.000Z</time>
      </trkpt>
      <trkpt lat="64.1301" lon="14.198">
        <time>2028-03-03T15:43:40.000Z</time>
      </trkpt>
      <trkpt lat="64.1352" lon="14.19755">
        <time>2028-03-03T16:23:23.000Z</time>
      </trkpt>
      <trkpt lat="64.14055" lon="14.2048">
        <time>2028-03-03T17:11:45.000Z</time>
      </trkpt>
      <trkpt lat="64.14443" lon="14.21347">
        <time>2028-03-03T17:53:55.000Z</time>
      </trkpt>
      <trkpt lat="64.14644" lon="14.22332">
        <time>2028-03-03T18:30:49.000Z</time>
      </trkpt>
      <trkpt lat="64.14906" lon="14.23403">
        <time>2028-03-03T19:12:29.000Z</time>
      </trkpt>
      <trkpt lat="64.15397" lon="14.24044">
        <time>2028-03-03T19:56:27.000Z</time>
      </trkpt>
      <trkpt lat="64.15616" lon="14.25019">
        <time>2028-03-03T20:33:40.000Z</time>
      </trkpt>
      <trkpt lat="64.16266" lon="14.24849">
        <time>2028-03-03T21:24:35.000Z</time>
      </trkpt>
      <trkpt lat="64.16948" lon="14.2536">
        <time>2028-03-03T22:20:25.000Z</time>
      </trkpt>
      <trkpt lat="64.1749" lon="14.25182">
        <time>2028-03-03T23:03:01.000Z</time>
      </trkpt>
      <trkpt lat="64.18034" lon="14.24944">
        <time>2028-03-03T23:46:07.000Z</time>
      </trkpt>
      <trkpt lat="64.18614" lon="14.25293">
        <time>2028-03-04T00:32:46.000Z</time>
      </trkpt>
      <trkpt lat="64.19035" lon="14.25604">
        <time>2028-03-04T01:07:11.000Z</time>
      </trkpt>
      <trkpt lat="64.19833" lon="14.25838">
        <time>2028-03-04T02:09:48.000Z</time>
      </trkpt>
      <trkpt lat="64.20556" lon="14.26804">
        <time>2028-03-04T03:14:53.000Z</time>
      </trkpt>
      <trkpt lat="64.20792" lon="14.27248">
        <time>2028-03-04T03:38:37.000Z</time>
      </trkpt>
      <trkpt lat="64.21593" lon="14.27692">
        <time>2028-03-04T04:42:44.000Z</time>
      </trkpt>
      <trkpt lat="64.22345" lon="14.28139">
        <time>2028-03-04T05:43:11.000Z</time>
      </trkpt>
      <trkpt lat="64.23227" lon="14.28896">
        <time>2028-03-04T06:56:26.000Z</time>
      </trkpt>
      <trkpt lat="64.23546" lon="14.29673">
        <time>2028-03-04T07:32:36.000Z</time>
      </trkpt>
      <trkpt lat="64.24222" lon="14.30686">
        <time>2028-03-04T08:35:22.000Z</time>
      </trkpt>
      <trkpt lat="64.24566" lon="14.31904">
        <time>2028-03-04T09:24:30.000Z</time>
      </trkpt>
      <trkpt lat="64.24774" lon="14.33175">
        <time>2028-03-04T10:10:25.000Z</time>
      </trkpt>
      <trkpt lat="64.25491" lon="14.33861">
        <time>2028-03-04T11:10:51.000Z</time>
      </trkpt>
      <trkpt lat="64.25992" lon="14.34172">
        <time>2028-03-04T11:51:14.000Z</time>
      </trkpt>
      <trkpt lat="64.26449" lon="14.35082">
        <time>2028-03-04T12:38:15.000Z</time>
      </trkpt>
      <trkpt lat="64.26481" lon="14.36172">
        <time>2028-03-04T13:15:10.000Z</time>
      </trkpt>
      <trkpt lat="64.26255" lon="14.37162">
        <time>2028-03-04T13:52:57.000Z</time>
      </trkpt>
      <trkpt lat="64.26025" lon="14.37837">
        <time>2028-03-04T14:21:57.000Z</time>
      </trkpt>
      <trkpt lat="64.26071" lon="14.39121">
        <time>2028-03-04T15:05:29.000Z</time>
      </trkpt>
      <trkpt lat="64.26371" lon="14.39942">
        <time>2028-03-04T15:41:45.000Z</time>
      </trkpt>
      <trkpt lat="64.2683" lon="14.40608">
        <time>2028-03-04T16:23:58.000Z</time>
      </trkpt>
      <trkpt lat="64.27046" lon="14.41498">
        <time>2028-03-04T16:58:25.000Z</time>
      </trkpt>
      <trkpt lat="64.27158" lon="14.42337">
        <time>2028-03-04T17:28:04.000Z</time>
      </trkpt>
      <trkpt lat="64.27666" lon="14.40588">
        <time>2028-03-04T18:39:09.000Z</time>
      </trkpt>
      <trkpt lat="64.2834" lon="14.40363">
        <time>2028-03-04T19:32:09.000Z</time>
      </trkpt>
      <trkpt lat="64.28585" lon="14.40809">
        <time>2028-03-04T19:56:27.000Z</time>
      </trkpt>
      <trkpt lat="64.29159" lon="14.40874">
        <time>2028-03-04T20:41:11.000Z</time>
      </trkpt>
      <trkpt lat="64.29734" lon="14.40088">
        <time>2028-03-04T21:33:12.000Z</time>
      </trkpt>
      <trkpt lat="64.30094" lon="14.39161">
        <time>2028-03-04T22:15:11.000Z</time>
      </trkpt>
      <trkpt lat="64.30402" lon="14.38588">
        <time>2028-03-04T22:45:59.000Z</time>
      </trkpt>
      <trkpt lat="64.3079" lon="14.38537">
        <time>2028-03-04T23:16:14.000Z</time>
      </trkpt>
      <trkpt lat="64.3135" lon="14.38638">
        <time>2028-03-04T23:59:57.000Z</time>
      </trkpt>
      <trkpt lat="64.31775" lon="14.3897">
        <time>2028-03-05T00:34:52.000Z</time>
      </trkpt>
      <trkpt lat="64.32358" lon="14.39676">
        <time>2028-03-05T01:26:06.000Z</time>
      </trkpt>
      <trkpt lat="64.33144" lon="14.41135">
        <time>2028-03-05T02:44:35.000Z</time>
      </trkpt>
      <trkpt lat="64.34487" lon="14.39812">
        <time>2028-03-05T04:38:13.000Z</time>
      </trkpt>
      <trkpt lat="64.34937" lon="14.40142">
        <time>2028-03-05T05:14:57.000Z</time>
      </trkpt>
      <trkpt lat="64.35503" lon="14.40588">
        <time>2028-03-05T06:01:30.000Z</time>
      </trkpt>
      <trkpt lat="64.36333" lon="14.39651">
        <time>2028-03-05T07:13:23.000Z</time>
      </trkpt>
      <trkpt lat="64.37137" lon="14.38599">
        <time>2028-03-05T08:25:17.000Z</time>
      </trkpt>
      <trkpt lat="64.37367" lon="14.37676">
        <time>2028-03-05T09:01:08.000Z</time>
      </trkpt>
      <trkpt lat="64.37758" lon="14.3646">
        <time>2028-03-05T09:52:08.000Z</time>
      </trkpt>
      <trkpt lat="64.38118" lon="14.35346">
        <time>2028-03-05T10:38:56.000Z</time>
      </trkpt>
      <trkpt lat="64.38373" lon="14.34778">
        <time>2028-03-05T11:06:29.000Z</time>
      </trkpt>
      <trkpt lat="64.38934" lon="14.33436">
        <time>2028-03-05T12:09:17.000Z</time>
      </trkpt>
      <trkpt lat="64.39538" lon="14.32314">
        <time>2028-03-05T13:09:34.000Z</time>
      </trkpt>
      <trkpt lat="64.40222" lon="14.31207">
        <time>2028-03-05T14:14:31.000Z</time>
      </trkpt>
      <trkpt lat="64.40835" lon="14.2989">
        <time>2028-03-05T15:19:36.000Z</time>
      </trkpt>
      <trkpt lat="64.41436" lon="14.28495">
        <time>2028-03-05T16:25:49.000Z</time>
      </trkpt>
      <trkpt lat="64.41571" lon="14.26591">
        <time>2028-03-05T17:30:40.000Z</time>
      </trkpt>
      <trkpt lat="64.41969" lon="14.24832">
        <time>2028-03-05T18:37:24.000Z</time>
      </trkpt>
      <trkpt lat="64.42534" lon="14.23353">
        <time>2028-03-05T19:43:45.000Z</time>
      </trkpt>
      <trkpt lat="64.43097" lon="14.21839">
        <time>2028-03-05T20:50:53.000Z</time>
      </trkpt>
      <trkpt lat="64.43578" lon="14.19978">
        <time>2028-03-05T22:03:44.000Z</time>
      </trkpt>
      <trkpt lat="64.44099" lon="14.18384">
        <time>2028-03-05T23:10:52.000Z</time>
      </trkpt>
      <trkpt lat="64.44684" lon="14.17174">
        <time>2028-03-06T00:11:53.000Z</time>
      </trkpt>
      <trkpt lat="64.45088" lon="14.15663">
        <time>2028-03-06T01:11:34.000Z</time>
      </trkpt>
      <trkpt lat="64.4528" lon="14.1479">
        <time>2028-03-06T01:44:27.000Z</time>
      </trkpt>
      <trkpt lat="64.45668" lon="14.14491">
        <time>2028-03-06T02:16:16.000Z</time>
      </trkpt>
      <trkpt lat="64.45964" lon="14.14067">
        <time>2028-03-06T02:43:20.000Z</time>
      </trkpt>
      <trkpt lat="64.46333" lon="14.13689">
        <time>2028-03-06T03:14:44.000Z</time>
      </trkpt>
      <trkpt lat="64.46775" lon="14.12904">
        <time>2028-03-06T03:58:03.000Z</time>
      </trkpt>
      <trkpt lat="64.47411" lon="14.11522">
        <time>2028-03-06T05:05:52.000Z</time>
      </trkpt>
      <trkpt lat="64.47983" lon="14.11612">
        <time>2028-03-06T05:50:28.000Z</time>
      </trkpt>
      <trkpt lat="64.4831" lon="14.12013">
        <time>2028-03-06T06:19:15.000Z</time>
      </trkpt>
      <trkpt lat="64.4859" lon="14.11088">
        <time>2028-03-06T06:57:09.000Z</time>
      </trkpt>
      <trkpt lat="64.48895" lon="14.10408">
        <time>2028-03-06T07:30:04.000Z</time>
      </trkpt>
      <trkpt lat="64.49333" lon="14.1141">
        <time>2028-03-06T08:17:54.000Z</time>
      </trkpt>
      <trkpt lat="64.49909" lon="14.10567">
        <time>2028-03-06T09:10:53.000Z</time>
      </trkpt>
      <trkpt lat="64.50242" lon="14.11595">
        <time>2028-03-06T09:53:59.000Z</time>
      </trkpt>
      <trkpt lat="64.50535" lon="14.13472">
        <time>2028-03-06T11:00:52.000Z</time>
      </trkpt>
      <trkpt lat="64.50674" lon="14.14474">
        <time>2028-03-06T11:36:08.000Z</time>
      </trkpt>
      <trkpt lat="64.5033" lon="14.15103">
        <time>2028-03-06T12:10:12.000Z</time>
      </trkpt>
      <trkpt lat="64.5085" lon="14.15193">
        <time>2028-03-06T12:50:47.000Z</time>
      </trkpt>
    </trkseg>
  </trk>
</gpx>
