<?xml version="1.0" encoding="UTF-8"?>
<gpx xmlns="http://www.topografix.com/GPX/1/1" version="1.1" creator="VitaBandet section">
  <metadata>
    <name>Section 1 — Grövelsjön → Storlien</name>
    <desc>Section 1 of Vita Bandet 2028 — Grövelsjön → Storlien. Sources: lottas-och-bjorns-band-track.json.</desc>
  </metadata>
  <trk>
    <name>Section 1</name>
    <trkseg>
      <name>Grövelsjön → Helags → Blåhammaren → Storlien</name>
      <trkpt lat="62.09825" lon="12.31505">
        <time>2028-02-15T10:00:00Z</time>
      </trkpt>
      <trkpt lat="62.09915" lon="12.32247">
        <time>2028-02-15T10:28:07Z</time>
      </trkpt>
      <trkpt lat="62.10141" lon="12.33002">
        <time>2028-02-15T11:01:01Z</time>
      </trkpt>
      <trkpt lat="62.10485" lon="12.33262">
        <time>2028-02-15T11:29:37Z</time>
      </trkpt>
      <trkpt lat="62.10915" lon="12.33618">
        <time>2028-02-15T12:05:47Z</time>
      </trkpt>
      <trkpt lat="62.11335" lon="12.33902">
        <time>2028-02-15T12:40:20Z</time>
      </trkpt>
      <trkpt lat="62.11895" lon="12.35125">
        <time>2028-02-15T13:43:06Z</time>
      </trkpt>
      <trkpt lat="62.12648" lon="12.3564">
        <time>2028-02-15T14:45:06Z</time>
      </trkpt>
      <trkpt lat="62.13237" lon="12.36049">
        <time>2028-02-15T15:33:40Z</time>
      </trkpt>
      <trkpt lat="62.13772" lon="12.36208">
        <time>2028-02-15T16:16:01Z</time>
      </trkpt>
      <trkpt lat="62.14405" lon="12.36627">
        <time>2028-02-15T17:07:59Z</time>
      </trkpt>
      <trkpt lat="62.15087" lon="12.37069">
        <time>2028-02-15T18:03:52Z</time>
      </trkpt>
      <trkpt lat="62.15716" lon="12.37558">
        <time>2028-02-15T18:56:20Z</time>
      </trkpt>
      <trkpt lat="62.16562" lon="12.38043">
        <time>2028-02-15T20:05:01Z</time>
      </trkpt>
      <trkpt lat="62.17383" lon="12.38054">
        <time>2028-02-15T21:09:24Z</time>
      </trkpt>
      <trkpt lat="62.18164" lon="12.38886">
        <time>2028-02-15T22:17:48Z</time>
      </trkpt>
      <trkpt lat="62.18648" lon="12.39032">
        <time>2028-02-15T22:56:08Z</time>
      </trkpt>
      <trkpt lat="62.19279" lon="12.38757">
        <time>2028-02-15T23:46:38Z</time>
      </trkpt>
      <trkpt lat="62.20018" lon="12.38234">
        <time>2028-02-16T00:47:40Z</time>
      </trkpt>
      <trkpt lat="62.20713" lon="12.37644">
        <time>2028-02-16T01:46:17Z</time>
      </trkpt>
      <trkpt lat="62.21278" lon="12.36427">
        <time>2028-02-16T02:49:04Z</time>
      </trkpt>
      <trkpt lat="62.21683" lon="12.35376">
        <time>2028-02-16T03:38:55Z</time>
      </trkpt>
      <trkpt lat="62.22308" lon="12.34859">
        <time>2028-02-16T04:31:27Z</time>
      </trkpt>
      <trkpt lat="62.2283" lon="12.35324">
        <time>2028-02-16T05:15:46Z</time>
      </trkpt>
      <trkpt lat="62.23491" lon="12.35219">
        <time>2028-02-16T06:07:45Z</time>
      </trkpt>
      <trkpt lat="62.24085" lon="12.34818">
        <time>2028-02-16T06:56:35Z</time>
      </trkpt>
      <trkpt lat="62.24723" lon="12.34713">
        <time>2028-02-16T07:46:46Z</time>
      </trkpt>
      <trkpt lat="62.25408" lon="12.35002">
        <time>2028-02-16T08:41:30Z</time>
      </trkpt>
      <trkpt lat="62.25873" lon="12.35228">
        <time>2028-02-16T09:18:54Z</time>
      </trkpt>
      <trkpt lat="62.25895" lon="12.36303">
        <time>2028-02-16T09:58:10Z</time>
      </trkpt>
      <trkpt lat="62.26115" lon="12.37785">
        <time>2028-02-16T10:54:57Z</time>
      </trkpt>
      <trkpt lat="62.26767" lon="12.3856">
        <time>2028-02-16T11:53:23Z</time>
      </trkpt>
      <trkpt lat="62.27476" lon="12.39131">
        <time>2028-02-16T12:52:46Z</time>
      </trkpt>
      <trkpt lat="62.28049" lon="12.39744">
        <time>2028-02-16T13:42:57Z</time>
      </trkpt>
      <trkpt lat="62.28641" lon="12.40129">
        <time>2028-02-16T14:31:27Z</time>
      </trkpt>
      <trkpt lat="62.29191" lon="12.40832">
        <time>2028-02-16T15:21:38Z</time>
      </trkpt>
      <trkpt lat="62.29277" lon="12.4183">
        <time>2028-02-16T15:58:38Z</time>
      </trkpt>
      <trkpt lat="62.29485" lon="12.42676">
        <time>2028-02-16T16:33:32Z</time>
      </trkpt>
      <trkpt lat="62.30086" lon="12.4347">
        <time>2028-02-16T17:28:50Z</time>
      </trkpt>
      <trkpt lat="62.30802" lon="12.43858">
        <time>2028-02-16T18:26:45Z</time>
      </trkpt>
      <trkpt lat="62.31496" lon="12.4442">
        <time>2028-02-16T19:24:54Z</time>
      </trkpt>
      <trkpt lat="62.31985" lon="12.43834">
        <time>2028-02-16T20:08:47Z</time>
      </trkpt>
      <trkpt lat="62.32415" lon="12.42467">
        <time>2028-02-16T21:08:55Z</time>
      </trkpt>
      <trkpt lat="62.32825" lon="12.41167">
        <time>2028-02-16T22:06:09Z</time>
      </trkpt>
      <trkpt lat="62.33242" lon="12.3985">
        <time>2028-02-16T23:04:12Z</time>
      </trkpt>
      <trkpt lat="62.33659" lon="12.38562">
        <time>2028-02-17T00:01:23Z</time>
      </trkpt>
      <trkpt lat="62.34157" lon="12.37453">
        <time>2028-02-17T00:57:33Z</time>
      </trkpt>
      <trkpt lat="62.3463" lon="12.36399">
        <time>2028-02-17T01:50:55Z</time>
      </trkpt>
      <trkpt lat="62.35128" lon="12.35328">
        <time>2028-02-17T02:46:05Z</time>
      </trkpt>
      <trkpt lat="62.35518" lon="12.34562">
        <time>2028-02-17T03:27:28Z</time>
      </trkpt>
      <trkpt lat="62.36107" lon="12.34208">
        <time>2028-02-17T04:15:25Z</time>
      </trkpt>
      <trkpt lat="62.36801" lon="12.3382">
        <time>2028-02-17T05:11:39Z</time>
      </trkpt>
      <trkpt lat="62.37366" lon="12.3299">
        <time>2028-02-17T06:05:16Z</time>
      </trkpt>
      <trkpt lat="62.37775" lon="12.31745">
        <time>2028-02-17T07:00:44Z</time>
      </trkpt>
      <trkpt lat="62.38104" lon="12.30518">
        <time>2028-02-17T07:52:16Z</time>
      </trkpt>
      <trkpt lat="62.38606" lon="12.29683">
        <time>2028-02-17T08:41:59Z</time>
      </trkpt>
      <trkpt lat="62.38757" lon="12.28949">
        <time>2028-02-17T09:11:10Z</time>
      </trkpt>
      <trkpt lat="62.39133" lon="12.28462">
        <time>2028-02-17T09:45:34Z</time>
      </trkpt>
      <trkpt lat="62.39564" lon="12.2808">
        <time>2028-02-17T10:22:06Z</time>
      </trkpt>
      <trkpt lat="62.40008" lon="12.27728">
        <time>2028-02-17T10:59:12Z</time>
      </trkpt>
      <trkpt lat="62.40476" lon="12.27413">
        <time>2028-02-17T11:37:38Z</time>
      </trkpt>
      <trkpt lat="62.41072" lon="12.27578">
        <time>2028-02-17T12:24:46Z</time>
      </trkpt>
      <trkpt lat="62.41674" lon="12.27941">
        <time>2028-02-17T13:13:47Z</time>
      </trkpt>
      <trkpt lat="62.42102" lon="12.2873">
        <time>2028-02-17T13:57:54Z</time>
      </trkpt>
      <trkpt lat="62.42752" lon="12.29428">
        <time>2028-02-17T14:54:50Z</time>
      </trkpt>
      <trkpt lat="62.43195" lon="12.29556">
        <time>2028-02-17T15:29:53Z</time>
      </trkpt>
      <trkpt lat="62.43736" lon="12.2926">
        <time>2028-02-17T16:13:39Z</time>
      </trkpt>
      <trkpt lat="62.44148" lon="12.28664">
        <time>2028-02-17T16:52:31Z</time>
      </trkpt>
      <trkpt lat="62.44534" lon="12.28981">
        <time>2028-02-17T17:24:54Z</time>
      </trkpt>
      <trkpt lat="62.44845" lon="12.28348">
        <time>2028-02-17T17:58:24Z</time>
      </trkpt>
      <trkpt lat="62.45559" lon="12.28052">
        <time>2028-02-17T18:55:25Z</time>
      </trkpt>
      <trkpt lat="62.45995" lon="12.28381">
        <time>2028-02-17T19:31:38Z</time>
      </trkpt>
      <trkpt lat="62.46474" lon="12.28591">
        <time>2028-02-17T20:09:57Z</time>
      </trkpt>
      <trkpt lat="62.46743" lon="12.28417">
        <time>2028-02-17T20:31:58Z</time>
      </trkpt>
      <trkpt lat="62.47107" lon="12.28803">
        <time>2028-02-17T21:03:46Z</time>
      </trkpt>
      <trkpt lat="62.47495" lon="12.28481">
        <time>2028-02-17T21:36:21Z</time>
      </trkpt>
      <trkpt lat="62.47836" lon="12.27574">
        <time>2028-02-17T22:18:43Z</time>
      </trkpt>
      <trkpt lat="62.4829" lon="12.27245">
        <time>2028-02-17T22:56:16Z</time>
      </trkpt>
      <trkpt lat="62.48815" lon="12.2699">
        <time>2028-02-17T23:38:28Z</time>
      </trkpt>
      <trkpt lat="62.49419" lon="12.26958">
        <time>2028-02-18T00:25:51Z</time>
      </trkpt>
      <trkpt lat="62.50129" lon="12.27157">
        <time>2028-02-18T01:21:59Z</time>
      </trkpt>
      <trkpt lat="62.50901" lon="12.27462">
        <time>2028-02-18T02:23:32Z</time>
      </trkpt>
      <trkpt lat="62.51408" lon="12.28108">
        <time>2028-02-18T03:09:39Z</time>
      </trkpt>
      <trkpt lat="62.52343" lon="12.2905">
        <time>2028-02-18T04:30:31Z</time>
      </trkpt>
      <trkpt lat="62.52762" lon="12.29709">
        <time>2028-02-18T05:11:07Z</time>
      </trkpt>
      <trkpt lat="62.53124" lon="12.30979">
        <time>2028-02-18T06:05:07Z</time>
      </trkpt>
      <trkpt lat="62.53419" lon="12.31088">
        <time>2028-02-18T06:28:35Z</time>
      </trkpt>
      <trkpt lat="62.53846" lon="12.31217">
        <time>2028-02-18T07:02:24Z</time>
      </trkpt>
      <trkpt lat="62.54061" lon="12.30711">
        <time>2028-02-18T07:27:16Z</time>
      </trkpt>
      <trkpt lat="62.54436" lon="12.30895">
        <time>2028-02-18T07:57:25Z</time>
      </trkpt>
      <trkpt lat="62.54819" lon="12.30855">
        <time>2028-02-18T08:27:30Z</time>
      </trkpt>
      <trkpt lat="62.54701" lon="12.32015">
        <time>2028-02-18T09:10:26Z</time>
      </trkpt>
      <trkpt lat="62.54362" lon="12.33056">
        <time>2028-02-18T09:56:31Z</time>
      </trkpt>
      <trkpt lat="62.54189" lon="12.33663">
        <time>2028-02-18T10:22:19Z</time>
      </trkpt>
      <trkpt lat="62.54428" lon="12.34923">
        <time>2028-02-18T11:11:35Z</time>
      </trkpt>
      <trkpt lat="62.55042" lon="12.35165">
        <time>2028-02-18T12:00:32Z</time>
      </trkpt>
      <trkpt lat="62.55534" lon="12.34728">
        <time>2028-02-18T12:42:13Z</time>
      </trkpt>
      <trkpt lat="62.55826" lon="12.347">
        <time>2028-02-18T13:05:08Z</time>
      </trkpt>
      <trkpt lat="62.56528" lon="12.33736">
        <time>2028-02-18T14:10:17Z</time>
      </trkpt>
      <trkpt lat="62.57013" lon="12.33073">
        <time>2028-02-18T14:55:14Z</time>
      </trkpt>
      <trkpt lat="62.57328" lon="12.32908">
        <time>2028-02-18T15:20:39Z</time>
      </trkpt>
      <trkpt lat="62.57971" lon="12.32996">
        <time>2028-02-18T16:11:10Z</time>
      </trkpt>
      <trkpt lat="62.58668" lon="12.32987">
        <time>2028-02-18T17:05:50Z</time>
      </trkpt>
      <trkpt lat="62.59193" lon="12.32829">
        <time>2028-02-18T17:47:24Z</time>
      </trkpt>
      <trkpt lat="62.59484" lon="12.33009">
        <time>2028-02-18T18:11:07Z</time>
      </trkpt>
      <trkpt lat="62.59847" lon="12.32872">
        <time>2028-02-18T18:40:01Z</time>
      </trkpt>
      <trkpt lat="62.6054" lon="12.32878">
        <time>2028-02-18T19:34:22Z</time>
      </trkpt>
      <trkpt lat="62.61016" lon="12.32809">
        <time>2028-02-18T20:11:46Z</time>
      </trkpt>
      <trkpt lat="62.6143" lon="12.32616">
        <time>2028-02-18T20:44:59Z</time>
      </trkpt>
      <trkpt lat="62.61771" lon="12.32803">
        <time>2028-02-18T21:12:33Z</time>
      </trkpt>
      <trkpt lat="62.6234" lon="12.33013">
        <time>2028-02-18T21:57:49Z</time>
      </trkpt>
      <trkpt lat="62.63037" lon="12.33241">
        <time>2028-02-18T22:53:05Z</time>
      </trkpt>
      <trkpt lat="62.63886" lon="12.33427">
        <time>2028-02-19T00:00:00Z</time>
      </trkpt>
      <trkpt lat="62.64482" lon="12.33601">
        <time>2028-02-19T00:47:10Z</time>
      </trkpt>
      <trkpt lat="62.64975" lon="12.33906">
        <time>2028-02-19T01:27:21Z</time>
      </trkpt>
      <trkpt lat="62.65424" lon="12.34309">
        <time>2028-02-19T02:05:27Z</time>
      </trkpt>
      <trkpt lat="62.65964" lon="12.34698">
        <time>2028-02-19T02:50:03Z</time>
      </trkpt>
      <trkpt lat="62.6655" lon="12.34923">
        <time>2028-02-19T03:36:43Z</time>
      </trkpt>
      <trkpt lat="62.67108" lon="12.35017">
        <time>2028-02-19T04:20:36Z</time>
      </trkpt>
      <trkpt lat="62.67785" lon="12.34318">
        <time>2028-02-19T05:19:21Z</time>
      </trkpt>
      <trkpt lat="62.68372" lon="12.33432">
        <time>2028-02-19T06:15:21Z</time>
      </trkpt>
      <trkpt lat="62.69247" lon="12.32189">
        <time>2028-02-19T07:37:16Z</time>
      </trkpt>
      <trkpt lat="62.69708" lon="12.31389">
        <time>2028-02-19T08:23:28Z</time>
      </trkpt>
      <trkpt lat="62.70217" lon="12.30698">
        <time>2028-02-19T09:10:29Z</time>
      </trkpt>
      <trkpt lat="62.70817" lon="12.30155">
        <time>2028-02-19T10:01:26Z</time>
      </trkpt>
      <trkpt lat="62.70896" lon="12.29365">
        <time>2028-02-19T10:30:30Z</time>
      </trkpt>
      <trkpt lat="62.71389" lon="12.29516">
        <time>2028-02-19T11:09:33Z</time>
      </trkpt>
      <trkpt lat="62.71633" lon="12.30112">
        <time>2028-02-19T11:38:16Z</time>
      </trkpt>
      <trkpt lat="62.71925" lon="12.30011">
        <time>2028-02-19T12:01:28Z</time>
      </trkpt>
      <trkpt lat="62.72187" lon="12.30187">
        <time>2028-02-19T12:22:57Z</time>
      </trkpt>
      <trkpt lat="62.72264" lon="12.31668">
        <time>2028-02-19T13:16:32Z</time>
      </trkpt>
      <trkpt lat="62.72353" lon="12.32412">
        <time>2028-02-19T13:44:10Z</time>
      </trkpt>
      <trkpt lat="62.72675" lon="12.32112">
        <time>2028-02-19T14:11:37Z</time>
      </trkpt>
      <trkpt lat="62.72946" lon="12.32028">
        <time>2028-02-19T14:33:05Z</time>
      </trkpt>
      <trkpt lat="62.73242" lon="12.32254">
        <time>2028-02-19T14:57:41Z</time>
      </trkpt>
      <trkpt lat="62.73609" lon="12.32185">
        <time>2028-02-19T15:26:34Z</time>
      </trkpt>
      <trkpt lat="62.74051" lon="12.32282">
        <time>2028-02-19T16:01:24Z</time>
      </trkpt>
      <trkpt lat="62.74564" lon="12.32691">
        <time>2028-02-19T16:44:14Z</time>
      </trkpt>
      <trkpt lat="62.75067" lon="12.33213">
        <time>2028-02-19T17:27:54Z</time>
      </trkpt>
      <trkpt lat="62.75589" lon="12.33751">
        <time>2028-02-19T18:13:10Z</time>
      </trkpt>
      <trkpt lat="62.7611" lon="12.34374">
        <time>2028-02-19T18:59:44Z</time>
      </trkpt>
      <trkpt lat="62.76638" lon="12.35133">
        <time>2028-02-19T19:49:18Z</time>
      </trkpt>
      <trkpt lat="62.77144" lon="12.35867">
        <time>2028-02-19T20:36:56Z</time>
      </trkpt>
      <trkpt lat="62.77705" lon="12.36584">
        <time>2028-02-19T21:27:54Z</time>
      </trkpt>
      <trkpt lat="62.78271" lon="12.37433">
        <time>2028-02-19T22:21:43Z</time>
      </trkpt>
      <trkpt lat="62.78914" lon="12.38528">
        <time>2028-02-19T23:25:38Z</time>
      </trkpt>
      <trkpt lat="62.79368" lon="12.39584">
        <time>2028-02-20T00:17:37Z</time>
      </trkpt>
      <trkpt lat="62.79674" lon="12.40277">
        <time>2028-02-20T00:52:09Z</time>
      </trkpt>
      <trkpt lat="62.79961" lon="12.40961">
        <time>2028-02-20T01:25:26Z</time>
      </trkpt>
      <trkpt lat="62.80436" lon="12.41766">
        <time>2028-02-20T02:12:33Z</time>
      </trkpt>
      <trkpt lat="62.80849" lon="12.42568">
        <time>2028-02-20T02:55:51Z</time>
      </trkpt>
      <trkpt lat="62.81241" lon="12.43285">
        <time>2028-02-20T03:35:55Z</time>
      </trkpt>
      <trkpt lat="62.81687" lon="12.44049">
        <time>2028-02-20T04:20:20Z</time>
      </trkpt>
      <trkpt lat="62.81832" lon="12.44603">
        <time>2028-02-20T04:43:12Z</time>
      </trkpt>
      <trkpt lat="62.823" lon="12.44946">
        <time>2028-02-20T05:21:54Z</time>
      </trkpt>
      <trkpt lat="62.82897" lon="12.4569">
        <time>2028-02-20T06:15:47Z</time>
      </trkpt>
      <trkpt lat="62.83419" lon="12.46242">
        <time>2028-02-20T07:01:14Z</time>
      </trkpt>
      <trkpt lat="62.83996" lon="12.46933">
        <time>2028-02-20T07:52:48Z</time>
      </trkpt>
      <trkpt lat="62.8464" lon="12.47701">
        <time>2028-02-20T08:50:18Z</time>
      </trkpt>
      <trkpt lat="62.85216" lon="12.48079">
        <time>2028-02-20T09:37:27Z</time>
      </trkpt>
      <trkpt lat="62.85755" lon="12.48544">
        <time>2028-02-20T10:22:53Z</time>
      </trkpt>
      <trkpt lat="62.86298" lon="12.49003">
        <time>2028-02-20T11:08:31Z</time>
      </trkpt>
      <trkpt lat="62.86836" lon="12.49497">
        <time>2028-02-20T11:54:16Z</time>
      </trkpt>
      <trkpt lat="62.87525" lon="12.50184">
        <time>2028-02-20T12:53:37Z</time>
      </trkpt>
      <trkpt lat="62.8791" lon="12.50448">
        <time>2028-02-20T13:25:15Z</time>
      </trkpt>
      <trkpt lat="62.88307" lon="12.50634">
        <time>2028-02-20T13:57:05Z</time>
      </trkpt>
      <trkpt lat="62.88698" lon="12.50832">
        <time>2028-02-20T14:28:33Z</time>
      </trkpt>
      <trkpt lat="62.89008" lon="12.50975">
        <time>2028-02-20T14:53:24Z</time>
      </trkpt>
      <trkpt lat="62.89512" lon="12.51276">
        <time>2028-02-20T15:34:21Z</time>
      </trkpt>
      <trkpt lat="62.9016" lon="12.51327">
        <time>2028-02-20T16:25:12Z</time>
      </trkpt>
      <trkpt lat="62.90913" lon="12.5119">
        <time>2028-02-20T17:24:27Z</time>
      </trkpt>
      <trkpt lat="62.91433" lon="12.50737">
        <time>2028-02-20T18:08:20Z</time>
      </trkpt>
      <trkpt lat="62.91699" lon="12.50598">
        <time>2028-02-20T18:29:46Z</time>
      </trkpt>
      <trkpt lat="62.9213" lon="12.49407">
        <time>2028-02-20T19:24:05Z</time>
      </trkpt>
      <trkpt lat="62.92902" lon="12.48334">
        <time>2028-02-20T20:35:43Z</time>
      </trkpt>
      <trkpt lat="62.936" lon="12.47637">
        <time>2028-02-20T21:35:51Z</time>
      </trkpt>
      <trkpt lat="62.94259" lon="12.4662">
        <time>2028-02-20T22:39:00Z</time>
      </trkpt>
      <trkpt lat="62.94777" lon="12.45663">
        <time>2028-02-20T23:32:03Z</time>
      </trkpt>
      <trkpt lat="62.95123" lon="12.44452">
        <time>2028-02-21T00:23:03Z</time>
      </trkpt>
      <trkpt lat="62.95422" lon="12.43161">
        <time>2028-02-21T01:14:43Z</time>
      </trkpt>
      <trkpt lat="62.95685" lon="12.41811">
        <time>2028-02-21T02:07:05Z</time>
      </trkpt>
      <trkpt lat="62.95922" lon="12.40435">
        <time>2028-02-21T02:59:33Z</time>
      </trkpt>
      <trkpt lat="62.96293" lon="12.39184">
        <time>2028-02-21T03:52:48Z</time>
      </trkpt>
      <trkpt lat="62.96645" lon="12.38034">
        <time>2028-02-21T04:42:13Z</time>
      </trkpt>
      <trkpt lat="62.97121" lon="12.36966">
        <time>2028-02-21T05:35:32Z</time>
      </trkpt>
      <trkpt lat="62.9779" lon="12.36526">
        <time>2028-02-21T06:30:17Z</time>
      </trkpt>
      <trkpt lat="62.98371" lon="12.36183">
        <time>2028-02-21T07:17:28Z</time>
      </trkpt>
      <trkpt lat="62.98707" lon="12.35642">
        <time>2028-02-21T07:50:06Z</time>
      </trkpt>
      <trkpt lat="62.99415" lon="12.35208">
        <time>2028-02-21T08:47:44Z</time>
      </trkpt>
      <trkpt lat="62.99802" lon="12.34655">
        <time>2028-02-21T09:23:55Z</time>
      </trkpt>
      <trkpt lat="63.00306" lon="12.3415">
        <time>2028-02-21T10:07:20Z</time>
      </trkpt>
      <trkpt lat="63.00799" lon="12.33597">
        <time>2028-02-21T10:50:43Z</time>
      </trkpt>
      <trkpt lat="63.01193" lon="12.32839">
        <time>2028-02-21T11:31:44Z</time>
      </trkpt>
      <trkpt lat="63.01452" lon="12.31957">
        <time>2028-02-21T12:09:08Z</time>
      </trkpt>
      <trkpt lat="63.01841" lon="12.31003">
        <time>2028-02-21T12:54:46Z</time>
      </trkpt>
      <trkpt lat="63.02266" lon="12.30089">
        <time>2028-02-21T13:41:20Z</time>
      </trkpt>
      <trkpt lat="63.02564" lon="12.29202">
        <time>2028-02-21T14:20:36Z</time>
      </trkpt>
      <trkpt lat="63.02719" lon="12.28546">
        <time>2028-02-21T14:46:54Z</time>
      </trkpt>
      <trkpt lat="63.02812" lon="12.27619">
        <time>2028-02-21T15:20:40Z</time>
      </trkpt>
      <trkpt lat="63.02815" lon="12.26602">
        <time>2028-02-21T15:56:51Z</time>
      </trkpt>
      <trkpt lat="63.03368" lon="12.26415">
        <time>2028-02-21T16:40:43Z</time>
      </trkpt>
      <trkpt lat="63.0406" lon="12.272">
        <time>2028-02-21T17:41:45Z</time>
      </trkpt>
      <trkpt lat="63.04309" lon="12.27501">
        <time>2028-02-21T18:04:01Z</time>
      </trkpt>
      <trkpt lat="63.05565" lon="12.27945">
        <time>2028-02-21T19:43:46Z</time>
      </trkpt>
      <trkpt lat="63.06423" lon="12.27758">
        <time>2028-02-21T20:51:23Z</time>
      </trkpt>
      <trkpt lat="63.07212" lon="12.28383">
        <time>2028-02-21T21:57:07Z</time>
      </trkpt>
      <trkpt lat="63.07738" lon="12.27848">
        <time>2028-02-21T22:42:32Z</time>
      </trkpt>
      <trkpt lat="63.08029" lon="12.27449">
        <time>2028-02-21T23:09:23Z</time>
      </trkpt>
      <trkpt lat="63.08404" lon="12.26893">
        <time>2028-02-21T23:44:48Z</time>
      </trkpt>
      <trkpt lat="63.08723" lon="12.26778">
        <time>2028-02-22T00:10:09Z</time>
      </trkpt>
      <trkpt lat="63.09306" lon="12.26713">
        <time>2028-02-22T00:55:56Z</time>
      </trkpt>
      <trkpt lat="63.09898" lon="12.26653">
        <time>2028-02-22T01:42:24Z</time>
      </trkpt>
      <trkpt lat="63.10651" lon="12.25679">
        <time>2028-02-22T02:50:49Z</time>
      </trkpt>
      <trkpt lat="63.11486" lon="12.25097">
        <time>2028-02-22T03:59:29Z</time>
      </trkpt>
      <trkpt lat="63.12139" lon="12.24278">
        <time>2028-02-22T04:58:21Z</time>
      </trkpt>
      <trkpt lat="63.12912" lon="12.2319">
        <time>2028-02-22T06:10:12Z</time>
      </trkpt>
      <trkpt lat="63.13583" lon="12.22216">
        <time>2028-02-22T07:13:08Z</time>
      </trkpt>
      <trkpt lat="63.14329" lon="12.21327">
        <time>2028-02-22T08:19:34Z</time>
      </trkpt>
      <trkpt lat="63.14782" lon="12.20907">
        <time>2028-02-22T08:58:05Z</time>
      </trkpt>
      <trkpt lat="63.1525" lon="12.20244">
        <time>2028-02-22T09:41:39Z</time>
      </trkpt>
      <trkpt lat="63.15739" lon="12.19596">
        <time>2028-02-22T10:26:21Z</time>
      </trkpt>
      <trkpt lat="63.16157" lon="12.19149">
        <time>2028-02-22T11:02:45Z</time>
      </trkpt>
      <trkpt lat="63.16532" lon="12.18928">
        <time>2028-02-22T11:33:11Z</time>
      </trkpt>
      <trkpt lat="63.16903" lon="12.1889">
        <time>2028-02-22T12:02:18Z</time>
      </trkpt>
      <trkpt lat="63.17391" lon="12.18551">
        <time>2028-02-22T12:42:25Z</time>
      </trkpt>
      <trkpt lat="63.17933" lon="12.17937">
        <time>2028-02-22T13:30:09Z</time>
      </trkpt>
      <trkpt lat="63.18375" lon="12.17525">
        <time>2028-02-22T14:07:45Z</time>
      </trkpt>
      <trkpt lat="63.18979" lon="12.1728">
        <time>2028-02-22T14:55:54Z</time>
      </trkpt>
      <trkpt lat="63.19826" lon="12.16658">
        <time>2028-02-22T16:05:52Z</time>
      </trkpt>
      <trkpt lat="63.20596" lon="12.16377">
        <time>2028-02-22T17:07:04Z</time>
      </trkpt>
      <trkpt lat="63.21016" lon="12.16186">
        <time>2028-02-22T17:40:41Z</time>
      </trkpt>
      <trkpt lat="63.2151" lon="12.16008">
        <time>2028-02-22T18:19:56Z</time>
      </trkpt>
      <trkpt lat="63.22386" lon="12.15965">
        <time>2028-02-22T19:28:39Z</time>
      </trkpt>
      <trkpt lat="63.23187" lon="12.1592">
        <time>2028-02-22T20:31:29Z</time>
      </trkpt>
      <trkpt lat="63.23337" lon="12.15401">
        <time>2028-02-22T20:53:16Z</time>
      </trkpt>
      <trkpt lat="63.23662" lon="12.14519">
        <time>2028-02-22T21:33:31Z</time>
      </trkpt>
      <trkpt lat="63.24236" lon="12.13789">
        <time>2028-02-22T22:25:23Z</time>
      </trkpt>
      <trkpt lat="63.24557" lon="12.13242">
        <time>2028-02-22T22:57:07Z</time>
      </trkpt>
      <trkpt lat="63.25351" lon="12.12624">
        <time>2028-02-23T00:03:05Z</time>
      </trkpt>
      <trkpt lat="63.26167" lon="12.12186">
        <time>2028-02-23T01:08:55Z</time>
      </trkpt>
      <trkpt lat="63.2682" lon="12.12277">
        <time>2028-02-23T02:00:14Z</time>
      </trkpt>
      <trkpt lat="63.27162" lon="12.12337">
        <time>2028-02-23T02:27:08Z</time>
      </trkpt>
      <trkpt lat="63.27769" lon="12.11429">
        <time>2028-02-23T03:24:30Z</time>
      </trkpt>
      <trkpt lat="63.28464" lon="12.11695">
        <time>2028-02-23T04:19:48Z</time>
      </trkpt>
      <trkpt lat="63.28646" lon="12.10955">
        <time>2028-02-23T04:49:32Z</time>
      </trkpt>
      <trkpt lat="63.2877" lon="12.09925">
        <time>2028-02-23T05:27:08Z</time>
      </trkpt>
      <trkpt lat="63.29368" lon="12.09764">
        <time>2028-02-23T06:14:22Z</time>
      </trkpt>
      <trkpt lat="63.29926" lon="12.09262">
        <time>2028-02-23T07:01:34Z</time>
      </trkpt>
    </trkseg>
  </trk>
  <wpt lat="62.160591" lon="12.377547">
    <name>D1 · Långfjället approach</name>
    <desc>Section 1 · 2028-02-15 · cum 8 km · T · Camp N of STF Grövelsjön</desc>
    <sym>Campground</sym>
    <type>camp</type>
  </wpt>
  <wpt lat="62.258795" lon="12.355457">
    <name>D2 · Långfjället</name>
    <desc>Section 1 · 2028-02-16 · cum 20 km · T</desc>
    <sym>Campground</sym>
    <type>camp</type>
  </wpt>
  <wpt lat="62.346927" lon="12.362642">
    <name>D3 · Tännäs</name>
    <desc>Section 1 · 2028-02-17 · cum 34 km · T</desc>
    <sym>Campground</sym>
    <type>camp</type>
  </wpt>
  <wpt lat="62.469067" lon="12.285906">
    <name>D4 · Ljusnedal</name>
    <desc>Section 1 · 2028-02-18 · cum 50 km · T</desc>
    <sym>Campground</sym>
    <type>camp</type>
  </wpt>
  <wpt lat="62.584049" lon="12.329904">
    <name>D5 · Vålådalen</name>
    <desc>Section 1 · 2028-02-19 · cum 67 km · T</desc>
    <sym>Campground</sym>
    <type>camp</type>
  </wpt>
  <wpt lat="62.724761" lon="12.322973">
    <name>D6 · Ottfjället</name>
    <desc>Section 1 · 2028-02-20 · cum 85 km · T</desc>
    <sym>Campground</sym>
    <type>camp</type>
  </wpt>
  <wpt lat="62.870726" lon="12.497329">
    <name>D7 · Sylarna W</name>
    <desc>Section 1 · 2028-02-21 · cum 104 km · T · STF cluster väster om</desc>
    <sym>Campground</sym>
    <type>camp</type>
  </wpt>
  <wpt lat="63.012859" lon="12.325226">
    <name>D8 · Blåhammaren area</name>
    <desc>Section 1 · 2028-02-22 · cum 124 km · T · Pass STF Blåhammaren</desc>
    <sym>Campground</sym>
    <type>camp</type>
  </wpt>
  <wpt lat="63.298000" lon="12.101000">
    <name>D9 · Storlien</name>
    <desc>Section 1 · 2028-02-23 · cum 165 km · D · Coop · resupply</desc>
    <sym>City</sym>
    <type>resupply</type>
  </wpt>
  <wpt lat="62.100000" lon="12.310000">
    <name>Grövelsjön</name>
  </wpt>
  <wpt lat="62.316879" lon="12.450456">
    <name>STF Rogen fjällstuga</name>
  </wpt>
  <wpt lat="62.917359" lon="12.506156">
    <name>Helags fjällstation</name>
  </wpt>
  <wpt lat="63.187081" lon="12.174362">
    <name>Blåhammaren fjällstation</name>
  </wpt>
  <wpt lat="63.298000" lon="12.101000">
    <name>Storlien</name>
  </wpt>
</gpx>
