<?xml version="1.0" encoding="UTF-8"?>
<gpx xmlns="http://www.topografix.com/GPX/1/1" version="1.1" creator="VitaBandet">
  <metadata>
    <name>Anders Ahnesjö's Band</name>
  </metadata>
  <trk>
    <name>Anders Ahnesjö's Band</name>
    <trkseg>
      <trkpt lat="62.09853" lon="12.31207">
        <time>2020-02-14T07:40:00Z</time>
      </trkpt>
      <trkpt lat="62.09853" lon="12.31997">
        <time>2020-02-14T08:40:00Z</time>
      </trkpt>
      <trkpt lat="62.11319" lon="12.33885">
        <time>2020-02-14T09:40:00Z</time>
      </trkpt>
      <trkpt lat="62.13529" lon="12.36093">
        <time>2020-02-14T10:40:00Z</time>
      </trkpt>
      <trkpt lat="62.18255" lon="12.38957">
        <time>2020-02-14T11:40:00Z</time>
      </trkpt>
      <trkpt lat="62.20679" lon="12.3782">
        <time>2020-02-14T12:40:00Z</time>
      </trkpt>
      <trkpt lat="62.22005" lon="12.35284">
        <time>2020-02-14T13:41:00Z</time>
      </trkpt>
      <trkpt lat="62.25538" lon="12.35039">
        <time>2020-02-14T14:41:00Z</time>
      </trkpt>
      <trkpt lat="62.26069" lon="12.36312">
        <time>2020-02-14T15:41:00Z</time>
      </trkpt>
      <trkpt lat="62.26064" lon="12.3631">
        <time>2020-02-14T16:05:00Z</time>
      </trkpt>
      <trkpt lat="62.2607" lon="12.36316">
        <time>2020-02-15T08:02:00Z</time>
      </trkpt>
      <trkpt lat="62.26071" lon="12.3631">
        <time>2020-02-15T08:12:00Z</time>
      </trkpt>
      <trkpt lat="62.25919" lon="12.36672">
        <time>2020-02-15T08:22:00Z</time>
      </trkpt>
      <trkpt lat="62.26233" lon="12.38">
        <time>2020-02-15T08:32:00Z</time>
      </trkpt>
      <trkpt lat="62.26974" lon="12.38719">
        <time>2020-02-15T08:42:00Z</time>
      </trkpt>
      <trkpt lat="62.27742" lon="12.39333">
        <time>2020-02-15T08:52:00Z</time>
      </trkpt>
      <trkpt lat="62.28065" lon="12.39715">
        <time>2020-02-15T09:02:00Z</time>
      </trkpt>
      <trkpt lat="62.28707" lon="12.40142">
        <time>2020-02-15T09:12:00Z</time>
      </trkpt>
      <trkpt lat="62.29241" lon="12.40972">
        <time>2020-02-15T09:23:00Z</time>
      </trkpt>
      <trkpt lat="62.29297" lon="12.4176">
        <time>2020-02-15T09:33:00Z</time>
      </trkpt>
      <trkpt lat="62.29683" lon="12.43155">
        <time>2020-02-15T09:43:00Z</time>
      </trkpt>
      <trkpt lat="62.30321" lon="12.43461">
        <time>2020-02-15T09:53:00Z</time>
      </trkpt>
      <trkpt lat="62.3107" lon="12.44045">
        <time>2020-02-15T10:03:00Z</time>
      </trkpt>
      <trkpt lat="62.31743" lon="12.44594">
        <time>2020-02-15T10:13:00Z</time>
      </trkpt>
      <trkpt lat="62.32114" lon="12.45088">
        <time>2020-02-15T10:23:00Z</time>
      </trkpt>
      <trkpt lat="62.3266" lon="12.455">
        <time>2020-02-15T10:33:00Z</time>
      </trkpt>
      <trkpt lat="62.32917" lon="12.46208">
        <time>2020-02-15T10:43:00Z</time>
      </trkpt>
      <trkpt lat="62.32962" lon="12.46157">
        <time>2020-02-15T10:53:00Z</time>
      </trkpt>
      <trkpt lat="62.33186" lon="12.46661">
        <time>2020-02-15T11:32:00Z</time>
      </trkpt>
      <trkpt lat="62.3381" lon="12.46481">
        <time>2020-02-15T11:43:00Z</time>
      </trkpt>
      <trkpt lat="62.34458" lon="12.46023">
        <time>2020-02-15T11:53:00Z</time>
      </trkpt>
      <trkpt lat="62.3507" lon="12.46626">
        <time>2020-02-15T12:03:00Z</time>
      </trkpt>
      <trkpt lat="62.35468" lon="12.47493">
        <time>2020-02-15T12:13:00Z</time>
      </trkpt>
      <trkpt lat="62.35547" lon="12.47654">
        <time>2020-02-15T12:23:00Z</time>
      </trkpt>
      <trkpt lat="62.3567" lon="12.47914">
        <time>2020-02-15T12:33:00Z</time>
      </trkpt>
      <trkpt lat="62.359" lon="12.49476">
        <time>2020-02-15T12:43:00Z</time>
      </trkpt>
      <trkpt lat="62.36203" lon="12.50731">
        <time>2020-02-15T12:53:00Z</time>
      </trkpt>
      <trkpt lat="62.36722" lon="12.51602">
        <time>2020-02-15T13:03:00Z</time>
      </trkpt>
      <trkpt lat="62.37006" lon="12.5286">
        <time>2020-02-15T13:13:00Z</time>
      </trkpt>
      <trkpt lat="62.3721" lon="12.53411">
        <time>2020-02-15T13:23:00Z</time>
      </trkpt>
      <trkpt lat="62.37209" lon="12.53414">
        <time>2020-02-15T13:33:00Z</time>
      </trkpt>
      <trkpt lat="62.37112" lon="12.5436">
        <time>2020-02-15T13:53:00Z</time>
      </trkpt>
      <trkpt lat="62.36872" lon="12.55512">
        <time>2020-02-15T14:03:00Z</time>
      </trkpt>
      <trkpt lat="62.3686" lon="12.56523">
        <time>2020-02-15T14:13:00Z</time>
      </trkpt>
      <trkpt lat="62.36705" lon="12.58076">
        <time>2020-02-15T14:23:00Z</time>
      </trkpt>
      <trkpt lat="62.36541" lon="12.59164">
        <time>2020-02-15T14:33:00Z</time>
      </trkpt>
      <trkpt lat="62.37014" lon="12.5904">
        <time>2020-02-15T14:43:00Z</time>
      </trkpt>
      <trkpt lat="62.37669" lon="12.5887">
        <time>2020-02-15T14:53:00Z</time>
      </trkpt>
      <trkpt lat="62.37789" lon="12.59265">
        <time>2020-02-15T15:03:00Z</time>
      </trkpt>
      <trkpt lat="62.37736" lon="12.59653">
        <time>2020-02-15T15:13:00Z</time>
      </trkpt>
      <trkpt lat="62.37752" lon="12.60801">
        <time>2020-02-15T15:23:00Z</time>
      </trkpt>
      <trkpt lat="62.37779" lon="12.60121">
        <time>2020-02-15T15:33:00Z</time>
      </trkpt>
      <trkpt lat="62.38072" lon="12.59718">
        <time>2020-02-15T15:43:00Z</time>
      </trkpt>
      <trkpt lat="62.38374" lon="12.59698">
        <time>2020-02-15T15:53:00Z</time>
      </trkpt>
      <trkpt lat="62.38396" lon="12.59729">
        <time>2020-02-15T16:03:00Z</time>
      </trkpt>
      <trkpt lat="62.38393" lon="12.59729">
        <time>2020-02-15T16:31:00Z</time>
      </trkpt>
      <trkpt lat="62.38406" lon="12.59671">
        <time>2020-02-16T07:48:00Z</time>
      </trkpt>
      <trkpt lat="62.39063" lon="12.59484">
        <time>2020-02-16T07:58:00Z</time>
      </trkpt>
      <trkpt lat="62.39451" lon="12.59387">
        <time>2020-02-16T08:08:00Z</time>
      </trkpt>
      <trkpt lat="62.39859" lon="12.58814">
        <time>2020-02-16T08:18:00Z</time>
      </trkpt>
      <trkpt lat="62.4026" lon="12.58905">
        <time>2020-02-16T08:28:00Z</time>
      </trkpt>
      <trkpt lat="62.4051" lon="12.5898">
        <time>2020-02-16T08:38:00Z</time>
      </trkpt>
      <trkpt lat="62.40264" lon="12.58825">
        <time>2020-02-16T08:48:00Z</time>
      </trkpt>
      <trkpt lat="62.40617" lon="12.58859">
        <time>2020-02-16T08:58:00Z</time>
      </trkpt>
      <trkpt lat="62.4091" lon="12.59357">
        <time>2020-02-16T09:08:00Z</time>
      </trkpt>
      <trkpt lat="62.41611" lon="12.60662">
        <time>2020-02-16T09:18:00Z</time>
      </trkpt>
      <trkpt lat="62.42017" lon="12.61297">
        <time>2020-02-16T09:28:00Z</time>
      </trkpt>
      <trkpt lat="62.4204" lon="12.61419">
        <time>2020-02-16T09:38:00Z</time>
      </trkpt>
      <trkpt lat="62.42915" lon="12.63524">
        <time>2020-02-16T09:48:00Z</time>
      </trkpt>
      <trkpt lat="62.43743" lon="12.65232">
        <time>2020-02-16T09:58:00Z</time>
      </trkpt>
      <trkpt lat="62.44171" lon="12.65376">
        <time>2020-02-16T10:08:00Z</time>
      </trkpt>
      <trkpt lat="62.44572" lon="12.64979">
        <time>2020-02-16T10:18:00Z</time>
      </trkpt>
      <trkpt lat="62.44868" lon="12.64569">
        <time>2020-02-16T10:29:00Z</time>
      </trkpt>
      <trkpt lat="62.45101" lon="12.62915">
        <time>2020-02-16T10:39:00Z</time>
      </trkpt>
      <trkpt lat="62.45194" lon="12.62707">
        <time>2020-02-16T10:49:00Z</time>
      </trkpt>
      <trkpt lat="62.455" lon="12.62451">
        <time>2020-02-16T10:59:00Z</time>
      </trkpt>
      <trkpt lat="62.45913" lon="12.62005">
        <time>2020-02-16T11:09:00Z</time>
      </trkpt>
      <trkpt lat="62.46347" lon="12.61563">
        <time>2020-02-16T11:19:00Z</time>
      </trkpt>
      <trkpt lat="62.46741" lon="12.61153">
        <time>2020-02-16T11:29:00Z</time>
      </trkpt>
      <trkpt lat="62.46989" lon="12.60274">
        <time>2020-02-16T11:41:00Z</time>
      </trkpt>
      <trkpt lat="62.47157" lon="12.59572">
        <time>2020-02-16T11:51:00Z</time>
      </trkpt>
      <trkpt lat="62.47202" lon="12.58881">
        <time>2020-02-16T12:01:00Z</time>
      </trkpt>
      <trkpt lat="62.47245" lon="12.58497">
        <time>2020-02-16T12:11:00Z</time>
      </trkpt>
      <trkpt lat="62.47247" lon="12.58499">
        <time>2020-02-16T12:21:00Z</time>
      </trkpt>
      <trkpt lat="62.47645" lon="12.57475">
        <time>2020-02-16T13:01:00Z</time>
      </trkpt>
      <trkpt lat="62.48181" lon="12.55334">
        <time>2020-02-16T13:11:00Z</time>
      </trkpt>
      <trkpt lat="62.48489" lon="12.54446">
        <time>2020-02-16T13:21:00Z</time>
      </trkpt>
      <trkpt lat="62.48834" lon="12.53607">
        <time>2020-02-16T13:31:00Z</time>
      </trkpt>
      <trkpt lat="62.49501" lon="12.53587">
        <time>2020-02-16T13:42:00Z</time>
      </trkpt>
      <trkpt lat="62.49981" lon="12.53929">
        <time>2020-02-16T13:52:00Z</time>
      </trkpt>
      <trkpt lat="62.50275" lon="12.53111">
        <time>2020-02-16T14:02:00Z</time>
      </trkpt>
      <trkpt lat="62.50563" lon="12.5206">
        <time>2020-02-16T14:12:00Z</time>
      </trkpt>
      <trkpt lat="62.5082" lon="12.51354">
        <time>2020-02-16T14:22:00Z</time>
      </trkpt>
      <trkpt lat="62.51206" lon="12.50457">
        <time>2020-02-16T14:32:00Z</time>
      </trkpt>
      <trkpt lat="62.51557" lon="12.49549">
        <time>2020-02-16T14:42:00Z</time>
      </trkpt>
      <trkpt lat="62.51663" lon="12.48978">
        <time>2020-02-16T14:52:00Z</time>
      </trkpt>
      <trkpt lat="62.517" lon="12.48676">
        <time>2020-02-16T15:02:00Z</time>
      </trkpt>
      <trkpt lat="62.51703" lon="12.48671">
        <time>2020-02-16T15:12:00Z</time>
      </trkpt>
      <trkpt lat="62.51778" lon="12.48017">
        <time>2020-02-16T15:22:00Z</time>
      </trkpt>
      <trkpt lat="62.51771" lon="12.4703">
        <time>2020-02-16T15:32:00Z</time>
      </trkpt>
      <trkpt lat="62.51817" lon="12.47041">
        <time>2020-02-16T15:37:00Z</time>
      </trkpt>
      <trkpt lat="62.51813" lon="12.47006">
        <time>2020-02-17T08:21:00Z</time>
      </trkpt>
      <trkpt lat="62.51993" lon="12.4627">
        <time>2020-02-17T08:31:00Z</time>
      </trkpt>
      <trkpt lat="62.52533" lon="12.45386">
        <time>2020-02-17T08:41:00Z</time>
      </trkpt>
      <trkpt lat="62.53007" lon="12.44582">
        <time>2020-02-17T08:51:00Z</time>
      </trkpt>
      <trkpt lat="62.53541" lon="12.44532">
        <time>2020-02-17T09:01:00Z</time>
      </trkpt>
      <trkpt lat="62.54073" lon="12.44607">
        <time>2020-02-17T09:11:00Z</time>
      </trkpt>
      <trkpt lat="62.54327" lon="12.44584">
        <time>2020-02-17T09:21:00Z</time>
      </trkpt>
      <trkpt lat="62.54432" lon="12.44346">
        <time>2020-02-17T09:31:00Z</time>
      </trkpt>
      <trkpt lat="62.54585" lon="12.43682">
        <time>2020-02-17T09:41:00Z</time>
      </trkpt>
      <trkpt lat="62.5545" lon="12.43401">
        <time>2020-02-17T09:51:00Z</time>
      </trkpt>
      <trkpt lat="62.56224" lon="12.45624">
        <time>2020-02-17T10:01:00Z</time>
      </trkpt>
      <trkpt lat="62.57068" lon="12.44987">
        <time>2020-02-17T10:11:00Z</time>
      </trkpt>
      <trkpt lat="62.57394" lon="12.44674">
        <time>2020-02-17T10:21:00Z</time>
      </trkpt>
      <trkpt lat="62.57625" lon="12.44161">
        <time>2020-02-17T10:31:00Z</time>
      </trkpt>
      <trkpt lat="62.58059" lon="12.44176">
        <time>2020-02-17T10:41:00Z</time>
      </trkpt>
      <trkpt lat="62.58393" lon="12.44279">
        <time>2020-02-17T10:51:00Z</time>
      </trkpt>
      <trkpt lat="62.58559" lon="12.4444">
        <time>2020-02-17T11:01:00Z</time>
      </trkpt>
      <trkpt lat="62.59109" lon="12.45197">
        <time>2020-02-17T11:11:00Z</time>
      </trkpt>
      <trkpt lat="62.59827" lon="12.46081">
        <time>2020-02-17T11:21:00Z</time>
      </trkpt>
      <trkpt lat="62.60244" lon="12.4647">
        <time>2020-02-17T11:31:00Z</time>
      </trkpt>
      <trkpt lat="62.60246" lon="12.46466">
        <time>2020-02-17T11:42:00Z</time>
      </trkpt>
      <trkpt lat="62.60492" lon="12.46094">
        <time>2020-02-17T12:11:00Z</time>
      </trkpt>
      <trkpt lat="62.61422" lon="12.46234">
        <time>2020-02-17T12:21:00Z</time>
      </trkpt>
      <trkpt lat="62.61749" lon="12.45268">
        <time>2020-02-17T12:31:00Z</time>
      </trkpt>
      <trkpt lat="62.62188" lon="12.43863">
        <time>2020-02-17T12:41:00Z</time>
      </trkpt>
      <trkpt lat="62.62277" lon="12.42854">
        <time>2020-02-17T12:52:00Z</time>
      </trkpt>
      <trkpt lat="62.62918" lon="12.41979">
        <time>2020-02-17T13:03:00Z</time>
      </trkpt>
      <trkpt lat="62.63821" lon="12.41775">
        <time>2020-02-17T13:13:00Z</time>
      </trkpt>
      <trkpt lat="62.64027" lon="12.41554">
        <time>2020-02-17T13:23:00Z</time>
      </trkpt>
      <trkpt lat="62.64209" lon="12.4105">
        <time>2020-02-17T13:33:00Z</time>
      </trkpt>
      <trkpt lat="62.64239" lon="12.40123">
        <time>2020-02-17T13:43:00Z</time>
      </trkpt>
      <trkpt lat="62.64491" lon="12.39286">
        <time>2020-02-17T13:54:00Z</time>
      </trkpt>
      <trkpt lat="62.64766" lon="12.38436">
        <time>2020-02-17T14:04:00Z</time>
      </trkpt>
      <trkpt lat="62.64856" lon="12.38552">
        <time>2020-02-17T14:14:00Z</time>
      </trkpt>
      <trkpt lat="62.64947" lon="12.39187">
        <time>2020-02-17T14:24:00Z</time>
      </trkpt>
      <trkpt lat="62.64978" lon="12.39322">
        <time>2020-02-17T14:34:00Z</time>
      </trkpt>
      <trkpt lat="62.64991" lon="12.39327">
        <time>2020-02-17T14:38:00Z</time>
      </trkpt>
      <trkpt lat="62.64993" lon="12.39324">
        <time>2020-02-17T14:39:00Z</time>
      </trkpt>
      <trkpt lat="62.64947" lon="12.3917">
        <time>2020-02-19T08:03:00Z</time>
      </trkpt>
      <trkpt lat="62.64903" lon="12.38305">
        <time>2020-02-19T08:13:00Z</time>
      </trkpt>
      <trkpt lat="62.65177" lon="12.37537">
        <time>2020-02-19T08:23:00Z</time>
      </trkpt>
      <trkpt lat="62.65372" lon="12.37003">
        <time>2020-02-19T08:33:00Z</time>
      </trkpt>
      <trkpt lat="62.65383" lon="12.36988">
        <time>2020-02-19T08:43:00Z</time>
      </trkpt>
      <trkpt lat="62.65751" lon="12.35827">
        <time>2020-02-19T08:53:00Z</time>
      </trkpt>
      <trkpt lat="62.6589" lon="12.35363">
        <time>2020-02-19T09:03:00Z</time>
      </trkpt>
      <trkpt lat="62.66337" lon="12.34866">
        <time>2020-02-19T09:13:00Z</time>
      </trkpt>
      <trkpt lat="62.66704" lon="12.34992">
        <time>2020-02-19T09:23:00Z</time>
      </trkpt>
      <trkpt lat="62.67469" lon="12.34595">
        <time>2020-02-19T09:33:00Z</time>
      </trkpt>
      <trkpt lat="62.6814" lon="12.33748">
        <time>2020-02-19T09:43:00Z</time>
      </trkpt>
      <trkpt lat="62.68553" lon="12.33042">
        <time>2020-02-19T09:53:00Z</time>
      </trkpt>
      <trkpt lat="62.69114" lon="12.32357">
        <time>2020-02-19T10:03:00Z</time>
      </trkpt>
      <trkpt lat="62.69648" lon="12.31567">
        <time>2020-02-19T10:13:00Z</time>
      </trkpt>
      <trkpt lat="62.69963" lon="12.31052">
        <time>2020-02-19T10:23:00Z</time>
      </trkpt>
      <trkpt lat="62.70606" lon="12.30831">
        <time>2020-02-19T10:34:00Z</time>
      </trkpt>
      <trkpt lat="62.70832" lon="12.2998">
        <time>2020-02-19T10:44:00Z</time>
      </trkpt>
      <trkpt lat="62.70842" lon="12.29465">
        <time>2020-02-19T10:54:00Z</time>
      </trkpt>
      <trkpt lat="62.71049" lon="12.29293">
        <time>2020-02-19T11:04:00Z</time>
      </trkpt>
      <trkpt lat="62.71527" lon="12.29956">
        <time>2020-02-19T11:14:00Z</time>
      </trkpt>
      <trkpt lat="62.71927" lon="12.30044">
        <time>2020-02-19T11:24:00Z</time>
      </trkpt>
      <trkpt lat="62.72006" lon="12.30254">
        <time>2020-02-19T11:34:00Z</time>
      </trkpt>
      <trkpt lat="62.72276" lon="12.30087">
        <time>2020-02-19T11:44:00Z</time>
      </trkpt>
      <trkpt lat="62.72278" lon="12.30085">
        <time>2020-02-19T11:54:00Z</time>
      </trkpt>
      <trkpt lat="62.72262" lon="12.31507">
        <time>2020-02-19T12:14:00Z</time>
      </trkpt>
      <trkpt lat="62.72291" lon="12.3249">
        <time>2020-02-19T12:24:00Z</time>
      </trkpt>
      <trkpt lat="62.72491" lon="12.32297">
        <time>2020-02-19T12:34:00Z</time>
      </trkpt>
      <trkpt lat="62.72793" lon="12.32022">
        <time>2020-02-19T12:44:00Z</time>
      </trkpt>
      <trkpt lat="62.7307" lon="12.32117">
        <time>2020-02-19T12:54:00Z</time>
      </trkpt>
      <trkpt lat="62.7336" lon="12.32452">
        <time>2020-02-19T13:04:00Z</time>
      </trkpt>
      <trkpt lat="62.73564" lon="12.32239">
        <time>2020-02-19T13:14:00Z</time>
      </trkpt>
      <trkpt lat="62.73944" lon="12.32241">
        <time>2020-02-19T13:24:00Z</time>
      </trkpt>
      <trkpt lat="62.74336" lon="12.32531">
        <time>2020-02-19T13:34:00Z</time>
      </trkpt>
      <trkpt lat="62.74727" lon="12.32866">
        <time>2020-02-19T13:44:00Z</time>
      </trkpt>
      <trkpt lat="62.75109" lon="12.3328">
        <time>2020-02-19T13:54:00Z</time>
      </trkpt>
      <trkpt lat="62.7537" lon="12.33533">
        <time>2020-02-19T14:05:00Z</time>
      </trkpt>
      <trkpt lat="62.75806" lon="12.33999">
        <time>2020-02-19T14:15:00Z</time>
      </trkpt>
      <trkpt lat="62.76247" lon="12.34561">
        <time>2020-02-19T14:25:00Z</time>
      </trkpt>
      <trkpt lat="62.7664" lon="12.35159">
        <time>2020-02-19T14:35:00Z</time>
      </trkpt>
      <trkpt lat="62.76642" lon="12.35175">
        <time>2020-02-19T14:45:00Z</time>
      </trkpt>
      <trkpt lat="62.77031" lon="12.35741">
        <time>2020-02-19T15:15:00Z</time>
      </trkpt>
      <trkpt lat="62.77529" lon="12.36331">
        <time>2020-02-19T15:25:00Z</time>
      </trkpt>
      <trkpt lat="62.7807" lon="12.36962">
        <time>2020-02-19T15:35:00Z</time>
      </trkpt>
      <trkpt lat="62.79106" lon="12.38975">
        <time>2020-02-19T15:45:00Z</time>
      </trkpt>
      <trkpt lat="62.79368" lon="12.39575">
        <time>2020-02-19T15:55:00Z</time>
      </trkpt>
      <trkpt lat="62.79639" lon="12.40185">
        <time>2020-02-19T16:05:00Z</time>
      </trkpt>
      <trkpt lat="62.79949" lon="12.40987">
        <time>2020-02-19T16:18:00Z</time>
      </trkpt>
      <trkpt lat="62.80166" lon="12.41384">
        <time>2020-02-19T16:28:00Z</time>
      </trkpt>
      <trkpt lat="62.80665" lon="12.42225">
        <time>2020-02-19T16:38:00Z</time>
      </trkpt>
      <trkpt lat="62.80978" lon="12.42755">
        <time>2020-02-19T16:48:00Z</time>
      </trkpt>
      <trkpt lat="62.81395" lon="12.43522">
        <time>2020-02-19T16:58:00Z</time>
      </trkpt>
      <trkpt lat="62.81792" lon="12.44315">
        <time>2020-02-19T17:08:00Z</time>
      </trkpt>
      <trkpt lat="62.81834" lon="12.44588">
        <time>2020-02-19T17:19:00Z</time>
      </trkpt>
      <trkpt lat="62.81822" lon="12.44573">
        <time>2020-02-19T17:20:00Z</time>
      </trkpt>
      <trkpt lat="62.81825" lon="12.44577">
        <time>2020-02-19T17:21:00Z</time>
      </trkpt>
      <trkpt lat="62.91672" lon="12.50622">
        <time>2020-02-20T12:58:00Z</time>
      </trkpt>
      <trkpt lat="62.91661" lon="12.50615">
        <time>2020-02-21T06:55:00Z</time>
      </trkpt>
      <trkpt lat="62.9106" lon="12.55162">
        <time>2020-02-21T07:55:00Z</time>
      </trkpt>
      <trkpt lat="62.92335" lon="12.62235">
        <time>2020-02-21T08:55:00Z</time>
      </trkpt>
      <trkpt lat="62.9482" lon="12.64059">
        <time>2020-02-21T09:55:00Z</time>
      </trkpt>
      <trkpt lat="62.97562" lon="12.65692">
        <time>2020-02-21T10:55:00Z</time>
      </trkpt>
      <trkpt lat="62.98431" lon="12.67775">
        <time>2020-02-21T11:55:00Z</time>
      </trkpt>
      <trkpt lat="62.99697" lon="12.73232">
        <time>2020-02-21T12:55:00Z</time>
      </trkpt>
      <trkpt lat="63.02616" lon="12.7677">
        <time>2020-02-21T13:55:00Z</time>
      </trkpt>
      <trkpt lat="63.04051" lon="12.79912">
        <time>2020-02-21T14:50:00Z</time>
      </trkpt>
      <trkpt lat="63.04012" lon="12.79916">
        <time>2020-02-21T14:53:00Z</time>
      </trkpt>
      <trkpt lat="63.04031" lon="12.79965">
        <time>2020-02-22T07:57:00Z</time>
      </trkpt>
      <trkpt lat="63.05781" lon="12.79676">
        <time>2020-02-22T08:57:00Z</time>
      </trkpt>
      <trkpt lat="63.0904" lon="12.81714">
        <time>2020-02-22T09:57:00Z</time>
      </trkpt>
      <trkpt lat="63.12004" lon="12.86323">
        <time>2020-02-22T10:57:00Z</time>
      </trkpt>
      <trkpt lat="63.12771" lon="12.87196">
        <time>2020-02-22T11:57:00Z</time>
      </trkpt>
      <trkpt lat="63.14339" lon="12.92531">
        <time>2020-02-22T12:57:00Z</time>
      </trkpt>
      <trkpt lat="63.14995" lon="12.98711">
        <time>2020-02-22T13:57:00Z</time>
      </trkpt>
      <trkpt lat="63.16666" lon="13.0609">
        <time>2020-02-22T14:57:00Z</time>
      </trkpt>
      <trkpt lat="63.16595" lon="13.05867">
        <time>2020-02-22T15:08:00Z</time>
      </trkpt>
      <trkpt lat="63.16593" lon="13.05871">
        <time>2020-02-22T15:09:00Z</time>
      </trkpt>
      <trkpt lat="63.16567" lon="13.05899">
        <time>2020-02-23T07:26:00Z</time>
      </trkpt>
      <trkpt lat="63.18356" lon="13.06382">
        <time>2020-02-23T08:26:00Z</time>
      </trkpt>
      <trkpt lat="63.2107" lon="13.05429">
        <time>2020-02-23T09:26:00Z</time>
      </trkpt>
      <trkpt lat="63.22132" lon="13.06461">
        <time>2020-02-23T10:26:00Z</time>
      </trkpt>
      <trkpt lat="63.24165" lon="13.10032">
        <time>2020-02-23T11:26:00Z</time>
      </trkpt>
      <trkpt lat="63.25151" lon="13.10776">
        <time>2020-02-23T12:26:00Z</time>
      </trkpt>
      <trkpt lat="63.26943" lon="13.08332">
        <time>2020-02-23T13:26:00Z</time>
      </trkpt>
      <trkpt lat="63.28189" lon="13.04627">
        <time>2020-02-23T14:26:00Z</time>
      </trkpt>
      <trkpt lat="63.31203" lon="13.08583">
        <time>2020-02-23T15:26:00Z</time>
      </trkpt>
      <trkpt lat="63.31448" lon="13.0839">
        <time>2020-02-23T15:47:00Z</time>
      </trkpt>
      <trkpt lat="63.31448" lon="13.0839">
        <time>2020-02-23T15:47:00Z</time>
      </trkpt>
      <trkpt lat="63.31521" lon="13.08686">
        <time>2020-02-24T09:29:00Z</time>
      </trkpt>
      <trkpt lat="63.33188" lon="13.08174">
        <time>2020-02-24T10:29:00Z</time>
      </trkpt>
      <trkpt lat="63.34819" lon="13.10787">
        <time>2020-02-24T11:29:00Z</time>
      </trkpt>
      <trkpt lat="63.36586" lon="13.10751">
        <time>2020-02-24T12:29:00Z</time>
      </trkpt>
      <trkpt lat="63.37721" lon="13.11841">
        <time>2020-02-24T13:29:00Z</time>
      </trkpt>
      <trkpt lat="63.37721" lon="13.11841">
        <time>2020-02-24T13:29:00Z</time>
      </trkpt>
      <trkpt lat="63.38635" lon="13.12218">
        <time>2020-02-24T14:29:00Z</time>
      </trkpt>
      <trkpt lat="63.39026" lon="13.14349">
        <time>2020-02-24T15:29:00Z</time>
      </trkpt>
      <trkpt lat="63.40037" lon="13.18681">
        <time>2020-02-24T16:27:00Z</time>
      </trkpt>
      <trkpt lat="63.40033" lon="13.18681">
        <time>2020-02-24T16:28:00Z</time>
      </trkpt>
      <trkpt lat="63.40032" lon="13.18683">
        <time>2020-02-25T09:25:00Z</time>
      </trkpt>
      <trkpt lat="63.40809" lon="13.2222">
        <time>2020-02-25T10:25:00Z</time>
      </trkpt>
      <trkpt lat="63.44667" lon="13.2255">
        <time>2020-02-25T11:25:00Z</time>
      </trkpt>
      <trkpt lat="63.45954" lon="13.21151">
        <time>2020-02-25T12:25:00Z</time>
      </trkpt>
      <trkpt lat="63.47188" lon="13.22677">
        <time>2020-02-25T13:25:00Z</time>
      </trkpt>
      <trkpt lat="63.4828" lon="13.20793">
        <time>2020-02-25T14:25:00Z</time>
      </trkpt>
      <trkpt lat="63.51035" lon="13.21413">
        <time>2020-02-25T15:25:00Z</time>
      </trkpt>
      <trkpt lat="63.51975" lon="13.21009">
        <time>2020-02-25T16:22:00Z</time>
      </trkpt>
      <trkpt lat="63.51965" lon="13.21005">
        <time>2020-02-25T16:23:00Z</time>
      </trkpt>
      <trkpt lat="63.5197" lon="13.21012">
        <time>2020-02-26T09:40:00Z</time>
      </trkpt>
      <trkpt lat="63.53891" lon="13.19428">
        <time>2020-02-26T10:40:00Z</time>
      </trkpt>
      <trkpt lat="63.5467" lon="13.16986">
        <time>2020-02-26T11:40:00Z</time>
      </trkpt>
      <trkpt lat="63.55027" lon="13.16978">
        <time>2020-02-26T12:40:00Z</time>
      </trkpt>
      <trkpt lat="63.57097" lon="13.17619">
        <time>2020-02-26T13:40:00Z</time>
      </trkpt>
      <trkpt lat="63.58442" lon="13.19284">
        <time>2020-02-26T14:40:00Z</time>
      </trkpt>
      <trkpt lat="63.61763" lon="13.21027">
        <time>2020-02-26T15:40:00Z</time>
      </trkpt>
      <trkpt lat="63.62824" lon="13.22314">
        <time>2020-02-26T16:17:00Z</time>
      </trkpt>
      <trkpt lat="63.62828" lon="13.22303">
        <time>2020-02-26T16:18:00Z</time>
      </trkpt>
      <trkpt lat="63.63114" lon="13.22325">
        <time>2020-02-27T09:05:00Z</time>
      </trkpt>
      <trkpt lat="63.64091" lon="13.29189">
        <time>2020-02-27T10:05:00Z</time>
      </trkpt>
      <trkpt lat="63.66917" lon="13.30112">
        <time>2020-02-27T11:05:00Z</time>
      </trkpt>
      <trkpt lat="63.68004" lon="13.31874">
        <time>2020-02-27T12:05:00Z</time>
      </trkpt>
      <trkpt lat="63.68547" lon="13.36219">
        <time>2020-02-27T13:05:00Z</time>
      </trkpt>
      <trkpt lat="63.68788" lon="13.43356">
        <time>2020-02-27T14:05:00Z</time>
      </trkpt>
      <trkpt lat="63.69016" lon="13.48677">
        <time>2020-02-27T15:05:00Z</time>
      </trkpt>
      <trkpt lat="63.69351" lon="13.56166">
        <time>2020-02-27T16:05:00Z</time>
      </trkpt>
      <trkpt lat="63.69298" lon="13.56494">
        <time>2020-02-27T16:10:00Z</time>
      </trkpt>
      <trkpt lat="63.69299" lon="13.56507">
        <time>2020-02-27T16:10:00Z</time>
      </trkpt>
      <trkpt lat="63.69262" lon="13.569">
        <time>2020-02-28T08:28:00Z</time>
      </trkpt>
      <trkpt lat="63.70674" lon="13.60734">
        <time>2020-02-28T09:28:00Z</time>
      </trkpt>
      <trkpt lat="63.72549" lon="13.61955">
        <time>2020-02-28T10:28:00Z</time>
      </trkpt>
      <trkpt lat="63.74835" lon="13.64069">
        <time>2020-02-28T11:29:00Z</time>
      </trkpt>
      <trkpt lat="63.75089" lon="13.65287">
        <time>2020-02-28T12:29:00Z</time>
      </trkpt>
      <trkpt lat="63.74701" lon="13.70798">
        <time>2020-02-28T13:29:00Z</time>
      </trkpt>
      <trkpt lat="63.75498" lon="13.77694">
        <time>2020-02-28T14:29:00Z</time>
      </trkpt>
      <trkpt lat="63.7673" lon="13.80527">
        <time>2020-02-28T15:29:00Z</time>
      </trkpt>
      <trkpt lat="63.7805" lon="13.82108">
        <time>2020-02-28T16:30:00Z</time>
      </trkpt>
      <trkpt lat="63.78077" lon="13.82185">
        <time>2020-02-28T16:32:00Z</time>
      </trkpt>
      <trkpt lat="63.78061" lon="13.82099">
        <time>2020-02-28T17:01:00Z</time>
      </trkpt>
      <trkpt lat="63.78072" lon="13.82166">
        <time>2020-03-01T07:54:00Z</time>
      </trkpt>
      <trkpt lat="63.80094" lon="13.83548">
        <time>2020-03-01T08:54:00Z</time>
      </trkpt>
      <trkpt lat="63.82835" lon="13.86734">
        <time>2020-03-01T09:54:00Z</time>
      </trkpt>
      <trkpt lat="63.86009" lon="13.87773">
        <time>2020-03-01T10:54:00Z</time>
      </trkpt>
      <trkpt lat="63.88859" lon="13.85464">
        <time>2020-03-01T11:54:00Z</time>
      </trkpt>
      <trkpt lat="63.90409" lon="13.8641">
        <time>2020-03-01T12:55:00Z</time>
      </trkpt>
      <trkpt lat="63.93716" lon="13.89562">
        <time>2020-03-01T13:55:00Z</time>
      </trkpt>
      <trkpt lat="63.96908" lon="13.9495">
        <time>2020-03-01T14:55:00Z</time>
      </trkpt>
      <trkpt lat="63.97938" lon="13.97405">
        <time>2020-03-01T15:55:00Z</time>
      </trkpt>
      <trkpt lat="63.9912" lon="13.98948">
        <time>2020-03-01T16:27:00Z</time>
      </trkpt>
      <trkpt lat="63.99121" lon="13.98952">
        <time>2020-03-01T16:28:00Z</time>
      </trkpt>
      <trkpt lat="63.99149" lon="13.98974">
        <time>2020-03-02T07:56:00Z</time>
      </trkpt>
      <trkpt lat="64.00619" lon="14.02014">
        <time>2020-03-02T08:56:00Z</time>
      </trkpt>
      <trkpt lat="64.01827" lon="14.02021">
        <time>2020-03-02T09:56:00Z</time>
      </trkpt>
      <trkpt lat="64.02545" lon="14.06108">
        <time>2020-03-02T10:56:00Z</time>
      </trkpt>
      <trkpt lat="64.04021" lon="14.08969">
        <time>2020-03-02T11:56:00Z</time>
      </trkpt>
      <trkpt lat="64.05107" lon="14.094">
        <time>2020-03-02T12:56:00Z</time>
      </trkpt>
      <trkpt lat="64.06895" lon="14.11134">
        <time>2020-03-02T13:56:00Z</time>
      </trkpt>
      <trkpt lat="64.07619" lon="14.11606">
        <time>2020-03-02T14:56:00Z</time>
      </trkpt>
      <trkpt lat="64.09525" lon="14.129">
        <time>2020-03-02T15:56:00Z</time>
      </trkpt>
      <trkpt lat="64.09527" lon="14.12904">
        <time>2020-03-02T15:58:00Z</time>
      </trkpt>
      <trkpt lat="64.09523" lon="14.12902">
        <time>2020-03-02T15:58:00Z</time>
      </trkpt>
      <trkpt lat="64.09602" lon="14.1308">
        <time>2020-03-03T08:07:00Z</time>
      </trkpt>
      <trkpt lat="64.11771" lon="14.14631">
        <time>2020-03-03T09:07:00Z</time>
      </trkpt>
      <trkpt lat="64.12737" lon="14.16247">
        <time>2020-03-03T10:07:00Z</time>
      </trkpt>
      <trkpt lat="64.13557" lon="14.18605">
        <time>2020-03-03T11:07:00Z</time>
      </trkpt>
      <trkpt lat="64.14493" lon="14.20429">
        <time>2020-03-03T12:07:00Z</time>
      </trkpt>
      <trkpt lat="64.15316" lon="14.24006">
        <time>2020-03-03T13:07:00Z</time>
      </trkpt>
      <trkpt lat="64.16767" lon="14.24401">
        <time>2020-03-03T14:07:00Z</time>
      </trkpt>
      <trkpt lat="64.1818" lon="14.24521">
        <time>2020-03-03T15:07:00Z</time>
      </trkpt>
      <trkpt lat="64.18977" lon="14.24667">
        <time>2020-03-03T16:07:00Z</time>
      </trkpt>
      <trkpt lat="64.19012" lon="14.24633">
        <time>2020-03-03T16:18:00Z</time>
      </trkpt>
      <trkpt lat="64.18994" lon="14.24641">
        <time>2020-03-03T16:20:00Z</time>
      </trkpt>
      <trkpt lat="64.19416" lon="14.2447">
        <time>2020-03-04T08:27:00Z</time>
      </trkpt>
      <trkpt lat="64.21323" lon="14.25448">
        <time>2020-03-04T09:27:00Z</time>
      </trkpt>
      <trkpt lat="64.22923" lon="14.24774">
        <time>2020-03-04T10:27:00Z</time>
      </trkpt>
      <trkpt lat="64.24829" lon="14.23586">
        <time>2020-03-04T11:27:00Z</time>
      </trkpt>
      <trkpt lat="64.26085" lon="14.2174">
        <time>2020-03-04T12:27:00Z</time>
      </trkpt>
      <trkpt lat="64.27586" lon="14.19024">
        <time>2020-03-04T13:27:00Z</time>
      </trkpt>
      <trkpt lat="64.29279" lon="14.16153">
        <time>2020-03-04T14:27:00Z</time>
      </trkpt>
      <trkpt lat="64.30361" lon="14.14305">
        <time>2020-03-04T15:27:00Z</time>
      </trkpt>
      <trkpt lat="64.31486" lon="14.13958">
        <time>2020-03-04T16:27:00Z</time>
      </trkpt>
      <trkpt lat="64.31489" lon="14.13956">
        <time>2020-03-04T16:44:00Z</time>
      </trkpt>
      <trkpt lat="64.31489" lon="14.13958">
        <time>2020-03-04T16:45:00Z</time>
      </trkpt>
      <trkpt lat="64.31823" lon="14.13988">
        <time>2020-03-05T07:28:00Z</time>
      </trkpt>
      <trkpt lat="64.34161" lon="14.14153">
        <time>2020-03-05T08:28:00Z</time>
      </trkpt>
      <trkpt lat="64.35897" lon="14.13653">
        <time>2020-03-05T09:28:00Z</time>
      </trkpt>
      <trkpt lat="64.37675" lon="14.1325">
        <time>2020-03-05T10:28:00Z</time>
      </trkpt>
      <trkpt lat="64.38744" lon="14.14026">
        <time>2020-03-05T11:28:00Z</time>
      </trkpt>
      <trkpt lat="64.4029" lon="14.14297">
        <time>2020-03-05T12:28:00Z</time>
      </trkpt>
      <trkpt lat="64.41945" lon="14.14852">
        <time>2020-03-05T13:28:00Z</time>
      </trkpt>
      <trkpt lat="64.43133" lon="14.15666">
        <time>2020-03-05T14:28:00Z</time>
      </trkpt>
      <trkpt lat="64.45467" lon="14.16385">
        <time>2020-03-05T15:28:00Z</time>
      </trkpt>
      <trkpt lat="64.48087" lon="14.12614">
        <time>2020-03-05T16:28:00Z</time>
      </trkpt>
      <trkpt lat="64.50555" lon="14.14801">
        <time>2020-03-05T17:28:00Z</time>
      </trkpt>
      <trkpt lat="64.50613" lon="14.14692">
        <time>2020-03-05T17:48:00Z</time>
      </trkpt>
      <trkpt lat="64.50553" lon="14.16584">
        <time>2020-03-06T12:54:00Z</time>
      </trkpt>
      <trkpt lat="64.5021" lon="14.20386">
        <time>2020-03-06T13:54:00Z</time>
      </trkpt>
      <trkpt lat="64.5116" lon="14.2436">
        <time>2020-03-06T14:54:00Z</time>
      </trkpt>
      <trkpt lat="64.52057" lon="14.27405">
        <time>2020-03-06T15:54:00Z</time>
      </trkpt>
      <trkpt lat="64.53502" lon="14.29032">
        <time>2020-03-06T16:32:00Z</time>
      </trkpt>
      <trkpt lat="64.53498" lon="14.2903">
        <time>2020-03-06T16:33:00Z</time>
      </trkpt>
      <trkpt lat="64.53502" lon="14.29047">
        <time>2020-03-07T06:45:00Z</time>
      </trkpt>
      <trkpt lat="64.54899" lon="14.3063">
        <time>2020-03-07T07:45:00Z</time>
      </trkpt>
      <trkpt lat="64.55986" lon="14.31838">
        <time>2020-03-07T08:45:00Z</time>
      </trkpt>
      <trkpt lat="64.58058" lon="14.27126">
        <time>2020-03-07T09:45:00Z</time>
      </trkpt>
      <trkpt lat="64.59416" lon="14.25907">
        <time>2020-03-07T10:45:00Z</time>
      </trkpt>
      <trkpt lat="64.61115" lon="14.27304">
        <time>2020-03-07T11:45:00Z</time>
      </trkpt>
      <trkpt lat="64.62424" lon="14.28004">
        <time>2020-03-07T12:45:00Z</time>
      </trkpt>
      <trkpt lat="64.6473" lon="14.27817">
        <time>2020-03-07T13:45:00Z</time>
      </trkpt>
      <trkpt lat="64.66481" lon="14.30375">
        <time>2020-03-07T14:46:00Z</time>
      </trkpt>
      <trkpt lat="64.66885" lon="14.321">
        <time>2020-03-07T15:46:00Z</time>
      </trkpt>
      <trkpt lat="64.6905" lon="14.33591">
        <time>2020-03-07T16:46:00Z</time>
      </trkpt>
      <trkpt lat="64.69049" lon="14.33795">
        <time>2020-03-07T16:48:00Z</time>
      </trkpt>
      <trkpt lat="64.6905" lon="14.33797">
        <time>2020-03-07T16:49:00Z</time>
      </trkpt>
      <trkpt lat="64.69056" lon="14.33787">
        <time>2020-03-08T07:19:00Z</time>
      </trkpt>
      <trkpt lat="64.70281" lon="14.34703">
        <time>2020-03-08T08:19:00Z</time>
      </trkpt>
      <trkpt lat="64.71256" lon="14.35593">
        <time>2020-03-08T09:19:00Z</time>
      </trkpt>
      <trkpt lat="64.73361" lon="14.39797">
        <time>2020-03-08T10:19:00Z</time>
      </trkpt>
      <trkpt lat="64.7336" lon="14.43638">
        <time>2020-03-08T11:19:00Z</time>
      </trkpt>
      <trkpt lat="64.7292" lon="14.49599">
        <time>2020-03-08T12:19:00Z</time>
      </trkpt>
      <trkpt lat="64.72964" lon="14.5595">
        <time>2020-03-08T13:19:00Z</time>
      </trkpt>
      <trkpt lat="64.72071" lon="14.61298">
        <time>2020-03-08T14:19:00Z</time>
      </trkpt>
      <trkpt lat="64.70541" lon="14.68898">
        <time>2020-03-08T15:19:00Z</time>
      </trkpt>
      <trkpt lat="64.71363" lon="14.70042">
        <time>2020-03-08T16:11:00Z</time>
      </trkpt>
      <trkpt lat="64.71351" lon="14.70042">
        <time>2020-03-08T16:11:00Z</time>
      </trkpt>
      <trkpt lat="64.71508" lon="14.70443">
        <time>2020-03-09T07:18:00Z</time>
      </trkpt>
      <trkpt lat="64.72347" lon="14.72752">
        <time>2020-03-09T08:18:00Z</time>
      </trkpt>
      <trkpt lat="64.73655" lon="14.75524">
        <time>2020-03-09T09:18:00Z</time>
      </trkpt>
      <trkpt lat="64.75104" lon="14.80708">
        <time>2020-03-09T10:18:00Z</time>
      </trkpt>
      <trkpt lat="64.75356" lon="14.81974">
        <time>2020-03-09T11:19:00Z</time>
      </trkpt>
      <trkpt lat="64.76694" lon="14.84714">
        <time>2020-03-09T12:19:00Z</time>
      </trkpt>
      <trkpt lat="64.77091" lon="14.89675">
        <time>2020-03-09T13:19:00Z</time>
      </trkpt>
      <trkpt lat="64.7651" lon="14.9987">
        <time>2020-03-09T14:19:00Z</time>
      </trkpt>
      <trkpt lat="64.78506" lon="15.02475">
        <time>2020-03-09T15:19:00Z</time>
      </trkpt>
      <trkpt lat="64.80631" lon="15.02951">
        <time>2020-03-09T16:19:00Z</time>
      </trkpt>
      <trkpt lat="64.80996" lon="15.04183">
        <time>2020-03-09T16:43:00Z</time>
      </trkpt>
      <trkpt lat="64.80996" lon="15.04176">
        <time>2020-03-09T16:43:00Z</time>
      </trkpt>
      <trkpt lat="64.81177" lon="15.04464">
        <time>2020-03-10T06:30:00Z</time>
      </trkpt>
      <trkpt lat="64.82854" lon="15.08389">
        <time>2020-03-10T07:30:00Z</time>
      </trkpt>
      <trkpt lat="64.84099" lon="15.10996">
        <time>2020-03-10T08:30:00Z</time>
      </trkpt>
      <trkpt lat="64.85679" lon="15.12528">
        <time>2020-03-10T09:30:00Z</time>
      </trkpt>
      <trkpt lat="64.85955" lon="15.19173">
        <time>2020-03-10T10:30:00Z</time>
      </trkpt>
      <trkpt lat="64.86466" lon="15.19939">
        <time>2020-03-10T11:30:00Z</time>
      </trkpt>
      <trkpt lat="64.90919" lon="15.22875">
        <time>2020-03-10T12:30:00Z</time>
      </trkpt>
      <trkpt lat="64.92183" lon="15.27033">
        <time>2020-03-10T13:30:00Z</time>
      </trkpt>
      <trkpt lat="64.96076" lon="15.30936">
        <time>2020-03-10T14:30:00Z</time>
      </trkpt>
      <trkpt lat="64.97141" lon="15.35739">
        <time>2020-03-10T15:30:00Z</time>
      </trkpt>
      <trkpt lat="64.971" lon="15.35764">
        <time>2020-03-10T16:01:00Z</time>
      </trkpt>
      <trkpt lat="64.97142" lon="15.35773">
        <time>2020-03-10T16:34:00Z</time>
      </trkpt>
      <trkpt lat="64.97098" lon="15.35803">
        <time>2020-03-12T08:48:00Z</time>
      </trkpt>
      <trkpt lat="64.99177" lon="15.38283">
        <time>2020-03-12T09:48:00Z</time>
      </trkpt>
      <trkpt lat="65.01799" lon="15.37191">
        <time>2020-03-12T10:48:00Z</time>
      </trkpt>
      <trkpt lat="65.03176" lon="15.3656">
        <time>2020-03-12T11:48:00Z</time>
      </trkpt>
      <trkpt lat="65.04612" lon="15.36279">
        <time>2020-03-12T12:48:00Z</time>
      </trkpt>
      <trkpt lat="65.06181" lon="15.35522">
        <time>2020-03-12T13:48:00Z</time>
      </trkpt>
      <trkpt lat="65.0826" lon="15.33983">
        <time>2020-03-12T14:48:00Z</time>
      </trkpt>
      <trkpt lat="65.09484" lon="15.2916">
        <time>2020-03-12T15:48:00Z</time>
      </trkpt>
      <trkpt lat="65.10304" lon="15.2645">
        <time>2020-03-12T16:21:00Z</time>
      </trkpt>
      <trkpt lat="65.103" lon="15.26497">
        <time>2020-03-13T08:14:00Z</time>
      </trkpt>
      <trkpt lat="65.11492" lon="15.29125">
        <time>2020-03-13T09:14:00Z</time>
      </trkpt>
      <trkpt lat="65.13237" lon="15.31681">
        <time>2020-03-13T10:14:00Z</time>
      </trkpt>
      <trkpt lat="65.16239" lon="15.36934">
        <time>2020-03-13T11:14:00Z</time>
      </trkpt>
      <trkpt lat="65.17489" lon="15.38206">
        <time>2020-03-13T12:14:00Z</time>
      </trkpt>
      <trkpt lat="65.1898" lon="15.43734">
        <time>2020-03-13T13:14:00Z</time>
      </trkpt>
      <trkpt lat="65.20551" lon="15.49879">
        <time>2020-03-13T14:14:00Z</time>
      </trkpt>
      <trkpt lat="65.23329" lon="15.53875">
        <time>2020-03-13T15:14:00Z</time>
      </trkpt>
      <trkpt lat="65.24987" lon="15.50124">
        <time>2020-03-13T16:14:00Z</time>
      </trkpt>
      <trkpt lat="65.25085" lon="15.49795">
        <time>2020-03-13T17:11:00Z</time>
      </trkpt>
      <trkpt lat="65.25085" lon="15.49795">
        <time>2020-03-13T17:11:00Z</time>
      </trkpt>
      <trkpt lat="65.25099" lon="15.50145">
        <time>2020-03-14T08:13:00Z</time>
      </trkpt>
      <trkpt lat="65.25805" lon="15.54038">
        <time>2020-03-14T09:13:00Z</time>
      </trkpt>
      <trkpt lat="65.2802" lon="15.54774">
        <time>2020-03-14T10:13:00Z</time>
      </trkpt>
      <trkpt lat="65.28174" lon="15.59799">
        <time>2020-03-14T11:13:00Z</time>
      </trkpt>
      <trkpt lat="65.27664" lon="15.65942">
        <time>2020-03-14T12:13:00Z</time>
      </trkpt>
      <trkpt lat="65.28689" lon="15.71989">
        <time>2020-03-14T13:14:00Z</time>
      </trkpt>
      <trkpt lat="65.28996" lon="15.75869">
        <time>2020-03-14T14:14:00Z</time>
      </trkpt>
      <trkpt lat="65.28961" lon="15.81182">
        <time>2020-03-14T15:14:00Z</time>
      </trkpt>
      <trkpt lat="65.28272" lon="15.86801">
        <time>2020-03-14T16:14:00Z</time>
      </trkpt>
      <trkpt lat="65.28288" lon="15.86806">
        <time>2020-03-14T16:22:00Z</time>
      </trkpt>
      <trkpt lat="65.2829" lon="15.86804">
        <time>2020-03-14T16:23:00Z</time>
      </trkpt>
      <trkpt lat="65.28284" lon="15.86891">
        <time>2020-03-15T07:56:00Z</time>
      </trkpt>
      <trkpt lat="65.31045" lon="15.86243">
        <time>2020-03-15T08:56:00Z</time>
      </trkpt>
      <trkpt lat="65.33677" lon="15.87295">
        <time>2020-03-15T09:56:00Z</time>
      </trkpt>
      <trkpt lat="65.35224" lon="15.87561">
        <time>2020-03-15T10:56:00Z</time>
      </trkpt>
      <trkpt lat="65.36116" lon="15.87509">
        <time>2020-03-15T11:56:00Z</time>
      </trkpt>
      <trkpt lat="65.38147" lon="15.85156">
        <time>2020-03-15T12:56:00Z</time>
      </trkpt>
      <trkpt lat="65.40111" lon="15.81051">
        <time>2020-03-15T13:56:00Z</time>
      </trkpt>
      <trkpt lat="65.43679" lon="15.81858">
        <time>2020-03-15T14:56:00Z</time>
      </trkpt>
      <trkpt lat="65.44798" lon="15.82851">
        <time>2020-03-15T15:56:00Z</time>
      </trkpt>
      <trkpt lat="65.44805" lon="15.82855">
        <time>2020-03-15T16:12:00Z</time>
      </trkpt>
      <trkpt lat="65.448" lon="15.82853">
        <time>2020-03-15T16:13:00Z</time>
      </trkpt>
      <trkpt lat="65.44801" lon="15.82868">
        <time>2020-03-16T07:43:00Z</time>
      </trkpt>
      <trkpt lat="65.47309" lon="15.88428">
        <time>2020-03-16T08:43:00Z</time>
      </trkpt>
      <trkpt lat="65.48295" lon="15.91833">
        <time>2020-03-16T09:43:00Z</time>
      </trkpt>
      <trkpt lat="65.49632" lon="15.91554">
        <time>2020-03-16T10:43:00Z</time>
      </trkpt>
      <trkpt lat="65.51134" lon="15.90147">
        <time>2020-03-16T11:43:00Z</time>
      </trkpt>
      <trkpt lat="65.51728" lon="15.89906">
        <time>2020-03-16T12:43:00Z</time>
      </trkpt>
      <trkpt lat="65.53589" lon="15.92258">
        <time>2020-03-16T13:43:00Z</time>
      </trkpt>
      <trkpt lat="65.54924" lon="15.96075">
        <time>2020-03-16T14:43:00Z</time>
      </trkpt>
      <trkpt lat="65.5716" lon="15.98562">
        <time>2020-03-16T15:43:00Z</time>
      </trkpt>
      <trkpt lat="65.58995" lon="15.97449">
        <time>2020-03-16T16:37:00Z</time>
      </trkpt>
      <trkpt lat="65.58992" lon="15.97451">
        <time>2020-03-16T16:37:00Z</time>
      </trkpt>
      <trkpt lat="65.58986" lon="15.97668">
        <time>2020-03-17T07:43:00Z</time>
      </trkpt>
      <trkpt lat="65.61253" lon="15.96839">
        <time>2020-03-17T08:43:00Z</time>
      </trkpt>
      <trkpt lat="65.63195" lon="15.9658">
        <time>2020-03-17T09:43:00Z</time>
      </trkpt>
      <trkpt lat="65.64294" lon="15.90018">
        <time>2020-03-17T10:43:00Z</time>
      </trkpt>
      <trkpt lat="65.6618" lon="15.85679">
        <time>2020-03-17T11:43:00Z</time>
      </trkpt>
      <trkpt lat="65.67422" lon="15.82445">
        <time>2020-03-17T12:43:00Z</time>
      </trkpt>
      <trkpt lat="65.6861" lon="15.80534">
        <time>2020-03-17T13:43:00Z</time>
      </trkpt>
      <trkpt lat="65.69843" lon="15.811">
        <time>2020-03-17T14:43:00Z</time>
      </trkpt>
      <trkpt lat="65.7172" lon="15.81954">
        <time>2020-03-17T15:43:00Z</time>
      </trkpt>
      <trkpt lat="65.72489" lon="15.82757">
        <time>2020-03-17T16:12:00Z</time>
      </trkpt>
      <trkpt lat="65.72489" lon="15.82761">
        <time>2020-03-17T16:14:00Z</time>
      </trkpt>
      <trkpt lat="65.72518" lon="15.82849">
        <time>2020-03-18T07:48:00Z</time>
      </trkpt>
      <trkpt lat="65.74019" lon="15.84774">
        <time>2020-03-18T08:48:00Z</time>
      </trkpt>
      <trkpt lat="65.76583" lon="15.83905">
        <time>2020-03-18T09:48:00Z</time>
      </trkpt>
      <trkpt lat="65.78283" lon="15.90228">
        <time>2020-03-18T10:48:00Z</time>
      </trkpt>
      <trkpt lat="65.78166" lon="15.9582">
        <time>2020-03-18T11:48:00Z</time>
      </trkpt>
      <trkpt lat="65.78834" lon="16.05626">
        <time>2020-03-18T12:48:00Z</time>
      </trkpt>
      <trkpt lat="65.80556" lon="16.11686">
        <time>2020-03-18T13:48:00Z</time>
      </trkpt>
      <trkpt lat="65.8107" lon="16.11385">
        <time>2020-03-18T14:48:00Z</time>
      </trkpt>
      <trkpt lat="65.81577" lon="16.12111">
        <time>2020-03-18T15:48:00Z</time>
      </trkpt>
      <trkpt lat="65.81891" lon="16.12939">
        <time>2020-03-18T16:06:00Z</time>
      </trkpt>
      <trkpt lat="65.8189" lon="16.12965">
        <time>2020-03-18T16:07:00Z</time>
      </trkpt>
      <trkpt lat="65.81959" lon="16.12954">
        <time>2020-03-19T07:18:00Z</time>
      </trkpt>
      <trkpt lat="65.84141" lon="16.13366">
        <time>2020-03-19T08:18:00Z</time>
      </trkpt>
      <trkpt lat="65.85925" lon="16.14445">
        <time>2020-03-19T09:18:00Z</time>
      </trkpt>
      <trkpt lat="65.88691" lon="16.16967">
        <time>2020-03-19T10:18:00Z</time>
      </trkpt>
      <trkpt lat="65.90503" lon="16.16055">
        <time>2020-03-19T11:18:00Z</time>
      </trkpt>
      <trkpt lat="65.92742" lon="16.16231">
        <time>2020-03-19T12:18:00Z</time>
      </trkpt>
      <trkpt lat="65.96043" lon="16.21219">
        <time>2020-03-19T13:18:00Z</time>
      </trkpt>
      <trkpt lat="65.96042" lon="16.21222">
        <time>2020-03-19T13:37:00Z</time>
      </trkpt>
      <trkpt lat="65.96041" lon="16.21222">
        <time>2020-03-19T13:37:00Z</time>
      </trkpt>
      <trkpt lat="65.96489" lon="16.2141">
        <time>2020-03-21T08:36:00Z</time>
      </trkpt>
      <trkpt lat="66.00021" lon="16.19514">
        <time>2020-03-21T09:36:00Z</time>
      </trkpt>
      <trkpt lat="66.03437" lon="16.19001">
        <time>2020-03-21T10:36:00Z</time>
      </trkpt>
      <trkpt lat="66.03915" lon="16.21337">
        <time>2020-03-21T11:36:00Z</time>
      </trkpt>
      <trkpt lat="66.03929" lon="16.25131">
        <time>2020-03-21T12:36:00Z</time>
      </trkpt>
      <trkpt lat="66.05206" lon="16.26777">
        <time>2020-03-21T13:36:00Z</time>
      </trkpt>
      <trkpt lat="66.07511" lon="16.2756">
        <time>2020-03-21T14:37:00Z</time>
      </trkpt>
      <trkpt lat="66.10422" lon="16.31805">
        <time>2020-03-21T15:37:00Z</time>
      </trkpt>
      <trkpt lat="66.1317" lon="16.3557">
        <time>2020-03-21T16:30:00Z</time>
      </trkpt>
      <trkpt lat="66.13127" lon="16.35566">
        <time>2020-03-21T16:31:00Z</time>
      </trkpt>
      <trkpt lat="66.13228" lon="16.35789">
        <time>2020-03-22T07:55:00Z</time>
      </trkpt>
      <trkpt lat="66.16396" lon="16.35457">
        <time>2020-03-22T08:55:00Z</time>
      </trkpt>
      <trkpt lat="66.19114" lon="16.37836">
        <time>2020-03-22T09:55:00Z</time>
      </trkpt>
      <trkpt lat="66.21884" lon="16.37622">
        <time>2020-03-22T10:55:00Z</time>
      </trkpt>
      <trkpt lat="66.22684" lon="16.3865">
        <time>2020-03-22T11:55:00Z</time>
      </trkpt>
      <trkpt lat="66.25919" lon="16.38883">
        <time>2020-03-22T12:55:00Z</time>
      </trkpt>
      <trkpt lat="66.28361" lon="16.51127">
        <time>2020-03-22T13:55:00Z</time>
      </trkpt>
      <trkpt lat="66.28748" lon="16.59474">
        <time>2020-03-22T14:55:00Z</time>
      </trkpt>
      <trkpt lat="66.27865" lon="16.65315">
        <time>2020-03-22T15:55:00Z</time>
      </trkpt>
      <trkpt lat="66.27862" lon="16.6533">
        <time>2020-03-22T16:00:00Z</time>
      </trkpt>
      <trkpt lat="66.27853" lon="16.65332">
        <time>2020-03-22T16:00:00Z</time>
      </trkpt>
      <trkpt lat="66.27862" lon="16.65332">
        <time>2020-03-23T07:47:00Z</time>
      </trkpt>
      <trkpt lat="66.29766" lon="16.67641">
        <time>2020-03-23T08:47:00Z</time>
      </trkpt>
      <trkpt lat="66.30988" lon="16.69004">
        <time>2020-03-23T09:47:00Z</time>
      </trkpt>
      <trkpt lat="66.33032" lon="16.76578">
        <time>2020-03-23T10:47:00Z</time>
      </trkpt>
      <trkpt lat="66.34308" lon="16.80638">
        <time>2020-03-23T11:47:00Z</time>
      </trkpt>
      <trkpt lat="66.35173" lon="16.83588">
        <time>2020-03-23T12:47:00Z</time>
      </trkpt>
      <trkpt lat="66.36505" lon="16.91704">
        <time>2020-03-23T13:47:00Z</time>
      </trkpt>
      <trkpt lat="66.3876" lon="16.96562">
        <time>2020-03-23T14:44:00Z</time>
      </trkpt>
      <trkpt lat="66.38762" lon="16.96575">
        <time>2020-03-23T14:44:00Z</time>
      </trkpt>
      <trkpt lat="66.38649" lon="16.9686">
        <time>2020-03-24T10:08:00Z</time>
      </trkpt>
      <trkpt lat="66.39341" lon="17.04679">
        <time>2020-03-24T11:08:00Z</time>
      </trkpt>
      <trkpt lat="66.4033" lon="17.1494">
        <time>2020-03-24T12:08:00Z</time>
      </trkpt>
      <trkpt lat="66.41918" lon="17.18624">
        <time>2020-03-24T13:08:00Z</time>
      </trkpt>
      <trkpt lat="66.42805" lon="17.18933">
        <time>2020-03-24T14:08:00Z</time>
      </trkpt>
      <trkpt lat="66.44635" lon="17.24165">
        <time>2020-03-24T15:08:00Z</time>
      </trkpt>
      <trkpt lat="66.4692" lon="17.24008">
        <time>2020-03-24T16:08:00Z</time>
      </trkpt>
      <trkpt lat="66.49856" lon="17.23354">
        <time>2020-03-24T17:08:00Z</time>
      </trkpt>
      <trkpt lat="66.50002" lon="17.23549">
        <time>2020-03-24T17:14:00Z</time>
      </trkpt>
      <trkpt lat="66.49974" lon="17.23551">
        <time>2020-03-24T17:14:00Z</time>
      </trkpt>
      <trkpt lat="66.5013" lon="17.23607">
        <time>2020-03-25T08:57:00Z</time>
      </trkpt>
      <trkpt lat="66.53973" lon="17.23272">
        <time>2020-03-25T09:57:00Z</time>
      </trkpt>
      <trkpt lat="66.56464" lon="17.23562">
        <time>2020-03-25T10:57:00Z</time>
      </trkpt>
      <trkpt lat="66.56482" lon="17.26233">
        <time>2020-03-25T11:57:00Z</time>
      </trkpt>
      <trkpt lat="66.55355" lon="17.33958">
        <time>2020-03-25T12:57:00Z</time>
      </trkpt>
      <trkpt lat="66.56047" lon="17.39039">
        <time>2020-03-25T13:57:00Z</time>
      </trkpt>
      <trkpt lat="66.59093" lon="17.38853">
        <time>2020-03-25T14:57:00Z</time>
      </trkpt>
      <trkpt lat="66.62194" lon="17.37477">
        <time>2020-03-25T15:57:00Z</time>
      </trkpt>
      <trkpt lat="66.63084" lon="17.38715">
        <time>2020-03-25T16:28:00Z</time>
      </trkpt>
      <trkpt lat="66.63121" lon="17.38713">
        <time>2020-03-26T09:05:00Z</time>
      </trkpt>
      <trkpt lat="66.66199" lon="17.41855">
        <time>2020-03-26T10:05:00Z</time>
      </trkpt>
      <trkpt lat="66.69753" lon="17.40516">
        <time>2020-03-26T11:05:00Z</time>
      </trkpt>
      <trkpt lat="66.71175" lon="17.38827">
        <time>2020-03-26T12:05:00Z</time>
      </trkpt>
      <trkpt lat="66.72484" lon="17.39666">
        <time>2020-03-26T13:05:00Z</time>
      </trkpt>
      <trkpt lat="66.74448" lon="17.41314">
        <time>2020-03-26T14:05:00Z</time>
      </trkpt>
      <trkpt lat="66.76615" lon="17.49154">
        <time>2020-03-26T15:05:00Z</time>
      </trkpt>
      <trkpt lat="66.77794" lon="17.54085">
        <time>2020-03-26T16:05:00Z</time>
      </trkpt>
      <trkpt lat="66.78131" lon="17.5524">
        <time>2020-03-26T16:35:00Z</time>
      </trkpt>
      <trkpt lat="66.78134" lon="17.55231">
        <time>2020-03-26T16:36:00Z</time>
      </trkpt>
      <trkpt lat="66.78136" lon="17.55218">
        <time>2020-03-27T08:37:00Z</time>
      </trkpt>
      <trkpt lat="66.79661" lon="17.53877">
        <time>2020-03-27T09:37:00Z</time>
      </trkpt>
      <trkpt lat="66.81906" lon="17.56298">
        <time>2020-03-27T10:37:00Z</time>
      </trkpt>
      <trkpt lat="66.8449" lon="17.58933">
        <time>2020-03-27T11:37:00Z</time>
      </trkpt>
      <trkpt lat="66.87142" lon="17.61327">
        <time>2020-03-27T12:37:00Z</time>
      </trkpt>
      <trkpt lat="66.88796" lon="17.65818">
        <time>2020-03-27T13:37:00Z</time>
      </trkpt>
      <trkpt lat="66.92422" lon="17.67595">
        <time>2020-03-27T14:37:00Z</time>
      </trkpt>
      <trkpt lat="66.93998" lon="17.72756">
        <time>2020-03-27T15:37:00Z</time>
      </trkpt>
      <trkpt lat="66.95392" lon="17.71908">
        <time>2020-03-27T16:31:00Z</time>
      </trkpt>
      <trkpt lat="66.95402" lon="17.71964">
        <time>2020-03-28T10:14:00Z</time>
      </trkpt>
      <trkpt lat="66.96981" lon="17.74565">
        <time>2020-03-28T11:14:00Z</time>
      </trkpt>
      <trkpt lat="66.99818" lon="17.79069">
        <time>2020-03-28T12:14:00Z</time>
      </trkpt>
      <trkpt lat="67.00631" lon="17.79039">
        <time>2020-03-28T13:14:00Z</time>
      </trkpt>
      <trkpt lat="67.02611" lon="17.8495">
        <time>2020-03-28T14:14:00Z</time>
      </trkpt>
      <trkpt lat="67.03428" lon="17.93012">
        <time>2020-03-28T15:14:00Z</time>
      </trkpt>
      <trkpt lat="67.04325" lon="17.97331">
        <time>2020-03-28T16:14:00Z</time>
      </trkpt>
      <trkpt lat="67.04325" lon="17.99445">
        <time>2020-03-28T16:32:00Z</time>
      </trkpt>
      <trkpt lat="67.04329" lon="17.99473">
        <time>2020-03-29T08:04:00Z</time>
      </trkpt>
      <trkpt lat="67.05029" lon="18.0824">
        <time>2020-03-29T09:04:00Z</time>
      </trkpt>
      <trkpt lat="67.05728" lon="18.14748">
        <time>2020-03-29T10:04:00Z</time>
      </trkpt>
      <trkpt lat="67.0568" lon="18.16478">
        <time>2020-03-29T11:04:00Z</time>
      </trkpt>
      <trkpt lat="67.07174" lon="18.26911">
        <time>2020-03-29T12:04:00Z</time>
      </trkpt>
      <trkpt lat="67.09297" lon="18.27303">
        <time>2020-03-29T13:04:00Z</time>
      </trkpt>
      <trkpt lat="67.11956" lon="18.29035">
        <time>2020-03-29T14:04:00Z</time>
      </trkpt>
      <trkpt lat="67.13512" lon="18.30998">
        <time>2020-03-29T15:04:00Z</time>
      </trkpt>
      <trkpt lat="67.14777" lon="18.31942">
        <time>2020-03-29T16:04:00Z</time>
      </trkpt>
      <trkpt lat="67.15185" lon="18.33071">
        <time>2020-03-29T16:37:00Z</time>
      </trkpt>
      <trkpt lat="67.15185" lon="18.33071">
        <time>2020-03-29T16:37:00Z</time>
      </trkpt>
      <trkpt lat="67.15283" lon="18.33251">
        <time>2020-03-30T07:02:00Z</time>
      </trkpt>
      <trkpt lat="67.16599" lon="18.3588">
        <time>2020-03-30T08:02:00Z</time>
      </trkpt>
      <trkpt lat="67.1906" lon="18.43545">
        <time>2020-03-30T09:02:00Z</time>
      </trkpt>
      <trkpt lat="67.21451" lon="18.4309">
        <time>2020-03-30T10:02:00Z</time>
      </trkpt>
      <trkpt lat="67.2316" lon="18.44167">
        <time>2020-03-30T11:03:00Z</time>
      </trkpt>
      <trkpt lat="67.24875" lon="18.46574">
        <time>2020-03-30T12:03:00Z</time>
      </trkpt>
      <trkpt lat="67.27826" lon="18.46214">
        <time>2020-03-30T13:03:00Z</time>
      </trkpt>
      <trkpt lat="67.3024" lon="18.48832">
        <time>2020-03-30T14:03:00Z</time>
      </trkpt>
      <trkpt lat="67.33872" lon="18.50214">
        <time>2020-03-30T15:03:00Z</time>
      </trkpt>
      <trkpt lat="67.37157" lon="18.52293">
        <time>2020-03-30T16:03:00Z</time>
      </trkpt>
      <trkpt lat="67.39401" lon="18.52065">
        <time>2020-03-30T16:33:00Z</time>
      </trkpt>
      <trkpt lat="67.39575" lon="18.52679">
        <time>2020-04-02T06:27:00Z</time>
      </trkpt>
      <trkpt lat="67.39639" lon="18.60095">
        <time>2020-04-02T07:27:00Z</time>
      </trkpt>
      <trkpt lat="67.39457" lon="18.69225">
        <time>2020-04-02T08:27:00Z</time>
      </trkpt>
      <trkpt lat="67.39709" lon="18.7628">
        <time>2020-04-02T09:28:00Z</time>
      </trkpt>
      <trkpt lat="67.40523" lon="18.79448">
        <time>2020-04-02T10:28:00Z</time>
      </trkpt>
      <trkpt lat="67.41691" lon="18.79999">
        <time>2020-04-02T11:28:00Z</time>
      </trkpt>
      <trkpt lat="67.44106" lon="18.83246">
        <time>2020-04-02T12:28:00Z</time>
      </trkpt>
      <trkpt lat="67.46019" lon="18.85303">
        <time>2020-04-02T13:28:00Z</time>
      </trkpt>
      <trkpt lat="67.48823" lon="18.87086">
        <time>2020-04-02T14:28:00Z</time>
      </trkpt>
      <trkpt lat="67.5019" lon="18.89348">
        <time>2020-04-02T15:28:00Z</time>
      </trkpt>
      <trkpt lat="67.51196" lon="18.9209">
        <time>2020-04-02T16:02:00Z</time>
      </trkpt>
      <trkpt lat="67.5154" lon="18.92599">
        <time>2020-04-03T07:41:00Z</time>
      </trkpt>
      <trkpt lat="67.52992" lon="18.98066">
        <time>2020-04-03T08:41:00Z</time>
      </trkpt>
      <trkpt lat="67.55047" lon="18.96541">
        <time>2020-04-03T09:41:00Z</time>
      </trkpt>
      <trkpt lat="67.56834" lon="18.93953">
        <time>2020-04-03T10:41:00Z</time>
      </trkpt>
      <trkpt lat="67.58167" lon="18.94341">
        <time>2020-04-03T11:41:00Z</time>
      </trkpt>
      <trkpt lat="67.60882" lon="19.00414">
        <time>2020-04-03T12:41:00Z</time>
      </trkpt>
      <trkpt lat="67.62412" lon="19.00231">
        <time>2020-04-03T13:41:00Z</time>
      </trkpt>
      <trkpt lat="67.63761" lon="19.01785">
        <time>2020-04-03T14:42:00Z</time>
      </trkpt>
      <trkpt lat="67.65657" lon="19.03143">
        <time>2020-04-03T15:42:00Z</time>
      </trkpt>
      <trkpt lat="67.67959" lon="19.04059">
        <time>2020-04-03T16:42:00Z</time>
      </trkpt>
      <trkpt lat="67.71471" lon="19.04787">
        <time>2020-04-03T17:42:00Z</time>
      </trkpt>
      <trkpt lat="67.7147" lon="19.04787">
        <time>2020-04-03T17:43:00Z</time>
      </trkpt>
      <trkpt lat="67.71471" lon="19.04787">
        <time>2020-04-03T17:44:00Z</time>
      </trkpt>
      <trkpt lat="67.71473" lon="19.048">
        <time>2020-04-04T07:29:00Z</time>
      </trkpt>
      <trkpt lat="67.72238" lon="19.04851">
        <time>2020-04-04T08:29:00Z</time>
      </trkpt>
      <trkpt lat="67.73829" lon="19.05349">
        <time>2020-04-04T09:29:00Z</time>
      </trkpt>
      <trkpt lat="67.75401" lon="19.06493">
        <time>2020-04-04T10:29:00Z</time>
      </trkpt>
      <trkpt lat="67.77633" lon="19.07982">
        <time>2020-04-04T11:29:00Z</time>
      </trkpt>
      <trkpt lat="67.78727" lon="19.09151">
        <time>2020-04-04T12:29:00Z</time>
      </trkpt>
      <trkpt lat="67.82475" lon="19.124">
        <time>2020-04-04T13:29:00Z</time>
      </trkpt>
      <trkpt lat="67.83871" lon="19.0536">
        <time>2020-04-04T14:29:00Z</time>
      </trkpt>
      <trkpt lat="67.85089" lon="19.01156">
        <time>2020-04-04T15:16:00Z</time>
      </trkpt>
      <trkpt lat="67.85092" lon="19.01143">
        <time>2020-04-04T15:16:00Z</time>
      </trkpt>
      <trkpt lat="67.84984" lon="19.02358">
        <time>2020-04-05T06:48:00Z</time>
      </trkpt>
      <trkpt lat="67.85459" lon="19.10287">
        <time>2020-04-05T07:48:00Z</time>
      </trkpt>
      <trkpt lat="67.85367" lon="19.21444">
        <time>2020-04-05T08:48:00Z</time>
      </trkpt>
      <trkpt lat="67.85816" lon="19.31165">
        <time>2020-04-05T09:48:00Z</time>
      </trkpt>
      <trkpt lat="67.87238" lon="19.3534">
        <time>2020-04-05T10:49:00Z</time>
      </trkpt>
      <trkpt lat="67.87743" lon="19.34508">
        <time>2020-04-05T11:49:00Z</time>
      </trkpt>
      <trkpt lat="67.88828" lon="19.35115">
        <time>2020-04-05T12:49:00Z</time>
      </trkpt>
      <trkpt lat="67.90185" lon="19.31849">
        <time>2020-04-05T13:49:00Z</time>
      </trkpt>
      <trkpt lat="67.91987" lon="19.28493">
        <time>2020-04-05T14:49:00Z</time>
      </trkpt>
      <trkpt lat="67.93315" lon="19.26212">
        <time>2020-04-05T15:34:00Z</time>
      </trkpt>
      <trkpt lat="67.93311" lon="19.26223">
        <time>2020-04-05T15:35:00Z</time>
      </trkpt>
      <trkpt lat="67.93699" lon="19.25963">
        <time>2020-04-06T07:07:00Z</time>
      </trkpt>
      <trkpt lat="67.96537" lon="19.22236">
        <time>2020-04-06T08:07:00Z</time>
      </trkpt>
      <trkpt lat="67.98707" lon="19.25243">
        <time>2020-04-06T09:07:00Z</time>
      </trkpt>
      <trkpt lat="67.98755" lon="19.31714">
        <time>2020-04-06T10:08:00Z</time>
      </trkpt>
      <trkpt lat="67.98579" lon="19.33793">
        <time>2020-04-06T11:08:00Z</time>
      </trkpt>
      <trkpt lat="67.97902" lon="19.41954">
        <time>2020-04-06T12:08:00Z</time>
      </trkpt>
      <trkpt lat="67.97846" lon="19.48428">
        <time>2020-04-06T13:08:00Z</time>
      </trkpt>
      <trkpt lat="68.00173" lon="19.5067">
        <time>2020-04-06T14:08:00Z</time>
      </trkpt>
      <trkpt lat="68.03113" lon="19.48807">
        <time>2020-04-06T15:08:00Z</time>
      </trkpt>
      <trkpt lat="68.04364" lon="19.5026">
        <time>2020-04-06T16:08:00Z</time>
      </trkpt>
      <trkpt lat="68.04624" lon="19.52805">
        <time>2020-04-06T16:56:00Z</time>
      </trkpt>
      <trkpt lat="68.04614" lon="19.52831">
        <time>2020-04-06T16:57:00Z</time>
      </trkpt>
      <trkpt lat="68.04662" lon="19.52951">
        <time>2020-04-07T07:06:00Z</time>
      </trkpt>
      <trkpt lat="68.05754" lon="19.55888">
        <time>2020-04-07T08:06:00Z</time>
      </trkpt>
      <trkpt lat="68.06829" lon="19.57502">
        <time>2020-04-07T09:06:00Z</time>
      </trkpt>
      <trkpt lat="68.08821" lon="19.60455">
        <time>2020-04-07T10:06:00Z</time>
      </trkpt>
      <trkpt lat="68.09957" lon="19.6054">
        <time>2020-04-07T11:06:00Z</time>
      </trkpt>
      <trkpt lat="68.1192" lon="19.62225">
        <time>2020-04-07T12:06:00Z</time>
      </trkpt>
      <trkpt lat="68.15598" lon="19.65435">
        <time>2020-04-07T13:06:00Z</time>
      </trkpt>
      <trkpt lat="68.18495" lon="19.67776">
        <time>2020-04-07T14:06:00Z</time>
      </trkpt>
      <trkpt lat="68.19759" lon="19.70561">
        <time>2020-04-07T15:06:00Z</time>
      </trkpt>
      <trkpt lat="68.22828" lon="19.72477">
        <time>2020-04-07T16:06:00Z</time>
      </trkpt>
      <trkpt lat="68.22143" lon="19.80691">
        <time>2020-04-07T17:06:00Z</time>
      </trkpt>
      <trkpt lat="68.22133" lon="19.80678">
        <time>2020-04-07T17:09:00Z</time>
      </trkpt>
      <trkpt lat="68.22135" lon="19.80681">
        <time>2020-04-07T17:10:00Z</time>
      </trkpt>
      <trkpt lat="68.22138" lon="19.80704">
        <time>2020-04-08T05:42:00Z</time>
      </trkpt>
      <trkpt lat="68.23278" lon="19.87581">
        <time>2020-04-08T06:42:00Z</time>
      </trkpt>
      <trkpt lat="68.24932" lon="19.90978">
        <time>2020-04-08T07:42:00Z</time>
      </trkpt>
      <trkpt lat="68.26996" lon="19.89493">
        <time>2020-04-08T08:42:00Z</time>
      </trkpt>
      <trkpt lat="68.27002" lon="19.89504">
        <time>2020-04-08T08:53:00Z</time>
      </trkpt>
      <trkpt lat="68.27865" lon="19.88826">
        <time>2020-04-09T08:36:00Z</time>
      </trkpt>
      <trkpt lat="68.29683" lon="19.90399">
        <time>2020-04-09T09:36:00Z</time>
      </trkpt>
      <trkpt lat="68.31783" lon="19.93798">
        <time>2020-04-09T10:36:00Z</time>
      </trkpt>
      <trkpt lat="68.32678" lon="19.95143">
        <time>2020-04-09T11:36:00Z</time>
      </trkpt>
      <trkpt lat="68.3448" lon="19.96611">
        <time>2020-04-09T12:36:00Z</time>
      </trkpt>
      <trkpt lat="68.36799" lon="20.04288">
        <time>2020-04-09T13:36:00Z</time>
      </trkpt>
      <trkpt lat="68.37588" lon="20.07627">
        <time>2020-04-09T14:36:00Z</time>
      </trkpt>
      <trkpt lat="68.4008" lon="20.06749">
        <time>2020-04-09T15:36:00Z</time>
      </trkpt>
      <trkpt lat="68.41602" lon="20.0879">
        <time>2020-04-09T16:18:00Z</time>
      </trkpt>
      <trkpt lat="68.41602" lon="20.08786">
        <time>2020-04-09T16:18:00Z</time>
      </trkpt>
      <trkpt lat="68.41653" lon="20.09258">
        <time>2020-04-10T06:25:00Z</time>
      </trkpt>
      <trkpt lat="68.42521" lon="20.15693">
        <time>2020-04-10T07:25:00Z</time>
      </trkpt>
      <trkpt lat="68.46156" lon="20.21386">
        <time>2020-04-10T08:25:00Z</time>
      </trkpt>
      <trkpt lat="68.47553" lon="20.22984">
        <time>2020-04-10T09:25:00Z</time>
      </trkpt>
      <trkpt lat="68.49109" lon="20.26842">
        <time>2020-04-10T10:25:00Z</time>
      </trkpt>
      <trkpt lat="68.52153" lon="20.2943">
        <time>2020-04-10T11:25:00Z</time>
      </trkpt>
      <trkpt lat="68.55097" lon="20.31426">
        <time>2020-04-10T12:25:00Z</time>
      </trkpt>
      <trkpt lat="68.56314" lon="20.3379">
        <time>2020-04-10T13:25:00Z</time>
      </trkpt>
      <trkpt lat="68.58376" lon="20.39387">
        <time>2020-04-10T14:25:00Z</time>
      </trkpt>
      <trkpt lat="68.60173" lon="20.41622">
        <time>2020-04-10T15:25:00Z</time>
      </trkpt>
      <trkpt lat="68.62226" lon="20.44049">
        <time>2020-04-10T16:25:00Z</time>
      </trkpt>
      <trkpt lat="68.62222" lon="20.44086">
        <time>2020-04-10T16:28:00Z</time>
      </trkpt>
      <trkpt lat="68.62298" lon="20.43815">
        <time>2020-04-11T07:05:00Z</time>
      </trkpt>
      <trkpt lat="68.64093" lon="20.43416">
        <time>2020-04-11T08:05:00Z</time>
      </trkpt>
      <trkpt lat="68.67325" lon="20.46916">
        <time>2020-04-11T09:05:00Z</time>
      </trkpt>
      <trkpt lat="68.68564" lon="20.48719">
        <time>2020-04-11T10:06:00Z</time>
      </trkpt>
      <trkpt lat="68.72116" lon="20.51624">
        <time>2020-04-11T11:06:00Z</time>
      </trkpt>
      <trkpt lat="68.75216" lon="20.51038">
        <time>2020-04-11T12:06:00Z</time>
      </trkpt>
      <trkpt lat="68.76867" lon="20.49051">
        <time>2020-04-11T13:06:00Z</time>
      </trkpt>
      <trkpt lat="68.78959" lon="20.50182">
        <time>2020-04-11T14:06:00Z</time>
      </trkpt>
      <trkpt lat="68.81083" lon="20.51356">
        <time>2020-04-11T15:06:00Z</time>
      </trkpt>
      <trkpt lat="68.82883" lon="20.57615">
        <time>2020-04-11T16:06:00Z</time>
      </trkpt>
      <trkpt lat="68.85039" lon="20.57244">
        <time>2020-04-11T16:48:00Z</time>
      </trkpt>
      <trkpt lat="68.85039" lon="20.57244">
        <time>2020-04-11T16:48:00Z</time>
      </trkpt>
      <trkpt lat="68.85471" lon="20.56894">
        <time>2020-04-12T05:51:00Z</time>
      </trkpt>
      <trkpt lat="68.8756" lon="20.54634">
        <time>2020-04-12T06:51:00Z</time>
      </trkpt>
      <trkpt lat="68.88691" lon="20.47086">
        <time>2020-04-12T07:51:00Z</time>
      </trkpt>
      <trkpt lat="68.9084" lon="20.41867">
        <time>2020-04-12T08:51:00Z</time>
      </trkpt>
      <trkpt lat="68.93174" lon="20.37831">
        <time>2020-04-12T09:51:00Z</time>
      </trkpt>
      <trkpt lat="68.95438" lon="20.35874">
        <time>2020-04-12T10:51:00Z</time>
      </trkpt>
      <trkpt lat="68.9733" lon="20.36848">
        <time>2020-04-12T11:51:00Z</time>
      </trkpt>
      <trkpt lat="68.97337" lon="20.3682">
        <time>2020-04-12T12:51:00Z</time>
      </trkpt>
      <trkpt lat="68.97328" lon="20.36829">
        <time>2020-04-12T13:20:00Z</time>
      </trkpt>
      <trkpt lat="68.9749" lon="20.36876">
        <time>2020-04-13T05:34:00Z</time>
      </trkpt>
      <trkpt lat="68.98103" lon="20.40393">
        <time>2020-04-13T06:34:00Z</time>
      </trkpt>
      <trkpt lat="68.98881" lon="20.44157">
        <time>2020-04-13T07:34:00Z</time>
      </trkpt>
      <trkpt lat="69.00319" lon="20.47665">
        <time>2020-04-13T08:34:00Z</time>
      </trkpt>
      <trkpt lat="69.02454" lon="20.51394">
        <time>2020-04-13T09:34:00Z</time>
      </trkpt>
      <trkpt lat="69.04994" lon="20.52517">
        <time>2020-04-13T10:34:00Z</time>
      </trkpt>
      <trkpt lat="69.05993" lon="20.54862">
        <time>2020-04-13T11:34:00Z</time>
      </trkpt>
      <trkpt lat="69.05989" lon="20.54851">
        <time>2020-04-13T11:40:00Z</time>
      </trkpt>
      <trkpt lat="69.0588" lon="20.5489">
        <time>2020-04-13T12:34:00Z</time>
      </trkpt>
      <trkpt lat="69.0465" lon="20.61009">
        <time>2020-04-13T13:34:00Z</time>
      </trkpt>
      <trkpt lat="69.04337" lon="20.70704">
        <time>2020-04-13T14:34:00Z</time>
      </trkpt>
      <trkpt lat="69.04727" lon="20.79519">
        <time>2020-04-13T15:25:00Z</time>
      </trkpt>
      <trkpt lat="69.04721" lon="20.79534">
        <time>2020-04-13T15:26:00Z</time>
      </trkpt>
    </trkseg>
  </trk>
</gpx>
