<?xml version="1.0" encoding="UTF-8"?>
<gpx xmlns="http://www.topografix.com/GPX/1/1" version="1.1" creator="VitaBandet">
  <metadata>
    <name>Andrés Band</name>
  </metadata>
  <trk>
    <name>Andrés Band</name>
    <trkseg>
      <trkpt lat="62.09812" lon="12.31251">
        <time>2026-02-08T08:27:00Z</time>
      </trkpt>
      <trkpt lat="62.09867" lon="12.31249">
        <time>2026-02-08T08:57:00Z</time>
      </trkpt>
      <trkpt lat="62.09952" lon="12.32451">
        <time>2026-02-08T09:27:00Z</time>
      </trkpt>
      <trkpt lat="62.1085" lon="12.33539">
        <time>2026-02-08T09:57:00Z</time>
      </trkpt>
      <trkpt lat="62.11937" lon="12.35142">
        <time>2026-02-08T10:27:00Z</time>
      </trkpt>
      <trkpt lat="62.13411" lon="12.36112">
        <time>2026-02-08T10:57:00Z</time>
      </trkpt>
      <trkpt lat="62.15176" lon="12.37133">
        <time>2026-02-08T11:27:00Z</time>
      </trkpt>
      <trkpt lat="62.15801" lon="12.37367">
        <time>2026-02-08T12:11:00Z</time>
      </trkpt>
      <trkpt lat="62.17806" lon="12.38438">
        <time>2026-02-08T12:41:00Z</time>
      </trkpt>
      <trkpt lat="62.21582" lon="12.3582">
        <time>2026-02-08T14:11:00Z</time>
      </trkpt>
      <trkpt lat="62.22666" lon="12.35174">
        <time>2026-02-08T14:41:00Z</time>
      </trkpt>
      <trkpt lat="62.24325" lon="12.34436">
        <time>2026-02-08T15:41:00Z</time>
      </trkpt>
      <trkpt lat="62.2432" lon="12.34442">
        <time>2026-02-08T15:48:00Z</time>
      </trkpt>
      <trkpt lat="62.24316" lon="12.34425">
        <time>2026-02-08T15:48:00Z</time>
      </trkpt>
      <trkpt lat="62.24323" lon="12.34442">
        <time>2026-02-09T07:55:00Z</time>
      </trkpt>
      <trkpt lat="62.24322" lon="12.34457">
        <time>2026-02-09T09:12:00Z</time>
      </trkpt>
      <trkpt lat="62.25811" lon="12.35264">
        <time>2026-02-09T09:42:00Z</time>
      </trkpt>
      <trkpt lat="62.26411" lon="12.38283">
        <time>2026-02-09T10:12:00Z</time>
      </trkpt>
      <trkpt lat="62.27904" lon="12.39468">
        <time>2026-02-09T10:42:00Z</time>
      </trkpt>
      <trkpt lat="62.28063" lon="12.39824">
        <time>2026-02-09T11:12:00Z</time>
      </trkpt>
      <trkpt lat="62.29337" lon="12.42246">
        <time>2026-02-09T12:12:00Z</time>
      </trkpt>
      <trkpt lat="62.30299" lon="12.43472">
        <time>2026-02-09T12:42:00Z</time>
      </trkpt>
      <trkpt lat="62.31696" lon="12.45004">
        <time>2026-02-09T13:12:00Z</time>
      </trkpt>
      <trkpt lat="62.31672" lon="12.44999">
        <time>2026-02-09T13:50:00Z</time>
      </trkpt>
      <trkpt lat="62.33157" lon="12.46602">
        <time>2026-02-09T14:50:00Z</time>
      </trkpt>
      <trkpt lat="62.33497" lon="12.47362">
        <time>2026-02-09T15:20:00Z</time>
      </trkpt>
      <trkpt lat="62.34288" lon="12.49027">
        <time>2026-02-09T15:50:00Z</time>
      </trkpt>
      <trkpt lat="62.34328" lon="12.51954">
        <time>2026-02-09T16:20:00Z</time>
      </trkpt>
      <trkpt lat="62.34202" lon="12.55666">
        <time>2026-02-09T16:50:00Z</time>
      </trkpt>
      <trkpt lat="62.3461" lon="12.57584">
        <time>2026-02-09T17:20:00Z</time>
      </trkpt>
      <trkpt lat="62.34872" lon="12.57636">
        <time>2026-02-09T17:32:00Z</time>
      </trkpt>
      <trkpt lat="62.34862" lon="12.57683">
        <time>2026-02-10T09:01:00Z</time>
      </trkpt>
      <trkpt lat="62.34858" lon="12.57694">
        <time>2026-02-10T09:01:00Z</time>
      </trkpt>
      <trkpt lat="62.35854" lon="12.58638">
        <time>2026-02-10T09:31:00Z</time>
      </trkpt>
      <trkpt lat="62.3733" lon="12.58782">
        <time>2026-02-10T10:01:00Z</time>
      </trkpt>
      <trkpt lat="62.38729" lon="12.5852">
        <time>2026-02-10T10:31:00Z</time>
      </trkpt>
      <trkpt lat="62.40349" lon="12.56891">
        <time>2026-02-10T11:01:00Z</time>
      </trkpt>
      <trkpt lat="62.41692" lon="12.56593">
        <time>2026-02-10T11:31:00Z</time>
      </trkpt>
      <trkpt lat="62.41831" lon="12.58247">
        <time>2026-02-10T12:01:00Z</time>
      </trkpt>
      <trkpt lat="62.43038" lon="12.6394">
        <time>2026-02-10T12:31:00Z</time>
      </trkpt>
      <trkpt lat="62.43053" lon="12.63947">
        <time>2026-02-10T13:01:00Z</time>
      </trkpt>
      <trkpt lat="62.44358" lon="12.65412">
        <time>2026-02-10T14:01:00Z</time>
      </trkpt>
      <trkpt lat="62.45099" lon="12.62998">
        <time>2026-02-10T14:31:00Z</time>
      </trkpt>
      <trkpt lat="62.46007" lon="12.61884">
        <time>2026-02-10T15:01:00Z</time>
      </trkpt>
      <trkpt lat="62.46798" lon="12.60955">
        <time>2026-02-10T15:31:00Z</time>
      </trkpt>
      <trkpt lat="62.47168" lon="12.5947">
        <time>2026-02-10T16:01:00Z</time>
      </trkpt>
      <trkpt lat="62.48448" lon="12.59048">
        <time>2026-02-10T16:31:00Z</time>
      </trkpt>
      <trkpt lat="62.51804" lon="12.59511">
        <time>2026-02-10T17:31:00Z</time>
      </trkpt>
      <trkpt lat="62.52746" lon="12.56342">
        <time>2026-02-10T18:01:00Z</time>
      </trkpt>
      <trkpt lat="62.53872" lon="12.55031">
        <time>2026-02-10T18:31:00Z</time>
      </trkpt>
      <trkpt lat="62.54598" lon="12.55424">
        <time>2026-02-10T19:01:00Z</time>
      </trkpt>
      <trkpt lat="62.54482" lon="12.55715">
        <time>2026-02-10T19:26:00Z</time>
      </trkpt>
      <trkpt lat="62.54502" lon="12.55754">
        <time>2026-02-10T23:26:00Z</time>
      </trkpt>
      <trkpt lat="62.54498" lon="12.55769">
        <time>2026-02-11T03:27:00Z</time>
      </trkpt>
      <trkpt lat="62.54496" lon="12.55739">
        <time>2026-02-11T07:27:00Z</time>
      </trkpt>
      <trkpt lat="62.54494" lon="12.5576">
        <time>2026-02-11T11:27:00Z</time>
      </trkpt>
      <trkpt lat="62.54485" lon="12.55765">
        <time>2026-02-12T08:48:00Z</time>
      </trkpt>
      <trkpt lat="62.54661" lon="12.55685">
        <time>2026-02-12T09:18:00Z</time>
      </trkpt>
      <trkpt lat="62.54967" lon="12.57932">
        <time>2026-02-12T09:48:00Z</time>
      </trkpt>
      <trkpt lat="62.55149" lon="12.60131">
        <time>2026-02-12T10:18:00Z</time>
      </trkpt>
      <trkpt lat="62.56335" lon="12.60423">
        <time>2026-02-12T10:48:00Z</time>
      </trkpt>
      <trkpt lat="62.57099" lon="12.60451">
        <time>2026-02-12T11:18:00Z</time>
      </trkpt>
      <trkpt lat="62.57915" lon="12.60576">
        <time>2026-02-12T11:48:00Z</time>
      </trkpt>
      <trkpt lat="62.59017" lon="12.60867">
        <time>2026-02-12T12:18:00Z</time>
      </trkpt>
      <trkpt lat="62.59832" lon="12.62071">
        <time>2026-02-12T12:48:00Z</time>
      </trkpt>
      <trkpt lat="62.60483" lon="12.62507">
        <time>2026-02-12T13:18:00Z</time>
      </trkpt>
      <trkpt lat="62.60485" lon="12.62515">
        <time>2026-02-12T13:48:00Z</time>
      </trkpt>
      <trkpt lat="62.61555" lon="12.63247">
        <time>2026-02-12T14:18:00Z</time>
      </trkpt>
      <trkpt lat="62.6263" lon="12.63796">
        <time>2026-02-12T14:48:00Z</time>
      </trkpt>
      <trkpt lat="62.63806" lon="12.66052">
        <time>2026-02-12T15:18:00Z</time>
      </trkpt>
      <trkpt lat="62.64995" lon="12.66749">
        <time>2026-02-12T15:48:00Z</time>
      </trkpt>
      <trkpt lat="62.66005" lon="12.68088">
        <time>2026-02-12T16:18:00Z</time>
      </trkpt>
      <trkpt lat="62.67356" lon="12.67824">
        <time>2026-02-12T16:48:00Z</time>
      </trkpt>
      <trkpt lat="62.68225" lon="12.67285">
        <time>2026-02-12T17:15:00Z</time>
      </trkpt>
      <trkpt lat="62.68225" lon="12.6729">
        <time>2026-02-12T17:15:00Z</time>
      </trkpt>
      <trkpt lat="62.68203" lon="12.67253">
        <time>2026-02-13T10:24:00Z</time>
      </trkpt>
      <trkpt lat="62.68222" lon="12.67255">
        <time>2026-02-13T10:24:00Z</time>
      </trkpt>
      <trkpt lat="62.68853" lon="12.68064">
        <time>2026-02-13T10:54:00Z</time>
      </trkpt>
      <trkpt lat="62.69682" lon="12.68412">
        <time>2026-02-13T11:24:00Z</time>
      </trkpt>
      <trkpt lat="62.70176" lon="12.70545">
        <time>2026-02-13T11:54:00Z</time>
      </trkpt>
      <trkpt lat="62.71091" lon="12.71137">
        <time>2026-02-13T12:24:00Z</time>
      </trkpt>
      <trkpt lat="62.71925" lon="12.728">
        <time>2026-02-13T12:54:00Z</time>
      </trkpt>
      <trkpt lat="62.72856" lon="12.738">
        <time>2026-02-13T13:24:00Z</time>
      </trkpt>
      <trkpt lat="62.74108" lon="12.74845">
        <time>2026-02-13T13:54:00Z</time>
      </trkpt>
      <trkpt lat="62.75472" lon="12.76111">
        <time>2026-02-13T14:24:00Z</time>
      </trkpt>
      <trkpt lat="62.77233" lon="12.76967">
        <time>2026-02-13T14:54:00Z</time>
      </trkpt>
      <trkpt lat="62.77606" lon="12.76881">
        <time>2026-02-13T15:24:00Z</time>
      </trkpt>
      <trkpt lat="62.7898" lon="12.76182">
        <time>2026-02-13T15:54:00Z</time>
      </trkpt>
      <trkpt lat="62.80623" lon="12.7684">
        <time>2026-02-13T16:24:00Z</time>
      </trkpt>
      <trkpt lat="62.81556" lon="12.7565">
        <time>2026-02-13T16:54:00Z</time>
      </trkpt>
      <trkpt lat="62.82514" lon="12.76079">
        <time>2026-02-13T17:24:00Z</time>
      </trkpt>
      <trkpt lat="62.83223" lon="12.7774">
        <time>2026-02-13T17:54:00Z</time>
      </trkpt>
      <trkpt lat="62.84269" lon="12.79647">
        <time>2026-02-13T18:24:00Z</time>
      </trkpt>
      <trkpt lat="62.85075" lon="12.79085">
        <time>2026-02-13T18:54:00Z</time>
      </trkpt>
      <trkpt lat="62.85071" lon="12.79053">
        <time>2026-02-13T18:57:00Z</time>
      </trkpt>
      <trkpt lat="62.8508" lon="12.79115">
        <time>2026-02-14T09:24:00Z</time>
      </trkpt>
      <trkpt lat="62.85207" lon="12.78418">
        <time>2026-02-14T09:54:00Z</time>
      </trkpt>
      <trkpt lat="62.85695" lon="12.7733">
        <time>2026-02-14T10:24:00Z</time>
      </trkpt>
      <trkpt lat="62.86725" lon="12.77257">
        <time>2026-02-14T10:54:00Z</time>
      </trkpt>
      <trkpt lat="62.87694" lon="12.75808">
        <time>2026-02-14T11:24:00Z</time>
      </trkpt>
      <trkpt lat="62.88683" lon="12.74418">
        <time>2026-02-14T11:54:00Z</time>
      </trkpt>
      <trkpt lat="62.89889" lon="12.73304">
        <time>2026-02-14T12:24:00Z</time>
      </trkpt>
      <trkpt lat="62.90435" lon="12.73244">
        <time>2026-02-14T12:54:00Z</time>
      </trkpt>
      <trkpt lat="62.90438" lon="12.73231">
        <time>2026-02-14T13:24:00Z</time>
      </trkpt>
      <trkpt lat="62.91646" lon="12.73838">
        <time>2026-02-14T13:54:00Z</time>
      </trkpt>
      <trkpt lat="62.93052" lon="12.72603">
        <time>2026-02-14T14:24:00Z</time>
      </trkpt>
      <trkpt lat="62.94044" lon="12.72397">
        <time>2026-02-14T14:54:00Z</time>
      </trkpt>
      <trkpt lat="62.94365" lon="12.72607">
        <time>2026-02-14T15:24:00Z</time>
      </trkpt>
      <trkpt lat="62.94366" lon="12.72605">
        <time>2026-02-14T15:54:00Z</time>
      </trkpt>
      <trkpt lat="62.94364" lon="12.72598">
        <time>2026-02-14T16:05:00Z</time>
      </trkpt>
      <trkpt lat="62.94372" lon="12.726">
        <time>2026-02-15T08:49:00Z</time>
      </trkpt>
      <trkpt lat="62.9482" lon="12.72905">
        <time>2026-02-15T09:19:00Z</time>
      </trkpt>
      <trkpt lat="62.95639" lon="12.73909">
        <time>2026-02-15T09:49:00Z</time>
      </trkpt>
      <trkpt lat="62.96915" lon="12.75512">
        <time>2026-02-15T10:19:00Z</time>
      </trkpt>
      <trkpt lat="62.98524" lon="12.75635">
        <time>2026-02-15T10:49:00Z</time>
      </trkpt>
      <trkpt lat="62.99672" lon="12.74487">
        <time>2026-02-15T11:19:00Z</time>
      </trkpt>
      <trkpt lat="63.00731" lon="12.74796">
        <time>2026-02-15T11:49:00Z</time>
      </trkpt>
      <trkpt lat="63.0249" lon="12.76592">
        <time>2026-02-15T12:19:00Z</time>
      </trkpt>
      <trkpt lat="63.03904" lon="12.79523">
        <time>2026-02-15T12:49:00Z</time>
      </trkpt>
      <trkpt lat="63.04076" lon="12.80138">
        <time>2026-02-15T13:19:00Z</time>
      </trkpt>
      <trkpt lat="63.04111" lon="12.7998">
        <time>2026-02-15T13:49:00Z</time>
      </trkpt>
      <trkpt lat="63.0641" lon="12.80126">
        <time>2026-02-15T14:19:00Z</time>
      </trkpt>
      <trkpt lat="63.08189" lon="12.81943">
        <time>2026-02-15T14:49:00Z</time>
      </trkpt>
      <trkpt lat="63.11278" lon="12.84134">
        <time>2026-02-15T15:49:00Z</time>
      </trkpt>
      <trkpt lat="63.12012" lon="12.86314">
        <time>2026-02-15T16:19:00Z</time>
      </trkpt>
      <trkpt lat="63.13325" lon="12.87616">
        <time>2026-02-15T16:49:00Z</time>
      </trkpt>
      <trkpt lat="63.13931" lon="12.90142">
        <time>2026-02-15T17:19:00Z</time>
      </trkpt>
      <trkpt lat="63.14185" lon="12.91762">
        <time>2026-02-15T17:49:00Z</time>
      </trkpt>
      <trkpt lat="63.14253" lon="12.91979">
        <time>2026-02-15T17:58:00Z</time>
      </trkpt>
      <trkpt lat="63.1425" lon="12.92039">
        <time>2026-02-16T09:22:00Z</time>
      </trkpt>
      <trkpt lat="63.14581" lon="12.94215">
        <time>2026-02-16T09:52:00Z</time>
      </trkpt>
      <trkpt lat="63.14892" lon="12.96644">
        <time>2026-02-16T10:34:00Z</time>
      </trkpt>
      <trkpt lat="63.14881" lon="12.96631">
        <time>2026-02-17T09:11:00Z</time>
      </trkpt>
      <trkpt lat="63.15163" lon="12.98903">
        <time>2026-02-17T09:41:00Z</time>
      </trkpt>
      <trkpt lat="63.15758" lon="13.03364">
        <time>2026-02-17T10:11:00Z</time>
      </trkpt>
      <trkpt lat="63.16961" lon="13.06053">
        <time>2026-02-17T10:41:00Z</time>
      </trkpt>
      <trkpt lat="63.18846" lon="13.06057">
        <time>2026-02-17T11:11:00Z</time>
      </trkpt>
      <trkpt lat="63.20569" lon="13.05212">
        <time>2026-02-17T11:41:00Z</time>
      </trkpt>
      <trkpt lat="63.21241" lon="13.04564">
        <time>2026-02-17T12:11:00Z</time>
      </trkpt>
      <trkpt lat="63.21584" lon="13.05396">
        <time>2026-02-17T12:41:00Z</time>
      </trkpt>
      <trkpt lat="63.21753" lon="13.05701">
        <time>2026-02-17T13:11:00Z</time>
      </trkpt>
      <trkpt lat="63.22153" lon="13.06364">
        <time>2026-02-17T13:41:00Z</time>
      </trkpt>
      <trkpt lat="63.22755" lon="13.07724">
        <time>2026-02-17T14:11:00Z</time>
      </trkpt>
      <trkpt lat="63.24077" lon="13.09478">
        <time>2026-02-17T14:41:00Z</time>
      </trkpt>
      <trkpt lat="63.2419" lon="13.10177">
        <time>2026-02-17T15:11:00Z</time>
      </trkpt>
      <trkpt lat="63.24988" lon="13.10904">
        <time>2026-02-17T15:41:00Z</time>
      </trkpt>
      <trkpt lat="63.24718" lon="13.13758">
        <time>2026-02-17T16:11:00Z</time>
      </trkpt>
      <trkpt lat="63.24883" lon="13.16561">
        <time>2026-02-17T16:41:00Z</time>
      </trkpt>
      <trkpt lat="63.24918" lon="13.16584">
        <time>2026-02-17T16:48:00Z</time>
      </trkpt>
      <trkpt lat="63.24922" lon="13.16595">
        <time>2026-02-18T09:06:00Z</time>
      </trkpt>
      <trkpt lat="63.259" lon="13.185">
        <time>2026-02-18T09:36:00Z</time>
      </trkpt>
      <trkpt lat="63.27962" lon="13.20481">
        <time>2026-02-18T10:06:00Z</time>
      </trkpt>
      <trkpt lat="63.29468" lon="13.20219">
        <time>2026-02-18T10:36:00Z</time>
      </trkpt>
      <trkpt lat="63.31016" lon="13.20303">
        <time>2026-02-18T11:06:00Z</time>
      </trkpt>
      <trkpt lat="63.31296" lon="13.23286">
        <time>2026-02-18T11:36:00Z</time>
      </trkpt>
      <trkpt lat="63.31459" lon="13.24159">
        <time>2026-02-18T12:12:00Z</time>
      </trkpt>
      <trkpt lat="63.3155" lon="13.23828">
        <time>2026-02-18T12:42:00Z</time>
      </trkpt>
      <trkpt lat="63.32097" lon="13.24221">
        <time>2026-02-18T13:12:00Z</time>
      </trkpt>
      <trkpt lat="63.328" lon="13.24479">
        <time>2026-02-18T13:42:00Z</time>
      </trkpt>
      <trkpt lat="63.32802" lon="13.24468">
        <time>2026-02-18T14:12:00Z</time>
      </trkpt>
      <trkpt lat="63.33815" lon="13.26695">
        <time>2026-02-18T14:42:00Z</time>
      </trkpt>
      <trkpt lat="63.35527" lon="13.26388">
        <time>2026-02-18T15:12:00Z</time>
      </trkpt>
      <trkpt lat="63.36829" lon="13.23281">
        <time>2026-02-18T15:42:00Z</time>
      </trkpt>
      <trkpt lat="63.37676" lon="13.22213">
        <time>2026-02-18T16:12:00Z</time>
      </trkpt>
      <trkpt lat="63.37675" lon="13.222">
        <time>2026-02-18T16:35:00Z</time>
      </trkpt>
      <trkpt lat="63.3767" lon="13.22198">
        <time>2026-02-18T20:35:00Z</time>
      </trkpt>
      <trkpt lat="63.37671" lon="13.222">
        <time>2026-02-19T00:35:00Z</time>
      </trkpt>
      <trkpt lat="63.3767" lon="13.22187">
        <time>2026-02-19T08:35:00Z</time>
      </trkpt>
      <trkpt lat="63.38202" lon="13.21618">
        <time>2026-02-19T09:05:00Z</time>
      </trkpt>
      <trkpt lat="63.39215" lon="13.20239">
        <time>2026-02-19T09:35:00Z</time>
      </trkpt>
      <trkpt lat="63.40219" lon="13.20612">
        <time>2026-02-19T10:05:00Z</time>
      </trkpt>
      <trkpt lat="63.40654" lon="13.21895">
        <time>2026-02-19T10:35:00Z</time>
      </trkpt>
      <trkpt lat="63.4265" lon="13.22775">
        <time>2026-02-19T11:05:00Z</time>
      </trkpt>
      <trkpt lat="63.4418" lon="13.21801">
        <time>2026-02-19T11:35:00Z</time>
      </trkpt>
      <trkpt lat="63.4497" lon="13.21492">
        <time>2026-02-19T12:05:00Z</time>
      </trkpt>
      <trkpt lat="63.46608" lon="13.21702">
        <time>2026-02-19T12:35:00Z</time>
      </trkpt>
      <trkpt lat="63.47344" lon="13.22979">
        <time>2026-02-19T13:05:00Z</time>
      </trkpt>
      <trkpt lat="63.47344" lon="13.22981">
        <time>2026-02-19T13:35:00Z</time>
      </trkpt>
      <trkpt lat="63.47476" lon="13.23363">
        <time>2026-02-19T14:35:00Z</time>
      </trkpt>
      <trkpt lat="63.48554" lon="13.24622">
        <time>2026-02-19T15:05:00Z</time>
      </trkpt>
      <trkpt lat="63.49703" lon="13.24676">
        <time>2026-02-19T15:35:00Z</time>
      </trkpt>
      <trkpt lat="63.51536" lon="13.25193">
        <time>2026-02-19T16:05:00Z</time>
      </trkpt>
      <trkpt lat="63.52128" lon="13.25697">
        <time>2026-02-19T16:35:00Z</time>
      </trkpt>
      <trkpt lat="63.52272" lon="13.25998">
        <time>2026-02-19T17:05:00Z</time>
      </trkpt>
      <trkpt lat="63.52278" lon="13.26017">
        <time>2026-02-19T17:09:00Z</time>
      </trkpt>
      <trkpt lat="63.52268" lon="13.26009">
        <time>2026-02-19T17:09:00Z</time>
      </trkpt>
      <trkpt lat="63.52265" lon="13.25972">
        <time>2026-02-20T08:31:00Z</time>
      </trkpt>
      <trkpt lat="63.5318" lon="13.26092">
        <time>2026-02-20T09:01:00Z</time>
      </trkpt>
      <trkpt lat="63.54135" lon="13.26429">
        <time>2026-02-20T09:31:00Z</time>
      </trkpt>
      <trkpt lat="63.54641" lon="13.26266">
        <time>2026-02-20T10:01:00Z</time>
      </trkpt>
      <trkpt lat="63.559" lon="13.25167">
        <time>2026-02-20T10:31:00Z</time>
      </trkpt>
      <trkpt lat="63.56676" lon="13.24792">
        <time>2026-02-20T11:01:00Z</time>
      </trkpt>
      <trkpt lat="63.57699" lon="13.22854">
        <time>2026-02-20T11:31:00Z</time>
      </trkpt>
      <trkpt lat="63.58388" lon="13.20412">
        <time>2026-02-20T12:01:00Z</time>
      </trkpt>
      <trkpt lat="63.58972" lon="13.19024">
        <time>2026-02-20T12:31:00Z</time>
      </trkpt>
      <trkpt lat="63.58982" lon="13.18962">
        <time>2026-02-20T13:01:00Z</time>
      </trkpt>
      <trkpt lat="63.61077" lon="13.20425">
        <time>2026-02-20T13:31:00Z</time>
      </trkpt>
      <trkpt lat="63.61848" lon="13.20981">
        <time>2026-02-20T14:01:00Z</time>
      </trkpt>
      <trkpt lat="63.62431" lon="13.2182">
        <time>2026-02-20T14:31:00Z</time>
      </trkpt>
      <trkpt lat="63.63445" lon="13.2273">
        <time>2026-02-20T15:01:00Z</time>
      </trkpt>
      <trkpt lat="63.63976" lon="13.24275">
        <time>2026-02-20T15:31:00Z</time>
      </trkpt>
      <trkpt lat="63.64137" lon="13.27463">
        <time>2026-02-20T16:01:00Z</time>
      </trkpt>
      <trkpt lat="63.64848" lon="13.28699">
        <time>2026-02-20T16:31:00Z</time>
      </trkpt>
      <trkpt lat="63.66234" lon="13.2871">
        <time>2026-02-20T17:01:00Z</time>
      </trkpt>
      <trkpt lat="63.66369" lon="13.28871">
        <time>2026-02-20T17:06:00Z</time>
      </trkpt>
      <trkpt lat="63.66353" lon="13.28882">
        <time>2026-02-20T17:43:00Z</time>
      </trkpt>
      <trkpt lat="63.66359" lon="13.2886">
        <time>2026-02-20T21:43:00Z</time>
      </trkpt>
      <trkpt lat="63.66369" lon="13.28862">
        <time>2026-02-21T01:43:00Z</time>
      </trkpt>
      <trkpt lat="63.66361" lon="13.28886">
        <time>2026-02-21T05:43:00Z</time>
      </trkpt>
      <trkpt lat="63.66956" lon="13.30648">
        <time>2026-02-21T08:36:00Z</time>
      </trkpt>
      <trkpt lat="63.67404" lon="13.34323">
        <time>2026-02-21T09:06:00Z</time>
      </trkpt>
      <trkpt lat="63.6791" lon="13.37686">
        <time>2026-02-21T09:36:00Z</time>
      </trkpt>
      <trkpt lat="63.68125" lon="13.41201">
        <time>2026-02-21T10:06:00Z</time>
      </trkpt>
      <trkpt lat="63.68789" lon="13.43445">
        <time>2026-02-21T10:36:00Z</time>
      </trkpt>
      <trkpt lat="63.69306" lon="13.46228">
        <time>2026-02-21T11:06:00Z</time>
      </trkpt>
      <trkpt lat="63.68984" lon="13.4893">
        <time>2026-02-21T11:36:00Z</time>
      </trkpt>
      <trkpt lat="63.68994" lon="13.48921">
        <time>2026-02-21T12:06:00Z</time>
      </trkpt>
      <trkpt lat="63.68894" lon="13.51934">
        <time>2026-02-21T12:36:00Z</time>
      </trkpt>
      <trkpt lat="63.69263" lon="13.55659">
        <time>2026-02-21T13:06:00Z</time>
      </trkpt>
      <trkpt lat="63.69051" lon="13.58663">
        <time>2026-02-21T13:36:00Z</time>
      </trkpt>
      <trkpt lat="63.6956" lon="13.62553">
        <time>2026-02-21T14:06:00Z</time>
      </trkpt>
      <trkpt lat="63.69602" lon="13.62583">
        <time>2026-02-21T14:13:00Z</time>
      </trkpt>
      <trkpt lat="63.69634" lon="13.62534">
        <time>2026-02-22T08:38:00Z</time>
      </trkpt>
      <trkpt lat="63.71026" lon="13.61736">
        <time>2026-02-22T09:08:00Z</time>
      </trkpt>
      <trkpt lat="63.72379" lon="13.61793">
        <time>2026-02-22T09:38:00Z</time>
      </trkpt>
      <trkpt lat="63.73557" lon="13.62285">
        <time>2026-02-22T10:08:00Z</time>
      </trkpt>
      <trkpt lat="63.74587" lon="13.63068">
        <time>2026-02-22T10:38:00Z</time>
      </trkpt>
      <trkpt lat="63.75027" lon="13.65287">
        <time>2026-02-22T11:08:00Z</time>
      </trkpt>
      <trkpt lat="63.74718" lon="13.70668">
        <time>2026-02-22T12:08:00Z</time>
      </trkpt>
      <trkpt lat="63.74355" lon="13.73765">
        <time>2026-02-22T12:38:00Z</time>
      </trkpt>
      <trkpt lat="63.75252" lon="13.77254">
        <time>2026-02-22T13:38:00Z</time>
      </trkpt>
      <trkpt lat="63.76735" lon="13.80545">
        <time>2026-02-22T14:38:00Z</time>
      </trkpt>
      <trkpt lat="63.78092" lon="13.82105">
        <time>2026-02-22T15:26:00Z</time>
      </trkpt>
      <trkpt lat="63.78074" lon="13.82092">
        <time>2026-02-23T08:41:00Z</time>
      </trkpt>
      <trkpt lat="63.78653" lon="13.83322">
        <time>2026-02-23T09:11:00Z</time>
      </trkpt>
      <trkpt lat="63.80573" lon="13.83515">
        <time>2026-02-23T09:41:00Z</time>
      </trkpt>
      <trkpt lat="63.82033" lon="13.83206">
        <time>2026-02-23T10:11:00Z</time>
      </trkpt>
      <trkpt lat="63.82806" lon="13.86515">
        <time>2026-02-23T10:41:00Z</time>
      </trkpt>
      <trkpt lat="63.84482" lon="13.8768">
        <time>2026-02-23T11:11:00Z</time>
      </trkpt>
      <trkpt lat="63.86749" lon="13.87146">
        <time>2026-02-23T11:41:00Z</time>
      </trkpt>
      <trkpt lat="63.86803" lon="13.87013">
        <time>2026-02-23T12:11:00Z</time>
      </trkpt>
      <trkpt lat="63.90031" lon="13.86639">
        <time>2026-02-23T13:41:00Z</time>
      </trkpt>
      <trkpt lat="63.91327" lon="13.86659">
        <time>2026-02-23T14:11:00Z</time>
      </trkpt>
      <trkpt lat="63.92616" lon="13.87375">
        <time>2026-02-23T14:41:00Z</time>
      </trkpt>
      <trkpt lat="63.93898" lon="13.89813">
        <time>2026-02-23T15:11:00Z</time>
      </trkpt>
      <trkpt lat="63.95604" lon="13.93182">
        <time>2026-02-23T15:41:00Z</time>
      </trkpt>
      <trkpt lat="63.96318" lon="13.95081">
        <time>2026-02-23T16:11:00Z</time>
      </trkpt>
      <trkpt lat="63.96474" lon="13.94956">
        <time>2026-02-23T16:24:00Z</time>
      </trkpt>
      <trkpt lat="63.96426" lon="13.94877">
        <time>2026-02-24T08:36:00Z</time>
      </trkpt>
      <trkpt lat="63.98934" lon="13.97544">
        <time>2026-02-24T09:36:00Z</time>
      </trkpt>
      <trkpt lat="63.99555" lon="13.99329">
        <time>2026-02-24T10:06:00Z</time>
      </trkpt>
      <trkpt lat="64.00563" lon="14.00915">
        <time>2026-02-24T10:36:00Z</time>
      </trkpt>
      <trkpt lat="64.01587" lon="14.00883">
        <time>2026-02-24T11:06:00Z</time>
      </trkpt>
      <trkpt lat="64.02114" lon="14.02958">
        <time>2026-02-24T11:36:00Z</time>
      </trkpt>
      <trkpt lat="64.02546" lon="14.04735">
        <time>2026-02-24T12:36:00Z</time>
      </trkpt>
      <trkpt lat="64.04639" lon="14.1076">
        <time>2026-02-24T13:36:00Z</time>
      </trkpt>
      <trkpt lat="64.05646" lon="14.12816">
        <time>2026-02-24T14:06:00Z</time>
      </trkpt>
      <trkpt lat="64.06603" lon="14.14421">
        <time>2026-02-24T14:36:00Z</time>
      </trkpt>
      <trkpt lat="64.06615" lon="14.14427">
        <time>2026-02-24T14:43:00Z</time>
      </trkpt>
      <trkpt lat="64.06615" lon="14.14436">
        <time>2026-02-24T21:14:00Z</time>
      </trkpt>
      <trkpt lat="64.0662" lon="14.14463">
        <time>2026-02-25T05:14:00Z</time>
      </trkpt>
      <trkpt lat="64.06695" lon="14.14075">
        <time>2026-02-25T10:19:00Z</time>
      </trkpt>
      <trkpt lat="64.08015" lon="14.13717">
        <time>2026-02-25T10:49:00Z</time>
      </trkpt>
      <trkpt lat="64.09944" lon="14.1477">
        <time>2026-02-25T11:19:00Z</time>
      </trkpt>
      <trkpt lat="64.11348" lon="14.15101">
        <time>2026-02-25T11:49:00Z</time>
      </trkpt>
      <trkpt lat="64.12843" lon="14.16678">
        <time>2026-02-25T12:49:00Z</time>
      </trkpt>
      <trkpt lat="64.12976" lon="14.1732">
        <time>2026-02-25T13:19:00Z</time>
      </trkpt>
      <trkpt lat="64.13064" lon="14.17759">
        <time>2026-02-25T13:49:00Z</time>
      </trkpt>
      <trkpt lat="64.13868" lon="14.19023">
        <time>2026-02-25T14:19:00Z</time>
      </trkpt>
      <trkpt lat="64.14553" lon="14.20984">
        <time>2026-02-25T14:49:00Z</time>
      </trkpt>
      <trkpt lat="64.15775" lon="14.23392">
        <time>2026-02-25T16:19:00Z</time>
      </trkpt>
      <trkpt lat="64.15776" lon="14.23371">
        <time>2026-02-25T16:49:00Z</time>
      </trkpt>
      <trkpt lat="64.15768" lon="14.23306">
        <time>2026-02-25T17:15:00Z</time>
      </trkpt>
      <trkpt lat="64.15774" lon="14.23375">
        <time>2026-02-26T08:48:00Z</time>
      </trkpt>
      <trkpt lat="64.16081" lon="14.25059">
        <time>2026-02-26T09:18:00Z</time>
      </trkpt>
      <trkpt lat="64.18275" lon="14.2533">
        <time>2026-02-26T10:18:00Z</time>
      </trkpt>
      <trkpt lat="64.1921" lon="14.26126">
        <time>2026-02-26T10:48:00Z</time>
      </trkpt>
      <trkpt lat="64.20812" lon="14.27829">
        <time>2026-02-26T11:48:00Z</time>
      </trkpt>
      <trkpt lat="64.20811" lon="14.27832">
        <time>2026-02-26T12:18:00Z</time>
      </trkpt>
      <trkpt lat="64.23135" lon="14.29156">
        <time>2026-02-26T13:18:00Z</time>
      </trkpt>
      <trkpt lat="64.24519" lon="14.31647">
        <time>2026-02-26T13:48:00Z</time>
      </trkpt>
      <trkpt lat="64.252" lon="14.33861">
        <time>2026-02-26T14:18:00Z</time>
      </trkpt>
      <trkpt lat="64.24918" lon="14.34687">
        <time>2026-02-26T14:48:00Z</time>
      </trkpt>
      <trkpt lat="64.2536" lon="14.35865">
        <time>2026-02-26T15:18:00Z</time>
      </trkpt>
      <trkpt lat="64.26814" lon="14.40747">
        <time>2026-02-26T16:18:00Z</time>
      </trkpt>
      <trkpt lat="64.27206" lon="14.428">
        <time>2026-02-26T16:48:00Z</time>
      </trkpt>
      <trkpt lat="64.27197" lon="14.42809">
        <time>2026-02-26T16:51:00Z</time>
      </trkpt>
      <trkpt lat="64.27218" lon="14.42785">
        <time>2026-02-27T06:08:00Z</time>
      </trkpt>
      <trkpt lat="64.27198" lon="14.4282">
        <time>2026-02-27T08:43:00Z</time>
      </trkpt>
      <trkpt lat="64.27264" lon="14.41828">
        <time>2026-02-27T09:13:00Z</time>
      </trkpt>
      <trkpt lat="64.27866" lon="14.4059">
        <time>2026-02-27T09:43:00Z</time>
      </trkpt>
      <trkpt lat="64.29189" lon="14.39532">
        <time>2026-02-27T10:13:00Z</time>
      </trkpt>
      <trkpt lat="64.29797" lon="14.38964">
        <time>2026-02-27T10:43:00Z</time>
      </trkpt>
      <trkpt lat="64.30342" lon="14.38588">
        <time>2026-02-27T11:13:00Z</time>
      </trkpt>
      <trkpt lat="64.30481" lon="14.38612">
        <time>2026-02-27T11:43:00Z</time>
      </trkpt>
      <trkpt lat="64.31581" lon="14.38683">
        <time>2026-02-27T12:13:00Z</time>
      </trkpt>
      <trkpt lat="64.32444" lon="14.39792">
        <time>2026-02-27T12:43:00Z</time>
      </trkpt>
      <trkpt lat="64.32442" lon="14.39809">
        <time>2026-02-27T13:13:00Z</time>
      </trkpt>
      <trkpt lat="64.34075" lon="14.4044">
        <time>2026-02-27T14:13:00Z</time>
      </trkpt>
      <trkpt lat="64.35435" lon="14.40618">
        <time>2026-02-27T14:43:00Z</time>
      </trkpt>
      <trkpt lat="64.373" lon="14.38408">
        <time>2026-02-27T15:13:00Z</time>
      </trkpt>
      <trkpt lat="64.37556" lon="14.36125">
        <time>2026-02-27T15:43:00Z</time>
      </trkpt>
      <trkpt lat="64.38981" lon="14.31889">
        <time>2026-02-27T16:13:00Z</time>
      </trkpt>
      <trkpt lat="64.39577" lon="14.29823">
        <time>2026-02-27T16:43:00Z</time>
      </trkpt>
      <trkpt lat="64.40732" lon="14.2775">
        <time>2026-02-27T17:13:00Z</time>
      </trkpt>
      <trkpt lat="64.40787" lon="14.27784">
        <time>2026-02-27T17:17:00Z</time>
      </trkpt>
      <trkpt lat="64.40761" lon="14.27664">
        <time>2026-02-28T08:40:00Z</time>
      </trkpt>
      <trkpt lat="64.41853" lon="14.24124">
        <time>2026-02-28T09:10:00Z</time>
      </trkpt>
      <trkpt lat="64.43599" lon="14.19173">
        <time>2026-02-28T09:40:00Z</time>
      </trkpt>
      <trkpt lat="64.45188" lon="14.15541">
        <time>2026-02-28T10:10:00Z</time>
      </trkpt>
      <trkpt lat="64.468" lon="14.15112">
        <time>2026-02-28T10:40:00Z</time>
      </trkpt>
      <trkpt lat="64.48533" lon="14.13487">
        <time>2026-02-28T11:10:00Z</time>
      </trkpt>
      <trkpt lat="64.50664" lon="14.14468">
        <time>2026-02-28T11:40:00Z</time>
      </trkpt>
      <trkpt lat="64.50611" lon="14.14689">
        <time>2026-02-28T11:55:00Z</time>
      </trkpt>
      <trkpt lat="64.50617" lon="14.14687">
        <time>2026-03-01T08:54:00Z</time>
      </trkpt>
      <trkpt lat="64.5061" lon="14.14659">
        <time>2026-03-01T09:17:00Z</time>
      </trkpt>
      <trkpt lat="64.50308" lon="14.15094">
        <time>2026-03-01T09:47:00Z</time>
      </trkpt>
      <trkpt lat="64.54212" lon="14.13727">
        <time>2026-03-01T11:17:00Z</time>
      </trkpt>
      <trkpt lat="64.56251" lon="14.1377">
        <time>2026-03-01T11:47:00Z</time>
      </trkpt>
      <trkpt lat="64.57759" lon="14.13058">
        <time>2026-03-01T12:17:00Z</time>
      </trkpt>
      <trkpt lat="64.59601" lon="14.11725">
        <time>2026-03-01T13:17:00Z</time>
      </trkpt>
      <trkpt lat="64.596" lon="14.1173">
        <time>2026-03-01T13:47:00Z</time>
      </trkpt>
      <trkpt lat="64.61418" lon="14.12097">
        <time>2026-03-01T14:17:00Z</time>
      </trkpt>
      <trkpt lat="64.63309" lon="14.14069">
        <time>2026-03-01T14:47:00Z</time>
      </trkpt>
      <trkpt lat="64.64989" lon="14.14127">
        <time>2026-03-01T15:47:00Z</time>
      </trkpt>
      <trkpt lat="64.66289" lon="14.14612">
        <time>2026-03-01T16:17:00Z</time>
      </trkpt>
      <trkpt lat="64.67294" lon="14.17907">
        <time>2026-03-01T16:47:00Z</time>
      </trkpt>
      <trkpt lat="64.67857" lon="14.20697">
        <time>2026-03-01T17:17:00Z</time>
      </trkpt>
      <trkpt lat="64.67835" lon="14.20525">
        <time>2026-03-01T23:02:00Z</time>
      </trkpt>
      <trkpt lat="64.67844" lon="14.20663">
        <time>2026-03-02T03:02:00Z</time>
      </trkpt>
      <trkpt lat="64.67839" lon="14.20643">
        <time>2026-03-02T07:02:00Z</time>
      </trkpt>
      <trkpt lat="64.70031" lon="14.19188">
        <time>2026-03-02T09:46:00Z</time>
      </trkpt>
      <trkpt lat="64.71552" lon="14.18304">
        <time>2026-03-02T10:16:00Z</time>
      </trkpt>
      <trkpt lat="64.72582" lon="14.1642">
        <time>2026-03-02T10:46:00Z</time>
      </trkpt>
      <trkpt lat="64.72978" lon="14.16493">
        <time>2026-03-02T11:16:00Z</time>
      </trkpt>
      <trkpt lat="64.74401" lon="14.17315">
        <time>2026-03-02T11:46:00Z</time>
      </trkpt>
      <trkpt lat="64.76086" lon="14.19682">
        <time>2026-03-02T12:46:00Z</time>
      </trkpt>
      <trkpt lat="64.79872" lon="14.20914">
        <time>2026-03-02T14:16:00Z</time>
      </trkpt>
      <trkpt lat="64.81419" lon="14.23059">
        <time>2026-03-02T14:46:00Z</time>
      </trkpt>
      <trkpt lat="64.81845" lon="14.23748">
        <time>2026-03-02T15:16:00Z</time>
      </trkpt>
      <trkpt lat="64.82692" lon="14.25716">
        <time>2026-03-02T15:46:00Z</time>
      </trkpt>
      <trkpt lat="64.83952" lon="14.27958">
        <time>2026-03-02T16:16:00Z</time>
      </trkpt>
      <trkpt lat="64.84573" lon="14.29705">
        <time>2026-03-02T16:46:00Z</time>
      </trkpt>
      <trkpt lat="64.85042" lon="14.31997">
        <time>2026-03-02T17:16:00Z</time>
      </trkpt>
      <trkpt lat="64.85109" lon="14.3263">
        <time>2026-03-02T17:46:00Z</time>
      </trkpt>
      <trkpt lat="64.85122" lon="14.32642">
        <time>2026-03-02T18:16:00Z</time>
      </trkpt>
      <trkpt lat="64.85113" lon="14.32655">
        <time>2026-03-02T18:28:00Z</time>
      </trkpt>
      <trkpt lat="64.85106" lon="14.32617">
        <time>2026-03-03T05:02:00Z</time>
      </trkpt>
      <trkpt lat="64.85121" lon="14.32625">
        <time>2026-03-03T07:25:00Z</time>
      </trkpt>
      <trkpt lat="64.85554" lon="14.34861">
        <time>2026-03-03T07:55:00Z</time>
      </trkpt>
      <trkpt lat="64.86734" lon="14.3761">
        <time>2026-03-03T08:25:00Z</time>
      </trkpt>
      <trkpt lat="64.88516" lon="14.40582">
        <time>2026-03-03T09:25:00Z</time>
      </trkpt>
      <trkpt lat="64.8888" lon="14.4359">
        <time>2026-03-03T09:55:00Z</time>
      </trkpt>
      <trkpt lat="64.8907" lon="14.47367">
        <time>2026-03-03T10:25:00Z</time>
      </trkpt>
      <trkpt lat="64.89159" lon="14.50663">
        <time>2026-03-03T10:55:00Z</time>
      </trkpt>
      <trkpt lat="64.88818" lon="14.53883">
        <time>2026-03-03T11:25:00Z</time>
      </trkpt>
      <trkpt lat="64.90112" lon="14.57922">
        <time>2026-03-03T12:25:00Z</time>
      </trkpt>
      <trkpt lat="64.90931" lon="14.56068">
        <time>2026-03-03T12:55:00Z</time>
      </trkpt>
      <trkpt lat="64.92033" lon="14.55362">
        <time>2026-03-03T13:55:00Z</time>
      </trkpt>
      <trkpt lat="64.92028" lon="14.55302">
        <time>2026-03-03T14:28:00Z</time>
      </trkpt>
      <trkpt lat="64.9232" lon="14.56128">
        <time>2026-03-03T14:58:00Z</time>
      </trkpt>
      <trkpt lat="64.92703" lon="14.57184">
        <time>2026-03-03T15:28:00Z</time>
      </trkpt>
      <trkpt lat="64.93245" lon="14.58171">
        <time>2026-03-03T15:58:00Z</time>
      </trkpt>
      <trkpt lat="64.93407" lon="14.5855">
        <time>2026-03-03T16:14:00Z</time>
      </trkpt>
      <trkpt lat="64.93405" lon="14.5854">
        <time>2026-03-04T08:01:00Z</time>
      </trkpt>
      <trkpt lat="64.93407" lon="14.58553">
        <time>2026-03-04T13:08:00Z</time>
      </trkpt>
      <trkpt lat="64.93404" lon="14.58559">
        <time>2026-03-04T13:09:00Z</time>
      </trkpt>
      <trkpt lat="64.94087" lon="14.60012">
        <time>2026-03-04T13:39:00Z</time>
      </trkpt>
      <trkpt lat="64.9465" lon="14.6272">
        <time>2026-03-04T14:09:00Z</time>
      </trkpt>
      <trkpt lat="64.9524" lon="14.6455">
        <time>2026-03-04T14:39:00Z</time>
      </trkpt>
      <trkpt lat="64.95779" lon="14.6714">
        <time>2026-03-04T15:09:00Z</time>
      </trkpt>
      <trkpt lat="64.97628" lon="14.70241">
        <time>2026-03-04T15:39:00Z</time>
      </trkpt>
      <trkpt lat="64.98431" lon="14.71771">
        <time>2026-03-04T16:01:00Z</time>
      </trkpt>
      <trkpt lat="64.98395" lon="14.71775">
        <time>2026-03-04T18:05:00Z</time>
      </trkpt>
      <trkpt lat="64.98369" lon="14.71798">
        <time>2026-03-04T19:03:00Z</time>
      </trkpt>
      <trkpt lat="64.984" lon="14.71816">
        <time>2026-03-05T09:08:00Z</time>
      </trkpt>
      <trkpt lat="64.98407" lon="14.71781">
        <time>2026-03-05T09:22:00Z</time>
      </trkpt>
      <trkpt lat="64.99579" lon="14.72346">
        <time>2026-03-05T09:52:00Z</time>
      </trkpt>
      <trkpt lat="65.01523" lon="14.73296">
        <time>2026-03-05T10:22:00Z</time>
      </trkpt>
      <trkpt lat="65.04105" lon="14.72758">
        <time>2026-03-05T10:52:00Z</time>
      </trkpt>
      <trkpt lat="65.05141" lon="14.77287">
        <time>2026-03-05T11:22:00Z</time>
      </trkpt>
      <trkpt lat="65.06211" lon="14.81235">
        <time>2026-03-05T11:52:00Z</time>
      </trkpt>
      <trkpt lat="65.06336" lon="14.80922">
        <time>2026-03-05T12:00:00Z</time>
      </trkpt>
      <trkpt lat="65.06295" lon="14.80849">
        <time>2026-03-05T16:00:00Z</time>
      </trkpt>
      <trkpt lat="65.06355" lon="14.80911">
        <time>2026-03-06T09:46:00Z</time>
      </trkpt>
      <trkpt lat="65.06339" lon="14.80922">
        <time>2026-03-06T09:55:00Z</time>
      </trkpt>
      <trkpt lat="65.0698" lon="14.79296">
        <time>2026-03-06T10:25:00Z</time>
      </trkpt>
      <trkpt lat="65.07904" lon="14.77963">
        <time>2026-03-06T10:55:00Z</time>
      </trkpt>
      <trkpt lat="65.08886" lon="14.75489">
        <time>2026-03-06T11:25:00Z</time>
      </trkpt>
      <trkpt lat="65.10781" lon="14.74609">
        <time>2026-03-06T11:55:00Z</time>
      </trkpt>
      <trkpt lat="65.11697" lon="14.72577">
        <time>2026-03-06T12:25:00Z</time>
      </trkpt>
      <trkpt lat="65.11848" lon="14.72073">
        <time>2026-03-06T13:12:00Z</time>
      </trkpt>
      <trkpt lat="65.11936" lon="14.71698">
        <time>2026-03-06T13:42:00Z</time>
      </trkpt>
      <trkpt lat="65.13258" lon="14.69406">
        <time>2026-03-06T14:12:00Z</time>
      </trkpt>
      <trkpt lat="65.14455" lon="14.69638">
        <time>2026-03-06T14:42:00Z</time>
      </trkpt>
      <trkpt lat="65.15522" lon="14.65726">
        <time>2026-03-06T15:12:00Z</time>
      </trkpt>
      <trkpt lat="65.16085" lon="14.62145">
        <time>2026-03-06T15:42:00Z</time>
      </trkpt>
      <trkpt lat="65.16536" lon="14.58806">
        <time>2026-03-06T16:12:00Z</time>
      </trkpt>
      <trkpt lat="65.17919" lon="14.57091">
        <time>2026-03-06T16:42:00Z</time>
      </trkpt>
      <trkpt lat="65.1825" lon="14.56703">
        <time>2026-03-06T17:09:00Z</time>
      </trkpt>
      <trkpt lat="65.18242" lon="14.56699">
        <time>2026-03-06T21:09:00Z</time>
      </trkpt>
      <trkpt lat="65.18251" lon="14.56724">
        <time>2026-03-07T08:39:00Z</time>
      </trkpt>
      <trkpt lat="65.19043" lon="14.5586">
        <time>2026-03-07T09:09:00Z</time>
      </trkpt>
      <trkpt lat="65.20349" lon="14.5404">
        <time>2026-03-07T09:39:00Z</time>
      </trkpt>
      <trkpt lat="65.2133" lon="14.52841">
        <time>2026-03-07T10:09:00Z</time>
      </trkpt>
      <trkpt lat="65.22599" lon="14.51716">
        <time>2026-03-07T10:39:00Z</time>
      </trkpt>
      <trkpt lat="65.24118" lon="14.50712">
        <time>2026-03-07T11:09:00Z</time>
      </trkpt>
      <trkpt lat="65.25035" lon="14.50697">
        <time>2026-03-07T11:39:00Z</time>
      </trkpt>
      <trkpt lat="65.2517" lon="14.51879">
        <time>2026-03-07T12:09:00Z</time>
      </trkpt>
      <trkpt lat="65.25174" lon="14.51869">
        <time>2026-03-07T12:39:00Z</time>
      </trkpt>
      <trkpt lat="65.25307" lon="14.53516">
        <time>2026-03-07T13:39:00Z</time>
      </trkpt>
      <trkpt lat="65.2574" lon="14.54737">
        <time>2026-03-07T14:09:00Z</time>
      </trkpt>
      <trkpt lat="65.26381" lon="14.56087">
        <time>2026-03-07T14:39:00Z</time>
      </trkpt>
      <trkpt lat="65.28385" lon="14.58514">
        <time>2026-03-07T15:09:00Z</time>
      </trkpt>
      <trkpt lat="65.29564" lon="14.59291">
        <time>2026-03-07T15:39:00Z</time>
      </trkpt>
      <trkpt lat="65.30048" lon="14.59932">
        <time>2026-03-07T16:09:00Z</time>
      </trkpt>
      <trkpt lat="65.306" lon="14.60726">
        <time>2026-03-07T16:30:00Z</time>
      </trkpt>
      <trkpt lat="65.30572" lon="14.60716">
        <time>2026-03-07T20:40:00Z</time>
      </trkpt>
      <trkpt lat="65.30572" lon="14.60655">
        <time>2026-03-08T08:13:00Z</time>
      </trkpt>
      <trkpt lat="65.30945" lon="14.63632">
        <time>2026-03-08T08:43:00Z</time>
      </trkpt>
      <trkpt lat="65.3113" lon="14.66288">
        <time>2026-03-08T09:13:00Z</time>
      </trkpt>
      <trkpt lat="65.30566" lon="14.68625">
        <time>2026-03-08T09:43:00Z</time>
      </trkpt>
      <trkpt lat="65.30996" lon="14.71404">
        <time>2026-03-08T10:13:00Z</time>
      </trkpt>
      <trkpt lat="65.3173" lon="14.73281">
        <time>2026-03-08T10:43:00Z</time>
      </trkpt>
      <trkpt lat="65.32185" lon="14.74957">
        <time>2026-03-08T11:13:00Z</time>
      </trkpt>
      <trkpt lat="65.32991" lon="14.77783">
        <time>2026-03-08T11:43:00Z</time>
      </trkpt>
      <trkpt lat="65.33506" lon="14.82246">
        <time>2026-03-08T12:13:00Z</time>
      </trkpt>
      <trkpt lat="65.33508" lon="14.8224">
        <time>2026-03-08T12:43:00Z</time>
      </trkpt>
      <trkpt lat="65.33419" lon="14.84113">
        <time>2026-03-08T13:13:00Z</time>
      </trkpt>
      <trkpt lat="65.33878" lon="14.87641">
        <time>2026-03-08T13:43:00Z</time>
      </trkpt>
      <trkpt lat="65.34286" lon="14.91591">
        <time>2026-03-08T14:13:00Z</time>
      </trkpt>
      <trkpt lat="65.3371" lon="14.96076">
        <time>2026-03-08T14:43:00Z</time>
      </trkpt>
      <trkpt lat="65.33796" lon="14.98045">
        <time>2026-03-08T15:13:00Z</time>
      </trkpt>
      <trkpt lat="65.34438" lon="14.98361">
        <time>2026-03-08T15:43:00Z</time>
      </trkpt>
      <trkpt lat="65.34943" lon="14.98648">
        <time>2026-03-08T16:13:00Z</time>
      </trkpt>
      <trkpt lat="65.35344" lon="14.9882">
        <time>2026-03-08T16:43:00Z</time>
      </trkpt>
      <trkpt lat="65.36465" lon="14.99335">
        <time>2026-03-08T17:27:00Z</time>
      </trkpt>
      <trkpt lat="65.36473" lon="14.99344">
        <time>2026-03-08T21:37:00Z</time>
      </trkpt>
      <trkpt lat="65.36473" lon="14.99378">
        <time>2026-03-09T01:37:00Z</time>
      </trkpt>
      <trkpt lat="65.36475" lon="14.99372">
        <time>2026-03-09T05:37:00Z</time>
      </trkpt>
      <trkpt lat="65.36487" lon="14.99393">
        <time>2026-03-09T08:19:00Z</time>
      </trkpt>
      <trkpt lat="65.3746" lon="14.99479">
        <time>2026-03-09T08:49:00Z</time>
      </trkpt>
      <trkpt lat="65.38992" lon="14.99348">
        <time>2026-03-09T09:19:00Z</time>
      </trkpt>
      <trkpt lat="65.39825" lon="14.98543">
        <time>2026-03-09T09:49:00Z</time>
      </trkpt>
      <trkpt lat="65.40656" lon="14.97322">
        <time>2026-03-09T10:19:00Z</time>
      </trkpt>
      <trkpt lat="65.41285" lon="14.99193">
        <time>2026-03-09T10:49:00Z</time>
      </trkpt>
      <trkpt lat="65.41657" lon="15.01174">
        <time>2026-03-09T11:19:00Z</time>
      </trkpt>
      <trkpt lat="65.41144" lon="15.05305">
        <time>2026-03-09T11:49:00Z</time>
      </trkpt>
      <trkpt lat="65.41066" lon="15.11308">
        <time>2026-03-09T12:19:00Z</time>
      </trkpt>
      <trkpt lat="65.4122" lon="15.13147">
        <time>2026-03-09T12:49:00Z</time>
      </trkpt>
      <trkpt lat="65.41226" lon="15.13128">
        <time>2026-03-09T13:19:00Z</time>
      </trkpt>
      <trkpt lat="65.41919" lon="15.18323">
        <time>2026-03-09T13:49:00Z</time>
      </trkpt>
      <trkpt lat="65.42979" lon="15.21625">
        <time>2026-03-09T14:19:00Z</time>
      </trkpt>
      <trkpt lat="65.43866" lon="15.23584">
        <time>2026-03-09T14:49:00Z</time>
      </trkpt>
      <trkpt lat="65.45678" lon="15.25041">
        <time>2026-03-09T15:19:00Z</time>
      </trkpt>
      <trkpt lat="65.47013" lon="15.28674">
        <time>2026-03-09T15:49:00Z</time>
      </trkpt>
      <trkpt lat="65.48727" lon="15.34931">
        <time>2026-03-09T16:19:00Z</time>
      </trkpt>
      <trkpt lat="65.49553" lon="15.34161">
        <time>2026-03-09T16:49:00Z</time>
      </trkpt>
      <trkpt lat="65.51016" lon="15.33908">
        <time>2026-03-09T17:19:00Z</time>
      </trkpt>
      <trkpt lat="65.52515" lon="15.32004">
        <time>2026-03-09T17:49:00Z</time>
      </trkpt>
      <trkpt lat="65.52516" lon="15.32109">
        <time>2026-03-09T17:58:00Z</time>
      </trkpt>
      <trkpt lat="65.52523" lon="15.32127">
        <time>2026-03-10T07:39:00Z</time>
      </trkpt>
      <trkpt lat="65.54218" lon="15.3174">
        <time>2026-03-10T08:09:00Z</time>
      </trkpt>
      <trkpt lat="65.55788" lon="15.29204">
        <time>2026-03-10T08:39:00Z</time>
      </trkpt>
      <trkpt lat="65.55898" lon="15.27026">
        <time>2026-03-10T09:09:00Z</time>
      </trkpt>
      <trkpt lat="65.56497" lon="15.2114">
        <time>2026-03-10T09:39:00Z</time>
      </trkpt>
      <trkpt lat="65.57619" lon="15.19499">
        <time>2026-03-10T10:09:00Z</time>
      </trkpt>
      <trkpt lat="65.60082" lon="15.19325">
        <time>2026-03-10T10:39:00Z</time>
      </trkpt>
      <trkpt lat="65.61466" lon="15.16823">
        <time>2026-03-10T11:09:00Z</time>
      </trkpt>
      <trkpt lat="65.63438" lon="15.16021">
        <time>2026-03-10T11:39:00Z</time>
      </trkpt>
      <trkpt lat="65.65392" lon="15.12849">
        <time>2026-03-10T12:09:00Z</time>
      </trkpt>
      <trkpt lat="65.65927" lon="15.12888">
        <time>2026-03-10T12:39:00Z</time>
      </trkpt>
      <trkpt lat="65.65932" lon="15.12883">
        <time>2026-03-10T13:09:00Z</time>
      </trkpt>
      <trkpt lat="65.67602" lon="15.12757">
        <time>2026-03-10T13:39:00Z</time>
      </trkpt>
      <trkpt lat="65.68954" lon="15.12021">
        <time>2026-03-10T14:09:00Z</time>
      </trkpt>
      <trkpt lat="65.7051" lon="15.10261">
        <time>2026-03-10T14:39:00Z</time>
      </trkpt>
      <trkpt lat="65.72119" lon="15.09336">
        <time>2026-03-10T15:09:00Z</time>
      </trkpt>
      <trkpt lat="65.7223" lon="15.11208">
        <time>2026-03-10T15:39:00Z</time>
      </trkpt>
      <trkpt lat="65.73722" lon="15.11645">
        <time>2026-03-10T16:09:00Z</time>
      </trkpt>
      <trkpt lat="65.75622" lon="15.12997">
        <time>2026-03-10T16:39:00Z</time>
      </trkpt>
      <trkpt lat="65.77214" lon="15.11182">
        <time>2026-03-10T17:09:00Z</time>
      </trkpt>
      <trkpt lat="65.78517" lon="15.10025">
        <time>2026-03-10T17:39:00Z</time>
      </trkpt>
      <trkpt lat="65.79813" lon="15.07139">
        <time>2026-03-10T18:09:00Z</time>
      </trkpt>
      <trkpt lat="65.81452" lon="15.07997">
        <time>2026-03-10T18:39:00Z</time>
      </trkpt>
      <trkpt lat="65.81381" lon="15.08643">
        <time>2026-03-10T18:54:00Z</time>
      </trkpt>
      <trkpt lat="65.81383" lon="15.08646">
        <time>2026-03-11T12:16:00Z</time>
      </trkpt>
      <trkpt lat="65.81358" lon="15.08615">
        <time>2026-03-13T08:30:00Z</time>
      </trkpt>
      <trkpt lat="65.81489" lon="15.10506">
        <time>2026-03-13T09:00:00Z</time>
      </trkpt>
      <trkpt lat="65.81948" lon="15.11527">
        <time>2026-03-13T09:30:00Z</time>
      </trkpt>
      <trkpt lat="65.83175" lon="15.10354">
        <time>2026-03-13T10:00:00Z</time>
      </trkpt>
      <trkpt lat="65.84428" lon="15.09296">
        <time>2026-03-13T10:30:00Z</time>
      </trkpt>
      <trkpt lat="65.86003" lon="15.09643">
        <time>2026-03-13T11:00:00Z</time>
      </trkpt>
      <trkpt lat="65.87546" lon="15.13313">
        <time>2026-03-13T11:30:00Z</time>
      </trkpt>
      <trkpt lat="65.88507" lon="15.15836">
        <time>2026-03-13T12:00:00Z</time>
      </trkpt>
      <trkpt lat="65.88507" lon="15.15836">
        <time>2026-03-13T12:30:00Z</time>
      </trkpt>
      <trkpt lat="65.88703" lon="15.19413">
        <time>2026-03-13T13:00:00Z</time>
      </trkpt>
      <trkpt lat="65.88046" lon="15.23198">
        <time>2026-03-13T13:30:00Z</time>
      </trkpt>
      <trkpt lat="65.87679" lon="15.27327">
        <time>2026-03-13T14:00:00Z</time>
      </trkpt>
      <trkpt lat="65.86833" lon="15.3153">
        <time>2026-03-13T14:30:00Z</time>
      </trkpt>
      <trkpt lat="65.87243" lon="15.33822">
        <time>2026-03-13T15:00:00Z</time>
      </trkpt>
      <trkpt lat="65.88602" lon="15.37789">
        <time>2026-03-13T15:30:00Z</time>
      </trkpt>
      <trkpt lat="65.89273" lon="15.39671">
        <time>2026-03-13T15:38:00Z</time>
      </trkpt>
      <trkpt lat="65.893" lon="15.39618">
        <time>2026-03-14T08:40:00Z</time>
      </trkpt>
      <trkpt lat="65.89407" lon="15.4139">
        <time>2026-03-14T08:55:00Z</time>
      </trkpt>
      <trkpt lat="65.91021" lon="15.45087">
        <time>2026-03-14T09:25:00Z</time>
      </trkpt>
      <trkpt lat="65.92768" lon="15.4634">
        <time>2026-03-14T09:55:00Z</time>
      </trkpt>
      <trkpt lat="65.9502" lon="15.47557">
        <time>2026-03-14T10:25:00Z</time>
      </trkpt>
      <trkpt lat="65.96846" lon="15.47967">
        <time>2026-03-14T10:55:00Z</time>
      </trkpt>
      <trkpt lat="65.98831" lon="15.49567">
        <time>2026-03-14T11:25:00Z</time>
      </trkpt>
      <trkpt lat="65.98878" lon="15.49726">
        <time>2026-03-14T11:55:00Z</time>
      </trkpt>
      <trkpt lat="65.98881" lon="15.49703">
        <time>2026-03-14T12:55:00Z</time>
      </trkpt>
      <trkpt lat="66.00662" lon="15.49445">
        <time>2026-03-14T13:25:00Z</time>
      </trkpt>
      <trkpt lat="66.0039" lon="15.52906">
        <time>2026-03-14T13:55:00Z</time>
      </trkpt>
      <trkpt lat="66.0018" lon="15.56301">
        <time>2026-03-14T14:25:00Z</time>
      </trkpt>
      <trkpt lat="65.9908" lon="15.57415">
        <time>2026-03-14T14:55:00Z</time>
      </trkpt>
      <trkpt lat="65.98316" lon="15.58172">
        <time>2026-03-14T15:25:00Z</time>
      </trkpt>
      <trkpt lat="65.96947" lon="15.60846">
        <time>2026-03-14T15:55:00Z</time>
      </trkpt>
      <trkpt lat="65.96724" lon="15.63491">
        <time>2026-03-14T16:25:00Z</time>
      </trkpt>
      <trkpt lat="65.96991" lon="15.67294">
        <time>2026-03-14T16:55:00Z</time>
      </trkpt>
      <trkpt lat="65.96239" lon="15.7219">
        <time>2026-03-14T17:25:00Z</time>
      </trkpt>
      <trkpt lat="65.97223" lon="15.76447">
        <time>2026-03-14T17:52:00Z</time>
      </trkpt>
      <trkpt lat="65.97226" lon="15.76495">
        <time>2026-03-15T07:59:00Z</time>
      </trkpt>
      <trkpt lat="65.97231" lon="15.76456">
        <time>2026-03-15T08:46:00Z</time>
      </trkpt>
      <trkpt lat="65.96846" lon="15.80233">
        <time>2026-03-15T09:16:00Z</time>
      </trkpt>
      <trkpt lat="65.97425" lon="15.84782">
        <time>2026-03-15T09:46:00Z</time>
      </trkpt>
      <trkpt lat="65.96763" lon="15.89015">
        <time>2026-03-15T10:16:00Z</time>
      </trkpt>
      <trkpt lat="65.96134" lon="15.9327">
        <time>2026-03-15T10:46:00Z</time>
      </trkpt>
      <trkpt lat="65.96444" lon="15.98188">
        <time>2026-03-15T11:16:00Z</time>
      </trkpt>
      <trkpt lat="65.96295" lon="16.02963">
        <time>2026-03-15T11:46:00Z</time>
      </trkpt>
      <trkpt lat="65.96342" lon="16.0407">
        <time>2026-03-15T12:16:00Z</time>
      </trkpt>
      <trkpt lat="65.96294" lon="16.08909">
        <time>2026-03-15T12:46:00Z</time>
      </trkpt>
      <trkpt lat="65.95339" lon="16.16095">
        <time>2026-03-15T13:16:00Z</time>
      </trkpt>
      <trkpt lat="65.95716" lon="16.19286">
        <time>2026-03-15T13:46:00Z</time>
      </trkpt>
      <trkpt lat="65.96043" lon="16.21227">
        <time>2026-03-15T14:13:00Z</time>
      </trkpt>
      <trkpt lat="65.96059" lon="16.21273">
        <time>2026-03-16T08:26:00Z</time>
      </trkpt>
      <trkpt lat="65.97129" lon="16.20957">
        <time>2026-03-16T08:56:00Z</time>
      </trkpt>
      <trkpt lat="65.97777" lon="16.20908">
        <time>2026-03-16T09:26:00Z</time>
      </trkpt>
      <trkpt lat="65.9917" lon="16.19938">
        <time>2026-03-16T09:56:00Z</time>
      </trkpt>
      <trkpt lat="66.00861" lon="16.19597">
        <time>2026-03-16T10:26:00Z</time>
      </trkpt>
      <trkpt lat="66.02663" lon="16.19305">
        <time>2026-03-16T10:56:00Z</time>
      </trkpt>
      <trkpt lat="66.03883" lon="16.20112">
        <time>2026-03-16T11:26:00Z</time>
      </trkpt>
      <trkpt lat="66.03792" lon="16.22822">
        <time>2026-03-16T11:56:00Z</time>
      </trkpt>
      <trkpt lat="66.03856" lon="16.23923">
        <time>2026-03-16T12:26:00Z</time>
      </trkpt>
      <trkpt lat="66.03841" lon="16.24697">
        <time>2026-03-16T12:56:00Z</time>
      </trkpt>
      <trkpt lat="66.04213" lon="16.25982">
        <time>2026-03-16T13:26:00Z</time>
      </trkpt>
      <trkpt lat="66.04886" lon="16.26611">
        <time>2026-03-16T13:56:00Z</time>
      </trkpt>
      <trkpt lat="66.06326" lon="16.271">
        <time>2026-03-16T14:26:00Z</time>
      </trkpt>
      <trkpt lat="66.07674" lon="16.27676">
        <time>2026-03-16T14:56:00Z</time>
      </trkpt>
      <trkpt lat="66.0879" lon="16.29321">
        <time>2026-03-16T15:26:00Z</time>
      </trkpt>
      <trkpt lat="66.09907" lon="16.31053">
        <time>2026-03-16T15:56:00Z</time>
      </trkpt>
      <trkpt lat="66.11148" lon="16.33403">
        <time>2026-03-16T16:26:00Z</time>
      </trkpt>
      <trkpt lat="66.13412" lon="16.3584">
        <time>2026-03-16T16:56:00Z</time>
      </trkpt>
      <trkpt lat="66.13794" lon="16.36001">
        <time>2026-03-16T17:07:00Z</time>
      </trkpt>
      <trkpt lat="66.13802" lon="16.36016">
        <time>2026-03-17T08:05:00Z</time>
      </trkpt>
      <trkpt lat="66.13801" lon="16.36023">
        <time>2026-03-17T08:05:00Z</time>
      </trkpt>
      <trkpt lat="66.13811" lon="16.3604">
        <time>2026-03-17T08:35:00Z</time>
      </trkpt>
      <trkpt lat="66.15867" lon="16.3507">
        <time>2026-03-17T09:05:00Z</time>
      </trkpt>
      <trkpt lat="66.17973" lon="16.36786">
        <time>2026-03-17T09:35:00Z</time>
      </trkpt>
      <trkpt lat="66.1972" lon="16.38224">
        <time>2026-03-17T10:05:00Z</time>
      </trkpt>
      <trkpt lat="66.21562" lon="16.37778">
        <time>2026-03-17T10:35:00Z</time>
      </trkpt>
      <trkpt lat="66.22698" lon="16.38653">
        <time>2026-03-17T11:05:00Z</time>
      </trkpt>
      <trkpt lat="66.24826" lon="16.38059">
        <time>2026-03-17T11:35:00Z</time>
      </trkpt>
      <trkpt lat="66.25425" lon="16.38585">
        <time>2026-03-17T12:05:00Z</time>
      </trkpt>
      <trkpt lat="66.26401" lon="16.39269">
        <time>2026-03-17T12:35:00Z</time>
      </trkpt>
      <trkpt lat="66.27366" lon="16.4361">
        <time>2026-03-17T13:05:00Z</time>
      </trkpt>
      <trkpt lat="66.28302" lon="16.52976">
        <time>2026-03-17T13:35:00Z</time>
      </trkpt>
      <trkpt lat="66.28321" lon="16.58308">
        <time>2026-03-17T14:05:00Z</time>
      </trkpt>
      <trkpt lat="66.28188" lon="16.62907">
        <time>2026-03-17T14:35:00Z</time>
      </trkpt>
      <trkpt lat="66.27951" lon="16.66123">
        <time>2026-03-17T15:05:00Z</time>
      </trkpt>
      <trkpt lat="66.29091" lon="16.67411">
        <time>2026-03-17T15:35:00Z</time>
      </trkpt>
      <trkpt lat="66.30312" lon="16.67932">
        <time>2026-03-17T16:05:00Z</time>
      </trkpt>
      <trkpt lat="66.30967" lon="16.69127">
        <time>2026-03-17T16:35:00Z</time>
      </trkpt>
      <trkpt lat="66.3098" lon="16.69119">
        <time>2026-03-17T16:50:00Z</time>
      </trkpt>
      <trkpt lat="66.30963" lon="16.69125">
        <time>2026-03-18T08:06:00Z</time>
      </trkpt>
      <trkpt lat="66.32268" lon="16.72754">
        <time>2026-03-18T08:36:00Z</time>
      </trkpt>
      <trkpt lat="66.32858" lon="16.76136">
        <time>2026-03-18T09:06:00Z</time>
      </trkpt>
      <trkpt lat="66.33602" lon="16.78816">
        <time>2026-03-18T09:36:00Z</time>
      </trkpt>
      <trkpt lat="66.3485" lon="16.82032">
        <time>2026-03-18T10:06:00Z</time>
      </trkpt>
      <trkpt lat="66.35204" lon="16.84532">
        <time>2026-03-18T10:36:00Z</time>
      </trkpt>
      <trkpt lat="66.35743" lon="16.87727">
        <time>2026-03-18T11:06:00Z</time>
      </trkpt>
      <trkpt lat="66.3672" lon="16.91825">
        <time>2026-03-18T11:36:00Z</time>
      </trkpt>
      <trkpt lat="66.3672" lon="16.91825">
        <time>2026-03-18T12:06:00Z</time>
      </trkpt>
      <trkpt lat="66.38323" lon="16.95578">
        <time>2026-03-18T12:36:00Z</time>
      </trkpt>
      <trkpt lat="66.3898" lon="16.96548">
        <time>2026-03-18T13:06:00Z</time>
      </trkpt>
      <trkpt lat="66.39006" lon="16.96505">
        <time>2026-03-18T14:15:00Z</time>
      </trkpt>
      <trkpt lat="66.40216" lon="16.96872">
        <time>2026-03-18T14:46:00Z</time>
      </trkpt>
      <trkpt lat="66.41698" lon="16.98681">
        <time>2026-03-18T15:16:00Z</time>
      </trkpt>
      <trkpt lat="66.42323" lon="17.01945">
        <time>2026-03-18T15:46:00Z</time>
      </trkpt>
      <trkpt lat="66.43477" lon="17.00756">
        <time>2026-03-18T16:16:00Z</time>
      </trkpt>
      <trkpt lat="66.43834" lon="17.00183">
        <time>2026-03-18T16:46:00Z</time>
      </trkpt>
      <trkpt lat="66.44493" lon="17.03234">
        <time>2026-03-18T17:16:00Z</time>
      </trkpt>
      <trkpt lat="66.44555" lon="17.03198">
        <time>2026-03-18T17:20:00Z</time>
      </trkpt>
      <trkpt lat="66.44525" lon="17.03226">
        <time>2026-03-19T08:09:00Z</time>
      </trkpt>
      <trkpt lat="66.44755" lon="17.0347">
        <time>2026-03-19T08:39:00Z</time>
      </trkpt>
      <trkpt lat="66.45123" lon="17.03951">
        <time>2026-03-19T09:09:00Z</time>
      </trkpt>
      <trkpt lat="66.45367" lon="17.04494">
        <time>2026-03-19T09:39:00Z</time>
      </trkpt>
      <trkpt lat="66.45716" lon="17.05678">
        <time>2026-03-19T10:09:00Z</time>
      </trkpt>
      <trkpt lat="66.46483" lon="17.07281">
        <time>2026-03-19T10:39:00Z</time>
      </trkpt>
      <trkpt lat="66.48013" lon="17.10732">
        <time>2026-03-19T11:09:00Z</time>
      </trkpt>
      <trkpt lat="66.49108" lon="17.13592">
        <time>2026-03-19T11:39:00Z</time>
      </trkpt>
      <trkpt lat="66.49582" lon="17.17585">
        <time>2026-03-19T12:09:00Z</time>
      </trkpt>
      <trkpt lat="66.49242" lon="17.19474">
        <time>2026-03-19T12:39:00Z</time>
      </trkpt>
      <trkpt lat="66.49612" lon="17.23194">
        <time>2026-03-19T13:09:00Z</time>
      </trkpt>
      <trkpt lat="66.50595" lon="17.23935">
        <time>2026-03-19T13:39:00Z</time>
      </trkpt>
      <trkpt lat="66.52139" lon="17.24098">
        <time>2026-03-19T14:09:00Z</time>
      </trkpt>
      <trkpt lat="66.53706" lon="17.23746">
        <time>2026-03-19T14:39:00Z</time>
      </trkpt>
      <trkpt lat="66.55465" lon="17.22926">
        <time>2026-03-19T15:09:00Z</time>
      </trkpt>
      <trkpt lat="66.56582" lon="17.24347">
        <time>2026-03-19T15:39:00Z</time>
      </trkpt>
      <trkpt lat="66.56448" lon="17.27763">
        <time>2026-03-19T16:09:00Z</time>
      </trkpt>
      <trkpt lat="66.55738" lon="17.32131">
        <time>2026-03-19T16:39:00Z</time>
      </trkpt>
      <trkpt lat="66.55385" lon="17.3364">
        <time>2026-03-19T16:54:00Z</time>
      </trkpt>
      <trkpt lat="66.55389" lon="17.3364">
        <time>2026-03-20T08:17:00Z</time>
      </trkpt>
      <trkpt lat="66.55539" lon="17.36891">
        <time>2026-03-20T08:47:00Z</time>
      </trkpt>
      <trkpt lat="66.55982" lon="17.38991">
        <time>2026-03-20T09:17:00Z</time>
      </trkpt>
      <trkpt lat="66.57688" lon="17.39899">
        <time>2026-03-20T09:47:00Z</time>
      </trkpt>
      <trkpt lat="66.60107" lon="17.3941">
        <time>2026-03-20T10:17:00Z</time>
      </trkpt>
      <trkpt lat="66.61611" lon="17.37157">
        <time>2026-03-20T10:47:00Z</time>
      </trkpt>
      <trkpt lat="66.63195" lon="17.38936">
        <time>2026-03-20T11:17:00Z</time>
      </trkpt>
      <trkpt lat="66.64627" lon="17.39946">
        <time>2026-03-20T11:47:00Z</time>
      </trkpt>
      <trkpt lat="66.65281" lon="17.40067">
        <time>2026-03-20T12:17:00Z</time>
      </trkpt>
      <trkpt lat="66.65284" lon="17.40069">
        <time>2026-03-20T12:47:00Z</time>
      </trkpt>
      <trkpt lat="66.66809" lon="17.43335">
        <time>2026-03-20T13:17:00Z</time>
      </trkpt>
      <trkpt lat="66.68002" lon="17.43197">
        <time>2026-03-20T13:47:00Z</time>
      </trkpt>
      <trkpt lat="66.70025" lon="17.40079">
        <time>2026-03-20T14:17:00Z</time>
      </trkpt>
      <trkpt lat="66.71095" lon="17.38762">
        <time>2026-03-20T14:47:00Z</time>
      </trkpt>
      <trkpt lat="66.72302" lon="17.40009">
        <time>2026-03-20T15:17:00Z</time>
      </trkpt>
      <trkpt lat="66.73884" lon="17.40352">
        <time>2026-03-20T15:47:00Z</time>
      </trkpt>
      <trkpt lat="66.74492" lon="17.41657">
        <time>2026-03-20T16:17:00Z</time>
      </trkpt>
      <trkpt lat="66.75332" lon="17.45424">
        <time>2026-03-20T16:47:00Z</time>
      </trkpt>
      <trkpt lat="66.75756" lon="17.46693">
        <time>2026-03-20T17:04:00Z</time>
      </trkpt>
      <trkpt lat="66.75736" lon="17.46682">
        <time>2026-03-20T21:04:00Z</time>
      </trkpt>
      <trkpt lat="66.75741" lon="17.46671">
        <time>2026-03-21T01:04:00Z</time>
      </trkpt>
      <trkpt lat="66.75738" lon="17.4668">
        <time>2026-03-21T05:04:00Z</time>
      </trkpt>
      <trkpt lat="66.75742" lon="17.46684">
        <time>2026-03-21T07:52:00Z</time>
      </trkpt>
      <trkpt lat="66.76548" lon="17.48903">
        <time>2026-03-21T08:22:00Z</time>
      </trkpt>
      <trkpt lat="66.77694" lon="17.5113">
        <time>2026-03-21T08:52:00Z</time>
      </trkpt>
      <trkpt lat="66.78187" lon="17.55113">
        <time>2026-03-21T09:22:00Z</time>
      </trkpt>
      <trkpt lat="66.79274" lon="17.53909">
        <time>2026-03-21T09:52:00Z</time>
      </trkpt>
      <trkpt lat="66.79731" lon="17.53872">
        <time>2026-03-21T10:22:00Z</time>
      </trkpt>
      <trkpt lat="66.80423" lon="17.54016">
        <time>2026-03-21T10:52:00Z</time>
      </trkpt>
      <trkpt lat="66.82083" lon="17.5657">
        <time>2026-03-21T11:22:00Z</time>
      </trkpt>
      <trkpt lat="66.84489" lon="17.58926">
        <time>2026-03-21T11:52:00Z</time>
      </trkpt>
      <trkpt lat="66.84608" lon="17.58745">
        <time>2026-03-21T12:22:00Z</time>
      </trkpt>
      <trkpt lat="66.8634" lon="17.59975">
        <time>2026-03-21T12:52:00Z</time>
      </trkpt>
      <trkpt lat="66.87596" lon="17.63155">
        <time>2026-03-21T13:22:00Z</time>
      </trkpt>
      <trkpt lat="66.88583" lon="17.65556">
        <time>2026-03-21T13:52:00Z</time>
      </trkpt>
      <trkpt lat="66.90163" lon="17.67393">
        <time>2026-03-21T14:22:00Z</time>
      </trkpt>
      <trkpt lat="66.92483" lon="17.66582">
        <time>2026-03-21T14:52:00Z</time>
      </trkpt>
      <trkpt lat="66.9233" lon="17.71401">
        <time>2026-03-21T15:22:00Z</time>
      </trkpt>
      <trkpt lat="66.93744" lon="17.72794">
        <time>2026-03-21T15:52:00Z</time>
      </trkpt>
      <trkpt lat="66.95249" lon="17.71968">
        <time>2026-03-21T16:22:00Z</time>
      </trkpt>
      <trkpt lat="66.95408" lon="17.72002">
        <time>2026-03-21T16:34:00Z</time>
      </trkpt>
      <trkpt lat="66.9543" lon="17.72002">
        <time>2026-03-22T09:49:00Z</time>
      </trkpt>
      <trkpt lat="66.96384" lon="17.73631">
        <time>2026-03-22T10:19:00Z</time>
      </trkpt>
      <trkpt lat="66.97574" lon="17.75523">
        <time>2026-03-22T10:49:00Z</time>
      </trkpt>
      <trkpt lat="66.98428" lon="17.77469">
        <time>2026-03-22T11:19:00Z</time>
      </trkpt>
      <trkpt lat="67.00182" lon="17.79036">
        <time>2026-03-22T11:49:00Z</time>
      </trkpt>
      <trkpt lat="67.01444" lon="17.7907">
        <time>2026-03-22T12:19:00Z</time>
      </trkpt>
      <trkpt lat="67.0261" lon="17.85207">
        <time>2026-03-22T12:49:00Z</time>
      </trkpt>
      <trkpt lat="67.03079" lon="17.87406">
        <time>2026-03-22T13:19:00Z</time>
      </trkpt>
      <trkpt lat="67.03035" lon="17.87954">
        <time>2026-03-22T13:49:00Z</time>
      </trkpt>
      <trkpt lat="67.03805" lon="17.94608">
        <time>2026-03-22T14:19:00Z</time>
      </trkpt>
      <trkpt lat="67.04309" lon="17.9776">
        <time>2026-03-22T14:49:00Z</time>
      </trkpt>
      <trkpt lat="67.04331" lon="18.01965">
        <time>2026-03-22T15:19:00Z</time>
      </trkpt>
      <trkpt lat="67.04694" lon="18.05785">
        <time>2026-03-22T15:49:00Z</time>
      </trkpt>
      <trkpt lat="67.05178" lon="18.11321">
        <time>2026-03-22T16:19:00Z</time>
      </trkpt>
      <trkpt lat="67.05733" lon="18.1469">
        <time>2026-03-22T16:49:00Z</time>
      </trkpt>
      <trkpt lat="67.05726" lon="18.14986">
        <time>2026-03-22T16:58:00Z</time>
      </trkpt>
      <trkpt lat="67.05709" lon="18.1496">
        <time>2026-03-23T07:50:00Z</time>
      </trkpt>
      <trkpt lat="67.05731" lon="18.17878">
        <time>2026-03-23T08:20:00Z</time>
      </trkpt>
      <trkpt lat="67.06304" lon="18.22475">
        <time>2026-03-23T08:50:00Z</time>
      </trkpt>
      <trkpt lat="67.07504" lon="18.27406">
        <time>2026-03-23T09:20:00Z</time>
      </trkpt>
      <trkpt lat="67.08565" lon="18.28365">
        <time>2026-03-23T09:50:00Z</time>
      </trkpt>
      <trkpt lat="67.10059" lon="18.27275">
        <time>2026-03-23T10:20:00Z</time>
      </trkpt>
      <trkpt lat="67.11363" lon="18.2859">
        <time>2026-03-23T10:50:00Z</time>
      </trkpt>
      <trkpt lat="67.13732" lon="18.31305">
        <time>2026-03-23T11:20:00Z</time>
      </trkpt>
      <trkpt lat="67.14868" lon="18.30618">
        <time>2026-03-23T11:50:00Z</time>
      </trkpt>
      <trkpt lat="67.14873" lon="18.30629">
        <time>2026-03-23T12:20:00Z</time>
      </trkpt>
      <trkpt lat="67.14867" lon="18.3062">
        <time>2026-03-23T13:20:00Z</time>
      </trkpt>
      <trkpt lat="67.14769" lon="18.31905">
        <time>2026-03-23T13:50:00Z</time>
      </trkpt>
      <trkpt lat="67.15115" lon="18.33128">
        <time>2026-03-23T14:20:00Z</time>
      </trkpt>
      <trkpt lat="67.16082" lon="18.34223">
        <time>2026-03-23T14:50:00Z</time>
      </trkpt>
      <trkpt lat="67.16739" lon="18.38416">
        <time>2026-03-23T15:20:00Z</time>
      </trkpt>
      <trkpt lat="67.18291" lon="18.42699">
        <time>2026-03-23T15:50:00Z</time>
      </trkpt>
      <trkpt lat="67.20502" lon="18.43078">
        <time>2026-03-23T16:20:00Z</time>
      </trkpt>
      <trkpt lat="67.22787" lon="18.43454">
        <time>2026-03-23T16:50:00Z</time>
      </trkpt>
      <trkpt lat="67.2314" lon="18.44119">
        <time>2026-03-23T16:57:00Z</time>
      </trkpt>
      <trkpt lat="67.23219" lon="18.44089">
        <time>2026-03-24T08:02:00Z</time>
      </trkpt>
      <trkpt lat="67.23911" lon="18.45072">
        <time>2026-03-24T08:32:00Z</time>
      </trkpt>
      <trkpt lat="67.25412" lon="18.46756">
        <time>2026-03-24T09:02:00Z</time>
      </trkpt>
      <trkpt lat="67.26539" lon="18.46821">
        <time>2026-03-24T09:32:00Z</time>
      </trkpt>
      <trkpt lat="67.28556" lon="18.46778">
        <time>2026-03-24T10:02:00Z</time>
      </trkpt>
      <trkpt lat="67.30375" lon="18.48904">
        <time>2026-03-24T10:32:00Z</time>
      </trkpt>
      <trkpt lat="67.32354" lon="18.49953">
        <time>2026-03-24T11:02:00Z</time>
      </trkpt>
      <trkpt lat="67.32356" lon="18.49951">
        <time>2026-03-24T11:32:00Z</time>
      </trkpt>
      <trkpt lat="67.32385" lon="18.5028">
        <time>2026-03-24T12:02:00Z</time>
      </trkpt>
      <trkpt lat="67.34494" lon="18.5044">
        <time>2026-03-24T12:32:00Z</time>
      </trkpt>
      <trkpt lat="67.36927" lon="18.51958">
        <time>2026-03-24T13:02:00Z</time>
      </trkpt>
      <trkpt lat="67.3885" lon="18.53125">
        <time>2026-03-24T13:32:00Z</time>
      </trkpt>
      <trkpt lat="67.39405" lon="18.52037">
        <time>2026-03-24T14:02:00Z</time>
      </trkpt>
      <trkpt lat="67.39397" lon="18.52046">
        <time>2026-03-24T14:13:00Z</time>
      </trkpt>
      <trkpt lat="67.39403" lon="18.52024">
        <time>2026-03-25T09:24:00Z</time>
      </trkpt>
      <trkpt lat="67.40663" lon="18.50123">
        <time>2026-03-25T09:54:00Z</time>
      </trkpt>
      <trkpt lat="67.41597" lon="18.4634">
        <time>2026-03-25T10:24:00Z</time>
      </trkpt>
      <trkpt lat="67.41978" lon="18.45284">
        <time>2026-03-25T10:54:00Z</time>
      </trkpt>
      <trkpt lat="67.43679" lon="18.42385">
        <time>2026-03-25T11:24:00Z</time>
      </trkpt>
      <trkpt lat="67.44285" lon="18.39988">
        <time>2026-03-25T11:54:00Z</time>
      </trkpt>
      <trkpt lat="67.449" lon="18.39473">
        <time>2026-03-25T12:24:00Z</time>
      </trkpt>
      <trkpt lat="67.46541" lon="18.37171">
        <time>2026-03-25T12:54:00Z</time>
      </trkpt>
      <trkpt lat="67.47446" lon="18.36517">
        <time>2026-03-25T13:24:00Z</time>
      </trkpt>
      <trkpt lat="67.4744" lon="18.36512">
        <time>2026-03-25T13:54:00Z</time>
      </trkpt>
      <trkpt lat="67.48316" lon="18.35873">
        <time>2026-03-25T14:54:00Z</time>
      </trkpt>
      <trkpt lat="67.49288" lon="18.36944">
        <time>2026-03-25T15:24:00Z</time>
      </trkpt>
      <trkpt lat="67.50636" lon="18.41819">
        <time>2026-03-25T15:54:00Z</time>
      </trkpt>
      <trkpt lat="67.51279" lon="18.44102">
        <time>2026-03-25T16:24:00Z</time>
      </trkpt>
      <trkpt lat="67.52283" lon="18.47707">
        <time>2026-03-25T16:54:00Z</time>
      </trkpt>
      <trkpt lat="67.53239" lon="18.48529">
        <time>2026-03-25T17:24:00Z</time>
      </trkpt>
      <trkpt lat="67.53817" lon="18.48451">
        <time>2026-03-25T17:40:00Z</time>
      </trkpt>
      <trkpt lat="67.53811" lon="18.48449">
        <time>2026-03-26T07:56:00Z</time>
      </trkpt>
      <trkpt lat="67.54679" lon="18.46215">
        <time>2026-03-26T08:26:00Z</time>
      </trkpt>
      <trkpt lat="67.55957" lon="18.43926">
        <time>2026-03-26T08:56:00Z</time>
      </trkpt>
      <trkpt lat="67.57166" lon="18.40888">
        <time>2026-03-26T09:26:00Z</time>
      </trkpt>
      <trkpt lat="67.58136" lon="18.3834">
        <time>2026-03-26T09:56:00Z</time>
      </trkpt>
      <trkpt lat="67.59598" lon="18.37819">
        <time>2026-03-26T10:26:00Z</time>
      </trkpt>
      <trkpt lat="67.6093" lon="18.36909">
        <time>2026-03-26T10:56:00Z</time>
      </trkpt>
      <trkpt lat="67.6217" lon="18.3624">
        <time>2026-03-26T11:26:00Z</time>
      </trkpt>
      <trkpt lat="67.62723" lon="18.34695">
        <time>2026-03-26T11:56:00Z</time>
      </trkpt>
      <trkpt lat="67.62724" lon="18.34699">
        <time>2026-03-26T12:26:00Z</time>
      </trkpt>
      <trkpt lat="67.63412" lon="18.33212">
        <time>2026-03-26T12:56:00Z</time>
      </trkpt>
      <trkpt lat="67.64294" lon="18.31">
        <time>2026-03-26T13:26:00Z</time>
      </trkpt>
      <trkpt lat="67.65413" lon="18.27554">
        <time>2026-03-26T13:56:00Z</time>
      </trkpt>
      <trkpt lat="67.66296" lon="18.23904">
        <time>2026-03-26T14:26:00Z</time>
      </trkpt>
      <trkpt lat="67.67419" lon="18.20132">
        <time>2026-03-26T14:56:00Z</time>
      </trkpt>
      <trkpt lat="67.68629" lon="18.1722">
        <time>2026-03-26T15:26:00Z</time>
      </trkpt>
      <trkpt lat="67.69467" lon="18.15658">
        <time>2026-03-26T15:56:00Z</time>
      </trkpt>
      <trkpt lat="67.69419" lon="18.15733">
        <time>2026-03-26T16:26:00Z</time>
      </trkpt>
      <trkpt lat="67.69417" lon="18.15703">
        <time>2026-03-26T17:28:00Z</time>
      </trkpt>
      <trkpt lat="67.69427" lon="18.15741">
        <time>2026-03-26T18:03:00Z</time>
      </trkpt>
      <trkpt lat="67.69411" lon="18.15716">
        <time>2026-03-27T07:15:00Z</time>
      </trkpt>
      <trkpt lat="67.69469" lon="18.15653">
        <time>2026-03-27T08:50:00Z</time>
      </trkpt>
      <trkpt lat="67.6961" lon="18.16059">
        <time>2026-03-27T09:20:00Z</time>
      </trkpt>
      <trkpt lat="67.69624" lon="18.16876">
        <time>2026-03-27T09:50:00Z</time>
      </trkpt>
      <trkpt lat="67.7007" lon="18.16994">
        <time>2026-03-27T10:20:00Z</time>
      </trkpt>
      <trkpt lat="67.70878" lon="18.19462">
        <time>2026-03-27T10:50:00Z</time>
      </trkpt>
      <trkpt lat="67.71395" lon="18.20865">
        <time>2026-03-27T11:20:00Z</time>
      </trkpt>
      <trkpt lat="67.72236" lon="18.22305">
        <time>2026-03-27T11:50:00Z</time>
      </trkpt>
      <trkpt lat="67.73461" lon="18.25732">
        <time>2026-03-27T12:20:00Z</time>
      </trkpt>
      <trkpt lat="67.74574" lon="18.30229">
        <time>2026-03-27T12:50:00Z</time>
      </trkpt>
      <trkpt lat="67.74731" lon="18.30296">
        <time>2026-03-27T13:20:00Z</time>
      </trkpt>
      <trkpt lat="67.74727" lon="18.30287">
        <time>2026-03-27T13:50:00Z</time>
      </trkpt>
      <trkpt lat="67.75623" lon="18.29092">
        <time>2026-03-27T14:20:00Z</time>
      </trkpt>
      <trkpt lat="67.77356" lon="18.2832">
        <time>2026-03-27T14:50:00Z</time>
      </trkpt>
      <trkpt lat="67.78944" lon="18.29502">
        <time>2026-03-27T15:20:00Z</time>
      </trkpt>
      <trkpt lat="67.80723" lon="18.29725">
        <time>2026-03-27T15:50:00Z</time>
      </trkpt>
      <trkpt lat="67.81668" lon="18.30073">
        <time>2026-03-27T16:20:00Z</time>
      </trkpt>
      <trkpt lat="67.83561" lon="18.31858">
        <time>2026-03-27T16:50:00Z</time>
      </trkpt>
      <trkpt lat="67.85092" lon="18.31644">
        <time>2026-03-27T17:20:00Z</time>
      </trkpt>
      <trkpt lat="67.85102" lon="18.31648">
        <time>2026-03-27T17:29:00Z</time>
      </trkpt>
      <trkpt lat="67.85122" lon="18.31547">
        <time>2026-03-28T06:37:00Z</time>
      </trkpt>
      <trkpt lat="67.85129" lon="18.31564">
        <time>2026-03-28T08:13:00Z</time>
      </trkpt>
      <trkpt lat="67.86585" lon="18.30667">
        <time>2026-03-28T08:43:00Z</time>
      </trkpt>
      <trkpt lat="67.88196" lon="18.31137">
        <time>2026-03-28T09:13:00Z</time>
      </trkpt>
      <trkpt lat="67.89172" lon="18.32285">
        <time>2026-03-28T09:43:00Z</time>
      </trkpt>
      <trkpt lat="67.90439" lon="18.31468">
        <time>2026-03-28T10:13:00Z</time>
      </trkpt>
      <trkpt lat="67.92123" lon="18.30302">
        <time>2026-03-28T10:43:00Z</time>
      </trkpt>
      <trkpt lat="67.93272" lon="18.29455">
        <time>2026-03-28T11:13:00Z</time>
      </trkpt>
      <trkpt lat="67.9462" lon="18.28266">
        <time>2026-03-28T11:43:00Z</time>
      </trkpt>
      <trkpt lat="67.9462" lon="18.28266">
        <time>2026-03-28T12:13:00Z</time>
      </trkpt>
      <trkpt lat="67.96306" lon="18.27363">
        <time>2026-03-28T13:13:00Z</time>
      </trkpt>
      <trkpt lat="67.97996" lon="18.26161">
        <time>2026-03-28T13:43:00Z</time>
      </trkpt>
      <trkpt lat="67.98625" lon="18.26127">
        <time>2026-03-28T14:13:00Z</time>
      </trkpt>
      <trkpt lat="68.0038" lon="18.24642">
        <time>2026-03-28T14:43:00Z</time>
      </trkpt>
      <trkpt lat="68.00837" lon="18.24284">
        <time>2026-03-28T15:13:00Z</time>
      </trkpt>
      <trkpt lat="68.01524" lon="18.24202">
        <time>2026-03-28T15:43:00Z</time>
      </trkpt>
      <trkpt lat="68.0196" lon="18.24723">
        <time>2026-03-28T16:13:00Z</time>
      </trkpt>
      <trkpt lat="68.04288" lon="18.24556">
        <time>2026-03-28T16:43:00Z</time>
      </trkpt>
      <trkpt lat="68.05162" lon="18.24163">
        <time>2026-03-28T16:55:00Z</time>
      </trkpt>
      <trkpt lat="68.05163" lon="18.24136">
        <time>2026-03-29T09:30:00Z</time>
      </trkpt>
      <trkpt lat="68.06887" lon="18.26487">
        <time>2026-03-29T10:00:00Z</time>
      </trkpt>
      <trkpt lat="68.08895" lon="18.28655">
        <time>2026-03-29T10:30:00Z</time>
      </trkpt>
      <trkpt lat="68.09768" lon="18.30629">
        <time>2026-03-29T11:00:00Z</time>
      </trkpt>
      <trkpt lat="68.11089" lon="18.3557">
        <time>2026-03-29T11:30:00Z</time>
      </trkpt>
      <trkpt lat="68.12313" lon="18.39431">
        <time>2026-03-29T12:00:00Z</time>
      </trkpt>
      <trkpt lat="68.13568" lon="18.41403">
        <time>2026-03-29T12:30:00Z</time>
      </trkpt>
      <trkpt lat="68.13635" lon="18.41482">
        <time>2026-03-29T12:36:00Z</time>
      </trkpt>
      <trkpt lat="68.13659" lon="18.41149">
        <time>2026-03-29T18:02:00Z</time>
      </trkpt>
      <trkpt lat="68.13654" lon="18.41117">
        <time>2026-03-30T08:39:00Z</time>
      </trkpt>
      <trkpt lat="68.15501" lon="18.44138">
        <time>2026-03-30T09:09:00Z</time>
      </trkpt>
      <trkpt lat="68.17447" lon="18.46951">
        <time>2026-03-30T09:39:00Z</time>
      </trkpt>
      <trkpt lat="68.18741" lon="18.49934">
        <time>2026-03-30T10:09:00Z</time>
      </trkpt>
      <trkpt lat="68.19979" lon="18.54678">
        <time>2026-03-30T10:39:00Z</time>
      </trkpt>
      <trkpt lat="68.20788" lon="18.58824">
        <time>2026-03-30T11:09:00Z</time>
      </trkpt>
      <trkpt lat="68.22471" lon="18.59957">
        <time>2026-03-30T11:39:00Z</time>
      </trkpt>
      <trkpt lat="68.24617" lon="18.60305">
        <time>2026-03-30T12:09:00Z</time>
      </trkpt>
      <trkpt lat="68.26607" lon="18.56889">
        <time>2026-03-30T12:39:00Z</time>
      </trkpt>
      <trkpt lat="68.26613" lon="18.5691">
        <time>2026-03-30T13:09:00Z</time>
      </trkpt>
      <trkpt lat="68.27652" lon="18.57165">
        <time>2026-03-30T13:39:00Z</time>
      </trkpt>
      <trkpt lat="68.28731" lon="18.60238">
        <time>2026-03-30T14:09:00Z</time>
      </trkpt>
      <trkpt lat="68.30294" lon="18.6521">
        <time>2026-03-30T14:39:00Z</time>
      </trkpt>
      <trkpt lat="68.31185" lon="18.69257">
        <time>2026-03-30T15:09:00Z</time>
      </trkpt>
      <trkpt lat="68.31961" lon="18.74402">
        <time>2026-03-30T15:39:00Z</time>
      </trkpt>
      <trkpt lat="68.3348" lon="18.75842">
        <time>2026-03-30T16:09:00Z</time>
      </trkpt>
      <trkpt lat="68.35398" lon="18.76649">
        <time>2026-03-30T16:39:00Z</time>
      </trkpt>
      <trkpt lat="68.35861" lon="18.78205">
        <time>2026-03-30T17:05:00Z</time>
      </trkpt>
      <trkpt lat="68.3585" lon="18.78438">
        <time>2026-03-31T10:47:00Z</time>
      </trkpt>
      <trkpt lat="68.35855" lon="18.78479">
        <time>2026-03-31T10:53:00Z</time>
      </trkpt>
      <trkpt lat="68.35612" lon="18.82172">
        <time>2026-03-31T11:23:00Z</time>
      </trkpt>
      <trkpt lat="68.35031" lon="18.83191">
        <time>2026-03-31T11:55:00Z</time>
      </trkpt>
      <trkpt lat="68.35037" lon="18.83153">
        <time>2026-03-31T12:25:00Z</time>
      </trkpt>
      <trkpt lat="68.35827" lon="18.85026">
        <time>2026-03-31T12:55:00Z</time>
      </trkpt>
      <trkpt lat="68.36754" lon="18.91787">
        <time>2026-03-31T13:25:00Z</time>
      </trkpt>
      <trkpt lat="68.36694" lon="18.95877">
        <time>2026-03-31T13:55:00Z</time>
      </trkpt>
      <trkpt lat="68.36835" lon="18.98679">
        <time>2026-03-31T14:25:00Z</time>
      </trkpt>
      <trkpt lat="68.37024" lon="19.05994">
        <time>2026-03-31T14:55:00Z</time>
      </trkpt>
      <trkpt lat="68.36732" lon="19.09889">
        <time>2026-03-31T15:25:00Z</time>
      </trkpt>
      <trkpt lat="68.35766" lon="19.16161">
        <time>2026-03-31T15:55:00Z</time>
      </trkpt>
      <trkpt lat="68.35017" lon="19.20929">
        <time>2026-03-31T16:25:00Z</time>
      </trkpt>
      <trkpt lat="68.34246" lon="19.25826">
        <time>2026-03-31T16:55:00Z</time>
      </trkpt>
      <trkpt lat="68.3383" lon="19.28536">
        <time>2026-03-31T17:25:00Z</time>
      </trkpt>
      <trkpt lat="68.33324" lon="19.32325">
        <time>2026-03-31T17:55:00Z</time>
      </trkpt>
      <trkpt lat="68.33913" lon="19.36496">
        <time>2026-03-31T18:25:00Z</time>
      </trkpt>
      <trkpt lat="68.34423" lon="19.37207">
        <time>2026-03-31T18:44:00Z</time>
      </trkpt>
      <trkpt lat="68.3438" lon="19.37125">
        <time>2026-04-01T08:06:00Z</time>
      </trkpt>
      <trkpt lat="68.33613" lon="19.39451">
        <time>2026-04-01T08:36:00Z</time>
      </trkpt>
      <trkpt lat="68.32435" lon="19.44524">
        <time>2026-04-01T09:06:00Z</time>
      </trkpt>
      <trkpt lat="68.31541" lon="19.48418">
        <time>2026-04-01T09:36:00Z</time>
      </trkpt>
      <trkpt lat="68.30393" lon="19.53997">
        <time>2026-04-01T10:06:00Z</time>
      </trkpt>
      <trkpt lat="68.30146" lon="19.58106">
        <time>2026-04-01T10:36:00Z</time>
      </trkpt>
      <trkpt lat="68.30271" lon="19.64793">
        <time>2026-04-01T11:06:00Z</time>
      </trkpt>
      <trkpt lat="68.30392" lon="19.69104">
        <time>2026-04-01T11:36:00Z</time>
      </trkpt>
      <trkpt lat="68.30758" lon="19.768">
        <time>2026-04-01T12:06:00Z</time>
      </trkpt>
      <trkpt lat="68.31556" lon="19.80596">
        <time>2026-04-01T12:36:00Z</time>
      </trkpt>
      <trkpt lat="68.31559" lon="19.80594">
        <time>2026-04-01T13:06:00Z</time>
      </trkpt>
      <trkpt lat="68.32009" lon="19.81736">
        <time>2026-04-01T14:06:00Z</time>
      </trkpt>
      <trkpt lat="68.31013" lon="19.8683">
        <time>2026-04-01T14:36:00Z</time>
      </trkpt>
      <trkpt lat="68.29468" lon="19.89038">
        <time>2026-04-01T15:06:00Z</time>
      </trkpt>
      <trkpt lat="68.30107" lon="19.91752">
        <time>2026-04-01T15:36:00Z</time>
      </trkpt>
      <trkpt lat="68.31942" lon="19.94226">
        <time>2026-04-01T16:06:00Z</time>
      </trkpt>
      <trkpt lat="68.32122" lon="19.94677">
        <time>2026-04-01T16:18:00Z</time>
      </trkpt>
      <trkpt lat="68.32123" lon="19.94634">
        <time>2026-04-02T08:18:00Z</time>
      </trkpt>
      <trkpt lat="68.32123" lon="19.94655">
        <time>2026-04-02T08:19:00Z</time>
      </trkpt>
      <trkpt lat="68.33145" lon="19.95546">
        <time>2026-04-02T08:49:00Z</time>
      </trkpt>
      <trkpt lat="68.34287" lon="19.96548">
        <time>2026-04-02T09:19:00Z</time>
      </trkpt>
      <trkpt lat="68.35192" lon="19.98297">
        <time>2026-04-02T09:49:00Z</time>
      </trkpt>
      <trkpt lat="68.36225" lon="20.02505">
        <time>2026-04-02T10:19:00Z</time>
      </trkpt>
      <trkpt lat="68.36798" lon="20.0488">
        <time>2026-04-02T10:49:00Z</time>
      </trkpt>
      <trkpt lat="68.37713" lon="20.07717">
        <time>2026-04-02T11:19:00Z</time>
      </trkpt>
      <trkpt lat="68.39384" lon="20.06217">
        <time>2026-04-02T11:49:00Z</time>
      </trkpt>
      <trkpt lat="68.39496" lon="20.06084">
        <time>2026-04-02T12:19:00Z</time>
      </trkpt>
      <trkpt lat="68.39499" lon="20.06077">
        <time>2026-04-02T12:49:00Z</time>
      </trkpt>
      <trkpt lat="68.41044" lon="20.07963">
        <time>2026-04-02T13:19:00Z</time>
      </trkpt>
      <trkpt lat="68.41972" lon="20.10577">
        <time>2026-04-02T13:49:00Z</time>
      </trkpt>
      <trkpt lat="68.42257" lon="20.15057">
        <time>2026-04-02T14:19:00Z</time>
      </trkpt>
      <trkpt lat="68.44443" lon="20.1934">
        <time>2026-04-02T14:49:00Z</time>
      </trkpt>
      <trkpt lat="68.4595" lon="20.21123">
        <time>2026-04-02T15:19:00Z</time>
      </trkpt>
      <trkpt lat="68.47544" lon="20.2299">
        <time>2026-04-02T15:49:00Z</time>
      </trkpt>
      <trkpt lat="68.47546" lon="20.22979">
        <time>2026-04-02T16:19:00Z</time>
      </trkpt>
      <trkpt lat="68.47987" lon="20.23512">
        <time>2026-04-02T16:49:00Z</time>
      </trkpt>
      <trkpt lat="68.49269" lon="20.27466">
        <time>2026-04-02T17:19:00Z</time>
      </trkpt>
      <trkpt lat="68.50432" lon="20.28876">
        <time>2026-04-02T17:39:00Z</time>
      </trkpt>
      <trkpt lat="68.50474" lon="20.28964">
        <time>2026-04-03T08:15:00Z</time>
      </trkpt>
      <trkpt lat="68.51508" lon="20.29421">
        <time>2026-04-03T08:45:00Z</time>
      </trkpt>
      <trkpt lat="68.53186" lon="20.29305">
        <time>2026-04-03T09:15:00Z</time>
      </trkpt>
      <trkpt lat="68.54257" lon="20.29453">
        <time>2026-04-03T09:45:00Z</time>
      </trkpt>
      <trkpt lat="68.55962" lon="20.33009">
        <time>2026-04-03T10:15:00Z</time>
      </trkpt>
      <trkpt lat="68.56447" lon="20.34125">
        <time>2026-04-03T10:45:00Z</time>
      </trkpt>
      <trkpt lat="68.57899" lon="20.37865">
        <time>2026-04-03T11:15:00Z</time>
      </trkpt>
      <trkpt lat="68.5886" lon="20.40283">
        <time>2026-04-03T11:45:00Z</time>
      </trkpt>
      <trkpt lat="68.60112" lon="20.41766">
        <time>2026-04-03T12:15:00Z</time>
      </trkpt>
      <trkpt lat="68.61341" lon="20.41882">
        <time>2026-04-03T12:45:00Z</time>
      </trkpt>
      <trkpt lat="68.61464" lon="20.41982">
        <time>2026-04-03T13:15:00Z</time>
      </trkpt>
      <trkpt lat="68.62285" lon="20.42394">
        <time>2026-04-03T13:45:00Z</time>
      </trkpt>
      <trkpt lat="68.63808" lon="20.43401">
        <time>2026-04-03T14:15:00Z</time>
      </trkpt>
      <trkpt lat="68.65661" lon="20.4516">
        <time>2026-04-03T14:45:00Z</time>
      </trkpt>
      <trkpt lat="68.66785" lon="20.46439">
        <time>2026-04-03T15:15:00Z</time>
      </trkpt>
      <trkpt lat="68.69069" lon="20.49443">
        <time>2026-04-03T15:45:00Z</time>
      </trkpt>
      <trkpt lat="68.70427" lon="20.51458">
        <time>2026-04-03T16:15:00Z</time>
      </trkpt>
      <trkpt lat="68.72471" lon="20.53715">
        <time>2026-04-03T16:45:00Z</time>
      </trkpt>
      <trkpt lat="68.73823" lon="20.55666">
        <time>2026-04-03T17:15:00Z</time>
      </trkpt>
      <trkpt lat="68.73821" lon="20.55835">
        <time>2026-04-03T21:15:00Z</time>
      </trkpt>
      <trkpt lat="68.73822" lon="20.55827">
        <time>2026-04-04T09:17:00Z</time>
      </trkpt>
      <trkpt lat="68.7472" lon="20.58138">
        <time>2026-04-04T09:47:00Z</time>
      </trkpt>
      <trkpt lat="68.75669" lon="20.61571">
        <time>2026-04-04T10:17:00Z</time>
      </trkpt>
      <trkpt lat="68.76745" lon="20.64805">
        <time>2026-04-04T10:47:00Z</time>
      </trkpt>
      <trkpt lat="68.77869" lon="20.66133">
        <time>2026-04-04T11:17:00Z</time>
      </trkpt>
      <trkpt lat="68.79161" lon="20.65863">
        <time>2026-04-04T11:47:00Z</time>
      </trkpt>
      <trkpt lat="68.80794" lon="20.66268">
        <time>2026-04-04T12:17:00Z</time>
      </trkpt>
      <trkpt lat="68.81695" lon="20.65579">
        <time>2026-04-04T12:47:00Z</time>
      </trkpt>
      <trkpt lat="68.81696" lon="20.65582">
        <time>2026-04-04T13:17:00Z</time>
      </trkpt>
      <trkpt lat="68.84317" lon="20.64502">
        <time>2026-04-04T14:17:00Z</time>
      </trkpt>
      <trkpt lat="68.85881" lon="20.61925">
        <time>2026-04-04T14:47:00Z</time>
      </trkpt>
      <trkpt lat="68.86699" lon="20.59382">
        <time>2026-04-04T15:17:00Z</time>
      </trkpt>
      <trkpt lat="68.87494" lon="20.54132">
        <time>2026-04-04T15:47:00Z</time>
      </trkpt>
      <trkpt lat="68.87526" lon="20.53724">
        <time>2026-04-04T15:51:00Z</time>
      </trkpt>
      <trkpt lat="68.87527" lon="20.53733">
        <time>2026-04-04T19:51:00Z</time>
      </trkpt>
      <trkpt lat="68.87537" lon="20.53726">
        <time>2026-04-05T06:51:00Z</time>
      </trkpt>
      <trkpt lat="68.87521" lon="20.53718">
        <time>2026-04-05T08:13:00Z</time>
      </trkpt>
      <trkpt lat="68.88267" lon="20.48261">
        <time>2026-04-05T08:43:00Z</time>
      </trkpt>
      <trkpt lat="68.89556" lon="20.4554">
        <time>2026-04-05T09:13:00Z</time>
      </trkpt>
      <trkpt lat="68.91218" lon="20.41122">
        <time>2026-04-05T09:43:00Z</time>
      </trkpt>
      <trkpt lat="68.93148" lon="20.37856">
        <time>2026-04-05T10:13:00Z</time>
      </trkpt>
      <trkpt lat="68.94095" lon="20.3723">
        <time>2026-04-05T10:43:00Z</time>
      </trkpt>
      <trkpt lat="68.95101" lon="20.35792">
        <time>2026-04-05T11:13:00Z</time>
      </trkpt>
      <trkpt lat="68.97466" lon="20.36835">
        <time>2026-04-05T11:43:00Z</time>
      </trkpt>
      <trkpt lat="68.97329" lon="20.36841">
        <time>2026-04-06T08:07:00Z</time>
      </trkpt>
      <trkpt lat="68.98007" lon="20.38156">
        <time>2026-04-06T08:37:00Z</time>
      </trkpt>
      <trkpt lat="68.98217" lon="20.41427">
        <time>2026-04-06T09:07:00Z</time>
      </trkpt>
      <trkpt lat="68.98689" lon="20.4395">
        <time>2026-04-06T09:37:00Z</time>
      </trkpt>
      <trkpt lat="68.99509" lon="20.46259">
        <time>2026-04-06T10:07:00Z</time>
      </trkpt>
      <trkpt lat="69.00519" lon="20.48126">
        <time>2026-04-06T10:37:00Z</time>
      </trkpt>
      <trkpt lat="69.01893" lon="20.50132">
        <time>2026-04-06T11:07:00Z</time>
      </trkpt>
      <trkpt lat="69.04334" lon="20.5143">
        <time>2026-04-06T11:37:00Z</time>
      </trkpt>
      <trkpt lat="69.05986" lon="20.54859">
        <time>2026-04-06T12:04:00Z</time>
      </trkpt>
      <trkpt lat="69.05983" lon="20.54857">
        <time>2026-04-06T12:51:00Z</time>
      </trkpt>
    </trkseg>
  </trk>
</gpx>
