<?xml version="1.0" encoding="UTF-8"?>
<gpx xmlns="http://www.topografix.com/GPX/1/1" version="1.1" creator="VitaBandet">
  <metadata>
    <name>Christian och Benni</name>
  </metadata>
  <trk>
    <name>Christian och Benni</name>
    <trkseg>
      <trkpt lat="62.09886" lon="12.31279">
        <time>2026-03-02T15:09:00Z</time>
      </trkpt>
      <trkpt lat="62.09788" lon="12.31773">
        <time>2026-03-02T15:19:00Z</time>
      </trkpt>
      <trkpt lat="62.10023" lon="12.32807">
        <time>2026-03-02T15:29:00Z</time>
      </trkpt>
      <trkpt lat="62.10409" lon="12.33204">
        <time>2026-03-02T15:39:00Z</time>
      </trkpt>
      <trkpt lat="62.10976" lon="12.33666">
        <time>2026-03-02T15:49:00Z</time>
      </trkpt>
      <trkpt lat="62.11711" lon="12.34732">
        <time>2026-03-02T15:59:00Z</time>
      </trkpt>
      <trkpt lat="62.12651" lon="12.35642">
        <time>2026-03-02T16:09:00Z</time>
      </trkpt>
      <trkpt lat="62.13407" lon="12.36116">
        <time>2026-03-02T16:19:00Z</time>
      </trkpt>
      <trkpt lat="62.14472" lon="12.36663">
        <time>2026-03-02T16:29:00Z</time>
      </trkpt>
      <trkpt lat="62.15594" lon="12.37451">
        <time>2026-03-02T16:39:00Z</time>
      </trkpt>
      <trkpt lat="62.16956" lon="12.37933">
        <time>2026-03-02T16:49:00Z</time>
      </trkpt>
      <trkpt lat="62.17975" lon="12.38785">
        <time>2026-03-02T16:59:00Z</time>
      </trkpt>
      <trkpt lat="62.18567" lon="12.39129">
        <time>2026-03-02T17:09:00Z</time>
      </trkpt>
      <trkpt lat="62.18564" lon="12.39062">
        <time>2026-03-02T17:11:00Z</time>
      </trkpt>
      <trkpt lat="62.186" lon="12.39045">
        <time>2026-03-03T08:12:00Z</time>
      </trkpt>
      <trkpt lat="62.19292" lon="12.38757">
        <time>2026-03-03T08:22:00Z</time>
      </trkpt>
      <trkpt lat="62.20246" lon="12.38075">
        <time>2026-03-03T08:32:00Z</time>
      </trkpt>
      <trkpt lat="62.20954" lon="12.37148">
        <time>2026-03-03T08:42:00Z</time>
      </trkpt>
      <trkpt lat="62.21828" lon="12.35296">
        <time>2026-03-03T08:52:00Z</time>
      </trkpt>
      <trkpt lat="62.22683" lon="12.35198">
        <time>2026-03-03T09:02:00Z</time>
      </trkpt>
      <trkpt lat="62.23349" lon="12.35241">
        <time>2026-03-03T09:12:00Z</time>
      </trkpt>
      <trkpt lat="62.24275" lon="12.34779">
        <time>2026-03-03T09:22:00Z</time>
      </trkpt>
      <trkpt lat="62.25593" lon="12.35058">
        <time>2026-03-03T09:32:00Z</time>
      </trkpt>
      <trkpt lat="62.25933" lon="12.36783">
        <time>2026-03-03T09:42:00Z</time>
      </trkpt>
      <trkpt lat="62.26116" lon="12.37779">
        <time>2026-03-03T09:52:00Z</time>
      </trkpt>
      <trkpt lat="62.26677" lon="12.38491">
        <time>2026-03-03T10:02:00Z</time>
      </trkpt>
      <trkpt lat="62.27732" lon="12.39332">
        <time>2026-03-03T10:12:00Z</time>
      </trkpt>
      <trkpt lat="62.28366" lon="12.40034">
        <time>2026-03-03T10:22:00Z</time>
      </trkpt>
      <trkpt lat="62.29023" lon="12.40671">
        <time>2026-03-03T10:32:00Z</time>
      </trkpt>
      <trkpt lat="62.29238" lon="12.41362">
        <time>2026-03-03T10:42:00Z</time>
      </trkpt>
      <trkpt lat="62.29732" lon="12.43161">
        <time>2026-03-03T10:52:00Z</time>
      </trkpt>
      <trkpt lat="62.31075" lon="12.4407">
        <time>2026-03-03T11:02:00Z</time>
      </trkpt>
      <trkpt lat="62.31796" lon="12.44444">
        <time>2026-03-03T11:12:00Z</time>
      </trkpt>
      <trkpt lat="62.32365" lon="12.42639">
        <time>2026-03-03T11:22:00Z</time>
      </trkpt>
      <trkpt lat="62.32922" lon="12.40875">
        <time>2026-03-03T11:32:00Z</time>
      </trkpt>
      <trkpt lat="62.33466" lon="12.39148">
        <time>2026-03-03T11:42:00Z</time>
      </trkpt>
      <trkpt lat="62.34125" lon="12.3753">
        <time>2026-03-03T11:52:00Z</time>
      </trkpt>
      <trkpt lat="62.34399" lon="12.36919">
        <time>2026-03-03T12:02:00Z</time>
      </trkpt>
      <trkpt lat="62.35117" lon="12.35346">
        <time>2026-03-03T12:12:00Z</time>
      </trkpt>
      <trkpt lat="62.35518" lon="12.34569">
        <time>2026-03-03T12:22:00Z</time>
      </trkpt>
      <trkpt lat="62.35697" lon="12.34161">
        <time>2026-03-03T12:32:00Z</time>
      </trkpt>
      <trkpt lat="62.36551" lon="12.3406">
        <time>2026-03-03T12:42:00Z</time>
      </trkpt>
      <trkpt lat="62.37277" lon="12.33213">
        <time>2026-03-03T12:52:00Z</time>
      </trkpt>
      <trkpt lat="62.37758" lon="12.31792">
        <time>2026-03-03T13:02:00Z</time>
      </trkpt>
      <trkpt lat="62.38309" lon="12.30219">
        <time>2026-03-03T13:12:00Z</time>
      </trkpt>
      <trkpt lat="62.38764" lon="12.2884">
        <time>2026-03-03T13:22:00Z</time>
      </trkpt>
      <trkpt lat="62.39484" lon="12.28121">
        <time>2026-03-03T13:32:00Z</time>
      </trkpt>
      <trkpt lat="62.39481" lon="12.28112">
        <time>2026-03-03T13:42:00Z</time>
      </trkpt>
      <trkpt lat="62.39817" lon="12.27962">
        <time>2026-03-03T13:52:00Z</time>
      </trkpt>
      <trkpt lat="62.40609" lon="12.27393">
        <time>2026-03-03T14:02:00Z</time>
      </trkpt>
      <trkpt lat="62.4154" lon="12.27883">
        <time>2026-03-03T14:12:00Z</time>
      </trkpt>
      <trkpt lat="62.42264" lon="12.28932">
        <time>2026-03-03T14:22:00Z</time>
      </trkpt>
      <trkpt lat="62.42941" lon="12.29629">
        <time>2026-03-03T14:32:00Z</time>
      </trkpt>
      <trkpt lat="62.43847" lon="12.29151">
        <time>2026-03-03T14:42:00Z</time>
      </trkpt>
      <trkpt lat="62.4448" lon="12.29041">
        <time>2026-03-03T14:52:00Z</time>
      </trkpt>
      <trkpt lat="62.45038" lon="12.28153">
        <time>2026-03-03T15:02:00Z</time>
      </trkpt>
      <trkpt lat="62.45448" lon="12.28026">
        <time>2026-03-03T15:12:00Z</time>
      </trkpt>
      <trkpt lat="62.46066" lon="12.28327">
        <time>2026-03-03T15:22:00Z</time>
      </trkpt>
      <trkpt lat="62.46551" lon="12.28449">
        <time>2026-03-03T15:32:00Z</time>
      </trkpt>
      <trkpt lat="62.46752" lon="12.28421">
        <time>2026-03-03T15:42:00Z</time>
      </trkpt>
      <trkpt lat="62.46754" lon="12.28434">
        <time>2026-03-05T08:15:00Z</time>
      </trkpt>
      <trkpt lat="62.46956" lon="12.28578">
        <time>2026-03-05T08:25:00Z</time>
      </trkpt>
      <trkpt lat="62.47122" lon="12.28762">
        <time>2026-03-05T08:35:00Z</time>
      </trkpt>
      <trkpt lat="62.47276" lon="12.28904">
        <time>2026-03-05T08:45:00Z</time>
      </trkpt>
      <trkpt lat="62.47672" lon="12.28089">
        <time>2026-03-05T08:55:00Z</time>
      </trkpt>
      <trkpt lat="62.47979" lon="12.27361">
        <time>2026-03-05T09:05:00Z</time>
      </trkpt>
      <trkpt lat="62.48606" lon="12.27106">
        <time>2026-03-05T09:15:00Z</time>
      </trkpt>
      <trkpt lat="62.49299" lon="12.26954">
        <time>2026-03-05T09:25:00Z</time>
      </trkpt>
      <trkpt lat="62.49898" lon="12.27072">
        <time>2026-03-05T09:35:00Z</time>
      </trkpt>
      <trkpt lat="62.50878" lon="12.27426">
        <time>2026-03-05T09:45:00Z</time>
      </trkpt>
      <trkpt lat="62.51831" lon="12.28578">
        <time>2026-03-05T09:55:00Z</time>
      </trkpt>
      <trkpt lat="62.52631" lon="12.29387">
        <time>2026-03-05T10:05:00Z</time>
      </trkpt>
      <trkpt lat="62.52985" lon="12.30762">
        <time>2026-03-05T10:15:00Z</time>
      </trkpt>
      <trkpt lat="62.53437" lon="12.31099">
        <time>2026-03-05T10:25:00Z</time>
      </trkpt>
      <trkpt lat="62.53836" lon="12.31633">
        <time>2026-03-05T10:35:00Z</time>
      </trkpt>
      <trkpt lat="62.54377" lon="12.33189">
        <time>2026-03-05T10:45:00Z</time>
      </trkpt>
      <trkpt lat="62.54643" lon="12.33073">
        <time>2026-03-05T10:55:00Z</time>
      </trkpt>
      <trkpt lat="62.54911" lon="12.33354">
        <time>2026-03-05T11:05:00Z</time>
      </trkpt>
      <trkpt lat="62.55148" lon="12.33494">
        <time>2026-03-05T11:15:00Z</time>
      </trkpt>
      <trkpt lat="62.5544" lon="12.33646">
        <time>2026-03-05T11:25:00Z</time>
      </trkpt>
      <trkpt lat="62.55828" lon="12.3388">
        <time>2026-03-05T11:35:00Z</time>
      </trkpt>
      <trkpt lat="62.56401" lon="12.33623">
        <time>2026-03-05T11:45:00Z</time>
      </trkpt>
      <trkpt lat="62.57179" lon="12.32947">
        <time>2026-03-05T11:55:00Z</time>
      </trkpt>
      <trkpt lat="62.57591" lon="12.32857">
        <time>2026-03-05T12:05:00Z</time>
      </trkpt>
      <trkpt lat="62.58668" lon="12.32994">
        <time>2026-03-05T12:15:00Z</time>
      </trkpt>
      <trkpt lat="62.59388" lon="12.33">
        <time>2026-03-05T12:25:00Z</time>
      </trkpt>
      <trkpt lat="62.60131" lon="12.32972">
        <time>2026-03-05T12:35:00Z</time>
      </trkpt>
      <trkpt lat="62.61011" lon="12.32818">
        <time>2026-03-05T12:45:00Z</time>
      </trkpt>
      <trkpt lat="62.61997" lon="12.32902">
        <time>2026-03-05T12:55:00Z</time>
      </trkpt>
      <trkpt lat="62.62457" lon="12.3305">
        <time>2026-03-05T13:05:00Z</time>
      </trkpt>
      <trkpt lat="62.63071" lon="12.33442">
        <time>2026-03-05T13:15:00Z</time>
      </trkpt>
      <trkpt lat="62.63705" lon="12.33412">
        <time>2026-03-05T13:25:00Z</time>
      </trkpt>
      <trkpt lat="62.6463" lon="12.33651">
        <time>2026-03-05T13:35:00Z</time>
      </trkpt>
      <trkpt lat="62.65332" lon="12.34226">
        <time>2026-03-05T13:45:00Z</time>
      </trkpt>
      <trkpt lat="62.6586" lon="12.34642">
        <time>2026-03-05T13:55:00Z</time>
      </trkpt>
      <trkpt lat="62.66675" lon="12.34964">
        <time>2026-03-05T14:05:00Z</time>
      </trkpt>
      <trkpt lat="62.67727" lon="12.34369">
        <time>2026-03-05T14:15:00Z</time>
      </trkpt>
      <trkpt lat="62.68489" lon="12.33105">
        <time>2026-03-05T14:25:00Z</time>
      </trkpt>
      <trkpt lat="62.6848" lon="12.3305">
        <time>2026-03-05T14:35:00Z</time>
      </trkpt>
      <trkpt lat="62.68748" lon="12.32846">
        <time>2026-03-05T15:05:00Z</time>
      </trkpt>
      <trkpt lat="62.69445" lon="12.31829">
        <time>2026-03-05T15:15:00Z</time>
      </trkpt>
      <trkpt lat="62.69893" lon="12.31144">
        <time>2026-03-05T15:25:00Z</time>
      </trkpt>
      <trkpt lat="62.70465" lon="12.30897">
        <time>2026-03-05T15:35:00Z</time>
      </trkpt>
      <trkpt lat="62.70815" lon="12.30089">
        <time>2026-03-05T15:45:00Z</time>
      </trkpt>
      <trkpt lat="62.70929" lon="12.29423">
        <time>2026-03-05T15:55:00Z</time>
      </trkpt>
      <trkpt lat="62.71517" lon="12.29971">
        <time>2026-03-05T16:05:00Z</time>
      </trkpt>
      <trkpt lat="62.71946" lon="12.30222">
        <time>2026-03-05T16:15:00Z</time>
      </trkpt>
      <trkpt lat="62.72193" lon="12.30202">
        <time>2026-03-05T16:21:00Z</time>
      </trkpt>
      <trkpt lat="62.72189" lon="12.30196">
        <time>2026-03-06T09:25:00Z</time>
      </trkpt>
      <trkpt lat="62.72512" lon="12.30116">
        <time>2026-03-06T09:35:00Z</time>
      </trkpt>
      <trkpt lat="62.727" lon="12.30383">
        <time>2026-03-06T09:45:00Z</time>
      </trkpt>
      <trkpt lat="62.72858" lon="12.30913">
        <time>2026-03-06T09:55:00Z</time>
      </trkpt>
      <trkpt lat="62.73155" lon="12.31277">
        <time>2026-03-06T10:05:00Z</time>
      </trkpt>
      <trkpt lat="62.7353" lon="12.315">
        <time>2026-03-06T10:15:00Z</time>
      </trkpt>
      <trkpt lat="62.73854" lon="12.32118">
        <time>2026-03-06T10:25:00Z</time>
      </trkpt>
      <trkpt lat="62.74102" lon="12.3235">
        <time>2026-03-06T10:35:00Z</time>
      </trkpt>
      <trkpt lat="62.74512" lon="12.32685">
        <time>2026-03-06T10:45:00Z</time>
      </trkpt>
      <trkpt lat="62.74653" lon="12.32807">
        <time>2026-03-06T10:55:00Z</time>
      </trkpt>
      <trkpt lat="62.75226" lon="12.33382">
        <time>2026-03-06T11:05:00Z</time>
      </trkpt>
      <trkpt lat="62.75845" lon="12.34047">
        <time>2026-03-06T11:15:00Z</time>
      </trkpt>
      <trkpt lat="62.76556" lon="12.35009">
        <time>2026-03-06T11:25:00Z</time>
      </trkpt>
      <trkpt lat="62.77118" lon="12.35837">
        <time>2026-03-06T11:35:00Z</time>
      </trkpt>
      <trkpt lat="62.7803" lon="12.36957">
        <time>2026-03-06T11:45:00Z</time>
      </trkpt>
      <trkpt lat="62.79099" lon="12.38936">
        <time>2026-03-06T11:55:00Z</time>
      </trkpt>
      <trkpt lat="62.7941" lon="12.3968">
        <time>2026-03-06T12:05:00Z</time>
      </trkpt>
      <trkpt lat="62.79763" lon="12.40487">
        <time>2026-03-06T12:15:00Z</time>
      </trkpt>
      <trkpt lat="62.79901" lon="12.40809">
        <time>2026-03-06T12:25:00Z</time>
      </trkpt>
      <trkpt lat="62.80435" lon="12.4183">
        <time>2026-03-06T12:35:00Z</time>
      </trkpt>
      <trkpt lat="62.80983" lon="12.42798">
        <time>2026-03-06T12:45:00Z</time>
      </trkpt>
      <trkpt lat="62.81679" lon="12.44006">
        <time>2026-03-06T12:55:00Z</time>
      </trkpt>
      <trkpt lat="62.82423" lon="12.45115">
        <time>2026-03-06T13:05:00Z</time>
      </trkpt>
      <trkpt lat="62.83129" lon="12.45926">
        <time>2026-03-06T13:15:00Z</time>
      </trkpt>
      <trkpt lat="62.84076" lon="12.47042">
        <time>2026-03-06T13:25:00Z</time>
      </trkpt>
      <trkpt lat="62.85096" lon="12.47997">
        <time>2026-03-06T13:35:00Z</time>
      </trkpt>
      <trkpt lat="62.85373" lon="12.48222">
        <time>2026-03-06T13:45:00Z</time>
      </trkpt>
      <trkpt lat="62.85918" lon="12.48677">
        <time>2026-03-06T13:55:00Z</time>
      </trkpt>
      <trkpt lat="62.86215" lon="12.48918">
        <time>2026-03-06T14:05:00Z</time>
      </trkpt>
      <trkpt lat="62.86892" lon="12.49548">
        <time>2026-03-06T14:15:00Z</time>
      </trkpt>
      <trkpt lat="62.87597" lon="12.50263">
        <time>2026-03-06T14:25:00Z</time>
      </trkpt>
      <trkpt lat="62.88217" lon="12.50598">
        <time>2026-03-06T14:35:00Z</time>
      </trkpt>
      <trkpt lat="62.88427" lon="12.50692">
        <time>2026-03-06T14:45:00Z</time>
      </trkpt>
      <trkpt lat="62.88427" lon="12.50707">
        <time>2026-03-06T14:55:00Z</time>
      </trkpt>
      <trkpt lat="62.88771" lon="12.5086">
        <time>2026-03-06T15:05:00Z</time>
      </trkpt>
      <trkpt lat="62.89156" lon="12.51055">
        <time>2026-03-06T15:15:00Z</time>
      </trkpt>
      <trkpt lat="62.8964" lon="12.51392">
        <time>2026-03-06T15:25:00Z</time>
      </trkpt>
      <trkpt lat="62.90558" lon="12.5225">
        <time>2026-03-06T15:35:00Z</time>
      </trkpt>
      <trkpt lat="62.91102" lon="12.54552">
        <time>2026-03-06T15:45:00Z</time>
      </trkpt>
      <trkpt lat="62.91048" lon="12.56677">
        <time>2026-03-06T15:55:00Z</time>
      </trkpt>
      <trkpt lat="62.91374" lon="12.58872">
        <time>2026-03-06T16:05:00Z</time>
      </trkpt>
      <trkpt lat="62.91736" lon="12.60646">
        <time>2026-03-06T16:15:00Z</time>
      </trkpt>
      <trkpt lat="62.92125" lon="12.61663">
        <time>2026-03-06T16:25:00Z</time>
      </trkpt>
      <trkpt lat="62.92585" lon="12.62865">
        <time>2026-03-06T16:35:00Z</time>
      </trkpt>
      <trkpt lat="62.93193" lon="12.63595">
        <time>2026-03-06T16:45:00Z</time>
      </trkpt>
      <trkpt lat="62.93864" lon="12.6414">
        <time>2026-03-06T16:55:00Z</time>
      </trkpt>
      <trkpt lat="62.94536" lon="12.64155">
        <time>2026-03-06T17:05:00Z</time>
      </trkpt>
      <trkpt lat="62.95245" lon="12.63953">
        <time>2026-03-06T17:15:00Z</time>
      </trkpt>
      <trkpt lat="62.95956" lon="12.64719">
        <time>2026-03-06T17:25:00Z</time>
      </trkpt>
      <trkpt lat="62.96661" lon="12.65238">
        <time>2026-03-06T17:35:00Z</time>
      </trkpt>
      <trkpt lat="62.97268" lon="12.65588">
        <time>2026-03-06T17:45:00Z</time>
      </trkpt>
      <trkpt lat="62.97576" lon="12.65691">
        <time>2026-03-06T17:53:00Z</time>
      </trkpt>
      <trkpt lat="62.97569" lon="12.65683">
        <time>2026-03-07T08:01:00Z</time>
      </trkpt>
      <trkpt lat="62.98001" lon="12.66723">
        <time>2026-03-07T08:11:00Z</time>
      </trkpt>
      <trkpt lat="62.98396" lon="12.67719">
        <time>2026-03-07T08:21:00Z</time>
      </trkpt>
      <trkpt lat="62.98772" lon="12.68661">
        <time>2026-03-07T08:31:00Z</time>
      </trkpt>
      <trkpt lat="62.9895" lon="12.69184">
        <time>2026-03-07T08:41:00Z</time>
      </trkpt>
      <trkpt lat="62.99141" lon="12.69961">
        <time>2026-03-07T08:51:00Z</time>
      </trkpt>
      <trkpt lat="62.99351" lon="12.71249">
        <time>2026-03-07T09:01:00Z</time>
      </trkpt>
      <trkpt lat="62.9968" lon="12.73128">
        <time>2026-03-07T09:11:00Z</time>
      </trkpt>
      <trkpt lat="63.00332" lon="12.74369">
        <time>2026-03-07T09:21:00Z</time>
      </trkpt>
      <trkpt lat="63.00962" lon="12.75075">
        <time>2026-03-07T09:31:00Z</time>
      </trkpt>
      <trkpt lat="63.01809" lon="12.76199">
        <time>2026-03-07T09:41:00Z</time>
      </trkpt>
      <trkpt lat="63.02433" lon="12.76555">
        <time>2026-03-07T09:51:00Z</time>
      </trkpt>
      <trkpt lat="63.03037" lon="12.77285">
        <time>2026-03-07T10:01:00Z</time>
      </trkpt>
      <trkpt lat="63.03729" lon="12.79272">
        <time>2026-03-07T10:11:00Z</time>
      </trkpt>
      <trkpt lat="63.04693" lon="12.79411">
        <time>2026-03-07T10:21:00Z</time>
      </trkpt>
      <trkpt lat="63.06084" lon="12.79724">
        <time>2026-03-07T10:31:00Z</time>
      </trkpt>
      <trkpt lat="63.07337" lon="12.81177">
        <time>2026-03-07T10:41:00Z</time>
      </trkpt>
      <trkpt lat="63.07563" lon="12.81377">
        <time>2026-03-07T10:51:00Z</time>
      </trkpt>
      <trkpt lat="63.08042" lon="12.81937">
        <time>2026-03-07T11:01:00Z</time>
      </trkpt>
      <trkpt lat="63.08837" lon="12.81844">
        <time>2026-03-07T11:11:00Z</time>
      </trkpt>
      <trkpt lat="63.09925" lon="12.81063">
        <time>2026-03-07T11:21:00Z</time>
      </trkpt>
      <trkpt lat="63.11149" lon="12.824">
        <time>2026-03-07T11:31:00Z</time>
      </trkpt>
      <trkpt lat="63.11541" lon="12.84381">
        <time>2026-03-07T11:41:00Z</time>
      </trkpt>
      <trkpt lat="63.11981" lon="12.86316">
        <time>2026-03-07T11:51:00Z</time>
      </trkpt>
      <trkpt lat="63.12827" lon="12.87162">
        <time>2026-03-07T12:01:00Z</time>
      </trkpt>
      <trkpt lat="63.13347" lon="12.8793">
        <time>2026-03-07T12:11:00Z</time>
      </trkpt>
      <trkpt lat="63.13845" lon="12.89915">
        <time>2026-03-07T12:21:00Z</time>
      </trkpt>
      <trkpt lat="63.14895" lon="12.91584">
        <time>2026-03-07T12:31:00Z</time>
      </trkpt>
      <trkpt lat="63.14891" lon="12.93356">
        <time>2026-03-07T12:41:00Z</time>
      </trkpt>
      <trkpt lat="63.14531" lon="12.95397">
        <time>2026-03-07T12:51:00Z</time>
      </trkpt>
      <trkpt lat="63.14543" lon="12.95414">
        <time>2026-03-07T13:01:00Z</time>
      </trkpt>
      <trkpt lat="63.14884" lon="12.96646">
        <time>2026-03-07T13:11:00Z</time>
      </trkpt>
      <trkpt lat="63.14879" lon="12.96655">
        <time>2026-03-07T13:21:00Z</time>
      </trkpt>
      <trkpt lat="63.14939" lon="12.97006">
        <time>2026-03-08T08:18:00Z</time>
      </trkpt>
      <trkpt lat="63.14955" lon="12.96893">
        <time>2026-03-08T08:18:00Z</time>
      </trkpt>
      <trkpt lat="63.15067" lon="12.98869">
        <time>2026-03-08T08:28:00Z</time>
      </trkpt>
      <trkpt lat="63.15451" lon="13.01452">
        <time>2026-03-08T08:38:00Z</time>
      </trkpt>
      <trkpt lat="63.15847" lon="13.03916">
        <time>2026-03-08T08:48:00Z</time>
      </trkpt>
      <trkpt lat="63.1668" lon="13.05836">
        <time>2026-03-08T08:58:00Z</time>
      </trkpt>
      <trkpt lat="63.17697" lon="13.0615">
        <time>2026-03-08T09:08:00Z</time>
      </trkpt>
      <trkpt lat="63.19047" lon="13.05763">
        <time>2026-03-08T09:18:00Z</time>
      </trkpt>
      <trkpt lat="63.19632" lon="13.06918">
        <time>2026-03-08T09:28:00Z</time>
      </trkpt>
      <trkpt lat="63.20097" lon="13.09576">
        <time>2026-03-08T09:38:00Z</time>
      </trkpt>
      <trkpt lat="63.20413" lon="13.12297">
        <time>2026-03-08T09:48:00Z</time>
      </trkpt>
      <trkpt lat="63.20611" lon="13.15512">
        <time>2026-03-08T09:58:00Z</time>
      </trkpt>
      <trkpt lat="63.20625" lon="13.16181">
        <time>2026-03-08T10:08:00Z</time>
      </trkpt>
      <trkpt lat="63.20594" lon="13.16303">
        <time>2026-03-08T10:18:00Z</time>
      </trkpt>
      <trkpt lat="63.21336" lon="13.17099">
        <time>2026-03-08T10:28:00Z</time>
      </trkpt>
      <trkpt lat="63.22249" lon="13.17782">
        <time>2026-03-08T10:38:00Z</time>
      </trkpt>
      <trkpt lat="63.22085" lon="13.20076">
        <time>2026-03-08T10:48:00Z</time>
      </trkpt>
      <trkpt lat="63.22664" lon="13.20713">
        <time>2026-03-08T10:58:00Z</time>
      </trkpt>
      <trkpt lat="63.23245" lon="13.22457">
        <time>2026-03-08T11:08:00Z</time>
      </trkpt>
      <trkpt lat="63.23795" lon="13.24492">
        <time>2026-03-08T11:18:00Z</time>
      </trkpt>
      <trkpt lat="63.24136" lon="13.25659">
        <time>2026-03-08T11:28:00Z</time>
      </trkpt>
      <trkpt lat="63.24262" lon="13.25762">
        <time>2026-03-08T11:38:00Z</time>
      </trkpt>
      <trkpt lat="63.24897" lon="13.26054">
        <time>2026-03-08T11:48:00Z</time>
      </trkpt>
      <trkpt lat="63.25367" lon="13.26603">
        <time>2026-03-08T11:58:00Z</time>
      </trkpt>
      <trkpt lat="63.25868" lon="13.27024">
        <time>2026-03-08T12:08:00Z</time>
      </trkpt>
      <trkpt lat="63.26608" lon="13.27281">
        <time>2026-03-08T12:18:00Z</time>
      </trkpt>
      <trkpt lat="63.28" lon="13.27594">
        <time>2026-03-08T12:28:00Z</time>
      </trkpt>
      <trkpt lat="63.2919" lon="13.27142">
        <time>2026-03-08T12:38:00Z</time>
      </trkpt>
      <trkpt lat="63.30278" lon="13.27824">
        <time>2026-03-08T12:48:00Z</time>
      </trkpt>
      <trkpt lat="63.30984" lon="13.2509">
        <time>2026-03-08T12:58:00Z</time>
      </trkpt>
      <trkpt lat="63.31675" lon="13.2376">
        <time>2026-03-08T14:12:00Z</time>
      </trkpt>
      <trkpt lat="63.3208" lon="13.24206">
        <time>2026-03-08T14:22:00Z</time>
      </trkpt>
      <trkpt lat="63.32484" lon="13.24228">
        <time>2026-03-08T14:32:00Z</time>
      </trkpt>
      <trkpt lat="63.33132" lon="13.25047">
        <time>2026-03-08T14:42:00Z</time>
      </trkpt>
      <trkpt lat="63.33677" lon="13.26541">
        <time>2026-03-08T14:52:00Z</time>
      </trkpt>
      <trkpt lat="63.34632" lon="13.27532">
        <time>2026-03-08T15:02:00Z</time>
      </trkpt>
      <trkpt lat="63.35681" lon="13.26017">
        <time>2026-03-08T15:12:00Z</time>
      </trkpt>
      <trkpt lat="63.36547" lon="13.23901">
        <time>2026-03-08T15:22:00Z</time>
      </trkpt>
      <trkpt lat="63.37478" lon="13.22314">
        <time>2026-03-08T15:31:00Z</time>
      </trkpt>
      <trkpt lat="63.41798" lon="13.22457">
        <time>2026-03-09T08:38:00Z</time>
      </trkpt>
      <trkpt lat="63.42953" lon="13.22515">
        <time>2026-03-09T08:48:00Z</time>
      </trkpt>
      <trkpt lat="63.42951" lon="13.2252">
        <time>2026-03-09T08:48:00Z</time>
      </trkpt>
      <trkpt lat="63.43569" lon="13.22275">
        <time>2026-03-09T08:58:00Z</time>
      </trkpt>
      <trkpt lat="63.44385" lon="13.22878">
        <time>2026-03-09T09:08:00Z</time>
      </trkpt>
      <trkpt lat="63.44982" lon="13.21415">
        <time>2026-03-09T09:18:00Z</time>
      </trkpt>
      <trkpt lat="63.4539" lon="13.19977">
        <time>2026-03-09T09:28:00Z</time>
      </trkpt>
      <trkpt lat="63.46221" lon="13.21406">
        <time>2026-03-09T09:38:00Z</time>
      </trkpt>
      <trkpt lat="63.46945" lon="13.22376">
        <time>2026-03-09T09:48:00Z</time>
      </trkpt>
      <trkpt lat="63.47837" lon="13.21299">
        <time>2026-03-09T11:02:00Z</time>
      </trkpt>
      <trkpt lat="63.4828" lon="13.20822">
        <time>2026-03-09T11:12:00Z</time>
      </trkpt>
      <trkpt lat="63.48277" lon="13.20827">
        <time>2026-03-09T11:12:00Z</time>
      </trkpt>
      <trkpt lat="63.48858" lon="13.20462">
        <time>2026-03-09T11:22:00Z</time>
      </trkpt>
      <trkpt lat="63.49618" lon="13.20659">
        <time>2026-03-09T11:32:00Z</time>
      </trkpt>
      <trkpt lat="63.50589" lon="13.21146">
        <time>2026-03-09T11:42:00Z</time>
      </trkpt>
      <trkpt lat="63.51108" lon="13.21404">
        <time>2026-03-09T11:52:00Z</time>
      </trkpt>
      <trkpt lat="63.51831" lon="13.21088">
        <time>2026-03-09T12:02:00Z</time>
      </trkpt>
      <trkpt lat="63.52478" lon="13.20824">
        <time>2026-03-09T12:12:00Z</time>
      </trkpt>
      <trkpt lat="63.53213" lon="13.20374">
        <time>2026-03-09T12:22:00Z</time>
      </trkpt>
      <trkpt lat="63.53342" lon="13.19912">
        <time>2026-03-09T12:32:00Z</time>
      </trkpt>
      <trkpt lat="63.53836" lon="13.1947">
        <time>2026-03-09T12:42:00Z</time>
      </trkpt>
      <trkpt lat="63.54042" lon="13.18297">
        <time>2026-03-09T12:52:00Z</time>
      </trkpt>
      <trkpt lat="63.54336" lon="13.17919">
        <time>2026-03-09T13:02:00Z</time>
      </trkpt>
      <trkpt lat="63.55301" lon="13.1619">
        <time>2026-03-09T13:12:00Z</time>
      </trkpt>
      <trkpt lat="63.55941" lon="13.15754">
        <time>2026-03-09T13:22:00Z</time>
      </trkpt>
      <trkpt lat="63.56252" lon="13.16411">
        <time>2026-03-09T13:32:00Z</time>
      </trkpt>
      <trkpt lat="63.56672" lon="13.17434">
        <time>2026-03-09T13:42:00Z</time>
      </trkpt>
      <trkpt lat="63.57024" lon="13.17868">
        <time>2026-03-09T13:52:00Z</time>
      </trkpt>
      <trkpt lat="63.57526" lon="13.17256">
        <time>2026-03-09T14:02:00Z</time>
      </trkpt>
      <trkpt lat="63.58169" lon="13.18445">
        <time>2026-03-09T14:12:00Z</time>
      </trkpt>
      <trkpt lat="63.58166" lon="13.18443">
        <time>2026-03-09T14:22:00Z</time>
      </trkpt>
      <trkpt lat="63.58623" lon="13.19144">
        <time>2026-03-09T14:32:00Z</time>
      </trkpt>
      <trkpt lat="63.59458" lon="13.1831">
        <time>2026-03-09T14:42:00Z</time>
      </trkpt>
      <trkpt lat="63.66656" lon="13.29345">
        <time>2026-03-10T09:41:00Z</time>
      </trkpt>
      <trkpt lat="63.66945" lon="13.30309">
        <time>2026-03-10T09:51:00Z</time>
      </trkpt>
      <trkpt lat="63.67451" lon="13.31734">
        <time>2026-03-10T10:01:00Z</time>
      </trkpt>
      <trkpt lat="63.6808" lon="13.32358">
        <time>2026-03-10T10:11:00Z</time>
      </trkpt>
      <trkpt lat="63.68285" lon="13.33602">
        <time>2026-03-10T10:21:00Z</time>
      </trkpt>
      <trkpt lat="63.68511" lon="13.35581">
        <time>2026-03-10T10:31:00Z</time>
      </trkpt>
      <trkpt lat="63.68713" lon="13.37169">
        <time>2026-03-10T10:41:00Z</time>
      </trkpt>
      <trkpt lat="63.68809" lon="13.3951">
        <time>2026-03-10T10:51:00Z</time>
      </trkpt>
      <trkpt lat="63.68904" lon="13.40909">
        <time>2026-03-10T11:01:00Z</time>
      </trkpt>
      <trkpt lat="63.68806" lon="13.43209">
        <time>2026-03-10T11:11:00Z</time>
      </trkpt>
      <trkpt lat="63.68956" lon="13.44072">
        <time>2026-03-10T11:21:00Z</time>
      </trkpt>
      <trkpt lat="63.69365" lon="13.46003">
        <time>2026-03-10T11:31:00Z</time>
      </trkpt>
      <trkpt lat="63.69177" lon="13.47561">
        <time>2026-03-10T11:41:00Z</time>
      </trkpt>
      <trkpt lat="63.69007" lon="13.49438">
        <time>2026-03-10T11:51:00Z</time>
      </trkpt>
      <trkpt lat="63.68938" lon="13.51629">
        <time>2026-03-10T12:01:00Z</time>
      </trkpt>
      <trkpt lat="63.69313" lon="13.53691">
        <time>2026-03-10T12:11:00Z</time>
      </trkpt>
      <trkpt lat="63.69321" lon="13.55142">
        <time>2026-03-10T12:21:00Z</time>
      </trkpt>
      <trkpt lat="63.69106" lon="13.58002">
        <time>2026-03-10T12:31:00Z</time>
      </trkpt>
      <trkpt lat="63.6942" lon="13.59729">
        <time>2026-03-10T12:41:00Z</time>
      </trkpt>
      <trkpt lat="63.69941" lon="13.60489">
        <time>2026-03-10T12:51:00Z</time>
      </trkpt>
      <trkpt lat="63.70735" lon="13.60753">
        <time>2026-03-10T13:01:00Z</time>
      </trkpt>
      <trkpt lat="63.70882" lon="13.60695">
        <time>2026-03-10T13:11:00Z</time>
      </trkpt>
      <trkpt lat="63.70871" lon="13.60689">
        <time>2026-03-10T13:21:00Z</time>
      </trkpt>
      <trkpt lat="63.71383" lon="13.60787">
        <time>2026-03-10T13:41:00Z</time>
      </trkpt>
      <trkpt lat="63.71851" lon="13.61409">
        <time>2026-03-10T13:51:00Z</time>
      </trkpt>
      <trkpt lat="63.72205" lon="13.61648">
        <time>2026-03-10T14:01:00Z</time>
      </trkpt>
      <trkpt lat="63.72868" lon="13.62023">
        <time>2026-03-10T14:11:00Z</time>
      </trkpt>
      <trkpt lat="63.73535" lon="13.62231">
        <time>2026-03-10T14:21:00Z</time>
      </trkpt>
      <trkpt lat="63.74203" lon="13.62648">
        <time>2026-03-10T14:31:00Z</time>
      </trkpt>
      <trkpt lat="63.74786" lon="13.63489">
        <time>2026-03-10T14:41:00Z</time>
      </trkpt>
      <trkpt lat="63.82147" lon="13.83397">
        <time>2026-03-11T08:55:00Z</time>
      </trkpt>
      <trkpt lat="63.82544" lon="13.85539">
        <time>2026-03-11T09:05:00Z</time>
      </trkpt>
      <trkpt lat="63.83183" lon="13.87008">
        <time>2026-03-11T09:15:00Z</time>
      </trkpt>
      <trkpt lat="63.84095" lon="13.87659">
        <time>2026-03-11T09:25:00Z</time>
      </trkpt>
      <trkpt lat="63.85157" lon="13.87785">
        <time>2026-03-11T09:35:00Z</time>
      </trkpt>
      <trkpt lat="63.863" lon="13.87721">
        <time>2026-03-11T09:45:00Z</time>
      </trkpt>
      <trkpt lat="63.87194" lon="13.86858">
        <time>2026-03-11T09:55:00Z</time>
      </trkpt>
      <trkpt lat="63.88046" lon="13.86024">
        <time>2026-03-11T10:05:00Z</time>
      </trkpt>
      <trkpt lat="63.88572" lon="13.85584">
        <time>2026-03-11T10:15:00Z</time>
      </trkpt>
      <trkpt lat="63.89183" lon="13.85968">
        <time>2026-03-11T10:25:00Z</time>
      </trkpt>
      <trkpt lat="63.89839" lon="13.86665">
        <time>2026-03-11T10:35:00Z</time>
      </trkpt>
      <trkpt lat="63.90477" lon="13.86416">
        <time>2026-03-11T10:45:00Z</time>
      </trkpt>
      <trkpt lat="63.91166" lon="13.86648">
        <time>2026-03-11T10:55:00Z</time>
      </trkpt>
      <trkpt lat="63.92082" lon="13.87277">
        <time>2026-03-11T11:05:00Z</time>
      </trkpt>
      <trkpt lat="63.92778" lon="13.8759">
        <time>2026-03-11T11:15:00Z</time>
      </trkpt>
      <trkpt lat="63.92917" lon="13.8806">
        <time>2026-03-11T11:25:00Z</time>
      </trkpt>
      <trkpt lat="63.93287" lon="13.893">
        <time>2026-03-11T11:35:00Z</time>
      </trkpt>
      <trkpt lat="63.94243" lon="13.90613">
        <time>2026-03-11T11:45:00Z</time>
      </trkpt>
      <trkpt lat="63.95189" lon="13.92285">
        <time>2026-03-11T11:55:00Z</time>
      </trkpt>
      <trkpt lat="63.96033" lon="13.94804">
        <time>2026-03-11T12:05:00Z</time>
      </trkpt>
      <trkpt lat="63.96748" lon="13.94712">
        <time>2026-03-11T12:15:00Z</time>
      </trkpt>
      <trkpt lat="63.96751" lon="13.94718">
        <time>2026-03-11T12:25:00Z</time>
      </trkpt>
      <trkpt lat="63.97158" lon="13.9528">
        <time>2026-03-11T13:05:00Z</time>
      </trkpt>
      <trkpt lat="63.97471" lon="13.96019">
        <time>2026-03-11T13:15:00Z</time>
      </trkpt>
      <trkpt lat="63.97889" lon="13.97044">
        <time>2026-03-11T13:25:00Z</time>
      </trkpt>
      <trkpt lat="63.98739" lon="13.97272">
        <time>2026-03-11T13:35:00Z</time>
      </trkpt>
      <trkpt lat="63.99708" lon="13.98748">
        <time>2026-03-11T13:45:00Z</time>
      </trkpt>
      <trkpt lat="63.99642" lon="13.99463">
        <time>2026-03-11T13:55:00Z</time>
      </trkpt>
      <trkpt lat="64.00231" lon="14.00739">
        <time>2026-03-11T14:05:00Z</time>
      </trkpt>
      <trkpt lat="64.00698" lon="14.02164">
        <time>2026-03-11T14:15:00Z</time>
      </trkpt>
      <trkpt lat="64.01641" lon="14.00801">
        <time>2026-03-11T14:25:00Z</time>
      </trkpt>
      <trkpt lat="64.01852" lon="14.01902">
        <time>2026-03-11T14:35:00Z</time>
      </trkpt>
      <trkpt lat="64.0227" lon="14.03439">
        <time>2026-03-11T14:45:00Z</time>
      </trkpt>
      <trkpt lat="64.02606" lon="14.04037">
        <time>2026-03-11T14:55:00Z</time>
      </trkpt>
      <trkpt lat="64.02532" lon="14.06464">
        <time>2026-03-11T15:05:00Z</time>
      </trkpt>
      <trkpt lat="64.03001" lon="14.08492">
        <time>2026-03-11T15:15:00Z</time>
      </trkpt>
      <trkpt lat="64.04012" lon="14.08936">
        <time>2026-03-11T15:25:00Z</time>
      </trkpt>
      <trkpt lat="64.04167" lon="14.08674">
        <time>2026-03-11T15:35:00Z</time>
      </trkpt>
      <trkpt lat="64.04322" lon="14.08016">
        <time>2026-03-11T15:45:00Z</time>
      </trkpt>
      <trkpt lat="64.05341" lon="14.08597">
        <time>2026-03-11T15:55:00Z</time>
      </trkpt>
      <trkpt lat="64.06379" lon="14.08822">
        <time>2026-03-11T16:05:00Z</time>
      </trkpt>
      <trkpt lat="64.06903" lon="14.10769">
        <time>2026-03-11T16:15:00Z</time>
      </trkpt>
      <trkpt lat="64.06492" lon="14.12391">
        <time>2026-03-11T16:25:00Z</time>
      </trkpt>
      <trkpt lat="64.06356" lon="14.13215">
        <time>2026-03-11T16:30:00Z</time>
      </trkpt>
      <trkpt lat="64.14309" lon="14.20854">
        <time>2026-03-12T08:40:00Z</time>
      </trkpt>
      <trkpt lat="64.14669" lon="14.22118">
        <time>2026-03-12T08:50:00Z</time>
      </trkpt>
      <trkpt lat="64.14884" lon="14.23253">
        <time>2026-03-12T09:00:00Z</time>
      </trkpt>
      <trkpt lat="64.15124" lon="14.23742">
        <time>2026-03-12T09:10:00Z</time>
      </trkpt>
      <trkpt lat="64.15545" lon="14.24446">
        <time>2026-03-12T09:20:00Z</time>
      </trkpt>
      <trkpt lat="64.15947" lon="14.24755">
        <time>2026-03-12T09:30:00Z</time>
      </trkpt>
      <trkpt lat="64.16699" lon="14.25347">
        <time>2026-03-12T09:40:00Z</time>
      </trkpt>
      <trkpt lat="64.17376" lon="14.25298">
        <time>2026-03-12T09:50:00Z</time>
      </trkpt>
      <trkpt lat="64.17936" lon="14.25012">
        <time>2026-03-12T10:00:00Z</time>
      </trkpt>
      <trkpt lat="64.18263" lon="14.25278">
        <time>2026-03-12T10:10:00Z</time>
      </trkpt>
      <trkpt lat="64.18912" lon="14.25677">
        <time>2026-03-12T10:20:00Z</time>
      </trkpt>
      <trkpt lat="64.19681" lon="14.25697">
        <time>2026-03-12T10:30:00Z</time>
      </trkpt>
      <trkpt lat="64.20287" lon="14.2654">
        <time>2026-03-12T10:40:00Z</time>
      </trkpt>
      <trkpt lat="64.2088" lon="14.27448">
        <time>2026-03-12T10:50:00Z</time>
      </trkpt>
      <trkpt lat="64.21521" lon="14.27686">
        <time>2026-03-12T11:00:00Z</time>
      </trkpt>
      <trkpt lat="64.22303" lon="14.28096">
        <time>2026-03-12T11:10:00Z</time>
      </trkpt>
      <trkpt lat="64.22952" lon="14.28619">
        <time>2026-03-12T11:20:00Z</time>
      </trkpt>
      <trkpt lat="64.24023" lon="14.29855">
        <time>2026-03-12T11:30:00Z</time>
      </trkpt>
      <trkpt lat="64.24447" lon="14.31289">
        <time>2026-03-12T11:40:00Z</time>
      </trkpt>
      <trkpt lat="64.24694" lon="14.33029">
        <time>2026-03-12T11:50:00Z</time>
      </trkpt>
      <trkpt lat="64.25467" lon="14.33836">
        <time>2026-03-12T12:00:00Z</time>
      </trkpt>
      <trkpt lat="64.25416" lon="14.34584">
        <time>2026-03-12T12:10:00Z</time>
      </trkpt>
      <trkpt lat="64.25401" lon="14.3567">
        <time>2026-03-12T12:20:00Z</time>
      </trkpt>
      <trkpt lat="64.25372" lon="14.36086">
        <time>2026-03-12T12:30:00Z</time>
      </trkpt>
      <trkpt lat="64.25585" lon="14.37069">
        <time>2026-03-12T12:40:00Z</time>
      </trkpt>
      <trkpt lat="64.25748" lon="14.37591">
        <time>2026-03-12T12:50:00Z</time>
      </trkpt>
      <trkpt lat="64.26125" lon="14.38683">
        <time>2026-03-12T13:00:00Z</time>
      </trkpt>
      <trkpt lat="64.26367" lon="14.39464">
        <time>2026-03-12T13:10:00Z</time>
      </trkpt>
      <trkpt lat="64.26685" lon="14.39739">
        <time>2026-03-12T13:20:00Z</time>
      </trkpt>
      <trkpt lat="64.26866" lon="14.41101">
        <time>2026-03-12T13:30:00Z</time>
      </trkpt>
      <trkpt lat="64.27058" lon="14.41803">
        <time>2026-03-12T13:40:00Z</time>
      </trkpt>
      <trkpt lat="64.2718" lon="14.42871">
        <time>2026-03-12T13:50:00Z</time>
      </trkpt>
      <trkpt lat="64.27204" lon="14.42839">
        <time>2026-03-12T14:00:00Z</time>
      </trkpt>
      <trkpt lat="64.27201" lon="14.42573">
        <time>2026-03-12T14:30:00Z</time>
      </trkpt>
      <trkpt lat="64.27644" lon="14.40623">
        <time>2026-03-12T14:40:00Z</time>
      </trkpt>
      <trkpt lat="64.28471" lon="14.40339">
        <time>2026-03-12T14:50:00Z</time>
      </trkpt>
      <trkpt lat="64.28838" lon="14.41447">
        <time>2026-03-12T15:00:00Z</time>
      </trkpt>
      <trkpt lat="64.29658" lon="14.40296">
        <time>2026-03-12T15:10:00Z</time>
      </trkpt>
      <trkpt lat="64.3005" lon="14.39243">
        <time>2026-03-12T15:20:00Z</time>
      </trkpt>
      <trkpt lat="64.30472" lon="14.38631">
        <time>2026-03-12T15:30:00Z</time>
      </trkpt>
      <trkpt lat="64.30904" lon="14.38528">
        <time>2026-03-12T15:40:00Z</time>
      </trkpt>
      <trkpt lat="64.30968" lon="14.38537">
        <time>2026-03-12T15:40:00Z</time>
      </trkpt>
      <trkpt lat="64.37701" lon="14.36938">
        <time>2026-03-13T08:30:00Z</time>
      </trkpt>
      <trkpt lat="64.38259" lon="14.35859">
        <time>2026-03-13T08:40:00Z</time>
      </trkpt>
      <trkpt lat="64.3878" lon="14.34627">
        <time>2026-03-13T08:50:00Z</time>
      </trkpt>
      <trkpt lat="64.39462" lon="14.33267">
        <time>2026-03-13T09:00:00Z</time>
      </trkpt>
      <trkpt lat="64.40339" lon="14.31177">
        <time>2026-03-13T09:10:00Z</time>
      </trkpt>
      <trkpt lat="64.41107" lon="14.29415">
        <time>2026-03-13T09:20:00Z</time>
      </trkpt>
      <trkpt lat="64.41859" lon="14.26952">
        <time>2026-03-13T09:30:00Z</time>
      </trkpt>
      <trkpt lat="64.42544" lon="14.24083">
        <time>2026-03-13T09:40:00Z</time>
      </trkpt>
      <trkpt lat="64.43333" lon="14.21416">
        <time>2026-03-13T09:50:00Z</time>
      </trkpt>
      <trkpt lat="64.44221" lon="14.18938">
        <time>2026-03-13T10:00:00Z</time>
      </trkpt>
      <trkpt lat="64.4469" lon="14.178">
        <time>2026-03-13T10:10:00Z</time>
      </trkpt>
      <trkpt lat="64.44997" lon="14.16307">
        <time>2026-03-13T10:20:00Z</time>
      </trkpt>
      <trkpt lat="64.4523" lon="14.15131">
        <time>2026-03-13T10:30:00Z</time>
      </trkpt>
      <trkpt lat="64.45279" lon="14.14777">
        <time>2026-03-13T10:40:00Z</time>
      </trkpt>
      <trkpt lat="64.45699" lon="14.14431">
        <time>2026-03-13T10:50:00Z</time>
      </trkpt>
      <trkpt lat="64.45985" lon="14.14073">
        <time>2026-03-13T11:00:00Z</time>
      </trkpt>
      <trkpt lat="64.46341" lon="14.13698">
        <time>2026-03-13T11:10:00Z</time>
      </trkpt>
      <trkpt lat="64.469" lon="14.12753">
        <time>2026-03-13T11:20:00Z</time>
      </trkpt>
      <trkpt lat="64.47817" lon="14.11399">
        <time>2026-03-13T11:30:00Z</time>
      </trkpt>
      <trkpt lat="64.47857" lon="14.1144">
        <time>2026-03-13T11:31:00Z</time>
      </trkpt>
      <trkpt lat="64.48984" lon="14.10977">
        <time>2026-03-13T12:02:00Z</time>
      </trkpt>
      <trkpt lat="64.49041" lon="14.1114">
        <time>2026-03-13T12:03:00Z</time>
      </trkpt>
      <trkpt lat="64.50853" lon="14.15245">
        <time>2026-03-15T07:48:00Z</time>
      </trkpt>
      <trkpt lat="64.50654" lon="14.16043">
        <time>2026-03-15T07:58:00Z</time>
      </trkpt>
      <trkpt lat="64.50506" lon="14.16792">
        <time>2026-03-15T08:08:00Z</time>
      </trkpt>
      <trkpt lat="64.50397" lon="14.18077">
        <time>2026-03-15T08:18:00Z</time>
      </trkpt>
      <trkpt lat="64.5029" lon="14.19096">
        <time>2026-03-15T08:28:00Z</time>
      </trkpt>
      <trkpt lat="64.50225" lon="14.19815">
        <time>2026-03-15T08:38:00Z</time>
      </trkpt>
      <trkpt lat="64.50188" lon="14.21049">
        <time>2026-03-15T08:48:00Z</time>
      </trkpt>
      <trkpt lat="64.50378" lon="14.22175">
        <time>2026-03-15T08:58:00Z</time>
      </trkpt>
      <trkpt lat="64.50437" lon="14.23499">
        <time>2026-03-15T09:08:00Z</time>
      </trkpt>
      <trkpt lat="64.50713" lon="14.24875">
        <time>2026-03-15T09:18:00Z</time>
      </trkpt>
      <trkpt lat="64.51" lon="14.24746">
        <time>2026-03-15T09:28:00Z</time>
      </trkpt>
      <trkpt lat="64.5153" lon="14.23536">
        <time>2026-03-15T09:38:00Z</time>
      </trkpt>
      <trkpt lat="64.52211" lon="14.22843">
        <time>2026-03-15T09:48:00Z</time>
      </trkpt>
      <trkpt lat="64.52159" lon="14.24544">
        <time>2026-03-15T09:58:00Z</time>
      </trkpt>
      <trkpt lat="64.5263" lon="14.24879">
        <time>2026-03-15T10:08:00Z</time>
      </trkpt>
      <trkpt lat="64.53348" lon="14.23718">
        <time>2026-03-15T10:18:00Z</time>
      </trkpt>
      <trkpt lat="64.5414" lon="14.23225">
        <time>2026-03-15T10:28:00Z</time>
      </trkpt>
      <trkpt lat="64.5454" lon="14.23216">
        <time>2026-03-15T10:38:00Z</time>
      </trkpt>
      <trkpt lat="64.554" lon="14.22611">
        <time>2026-03-15T10:48:00Z</time>
      </trkpt>
      <trkpt lat="64.55831" lon="14.23186">
        <time>2026-03-15T10:58:00Z</time>
      </trkpt>
      <trkpt lat="64.59896" lon="14.26252">
        <time>2026-03-15T12:21:00Z</time>
      </trkpt>
      <trkpt lat="64.61324" lon="14.27456">
        <time>2026-03-15T12:43:00Z</time>
      </trkpt>
      <trkpt lat="64.61919" lon="14.27945">
        <time>2026-03-15T12:51:00Z</time>
      </trkpt>
      <trkpt lat="64.74824" lon="14.36434">
        <time>2026-03-16T10:02:00Z</time>
      </trkpt>
      <trkpt lat="64.7502" lon="14.3649">
        <time>2026-03-16T10:06:00Z</time>
      </trkpt>
      <trkpt lat="64.98403" lon="14.71794">
        <time>2026-03-18T10:25:00Z</time>
      </trkpt>
      <trkpt lat="65.06313" lon="14.8086">
        <time>2026-03-20T06:51:00Z</time>
      </trkpt>
      <trkpt lat="65.25309" lon="14.93207">
        <time>2026-03-20T16:42:00Z</time>
      </trkpt>
      <trkpt lat="65.25323" lon="14.93226">
        <time>2026-03-20T16:43:00Z</time>
      </trkpt>
      <trkpt lat="65.71185" lon="15.25134">
        <time>2026-03-22T17:35:00Z</time>
      </trkpt>
      <trkpt lat="65.71119" lon="15.25625">
        <time>2026-03-22T17:40:00Z</time>
      </trkpt>
      <trkpt lat="66.09945" lon="16.31141">
        <time>2026-03-26T10:23:00Z</time>
      </trkpt>
      <trkpt lat="66.1009" lon="16.3136">
        <time>2026-03-26T10:25:00Z</time>
      </trkpt>
      <trkpt lat="66.38752" lon="16.96673">
        <time>2026-03-28T07:07:00Z</time>
      </trkpt>
      <trkpt lat="67.39455" lon="18.52041">
        <time>2026-04-01T12:59:00Z</time>
      </trkpt>
      <trkpt lat="67.39602" lon="18.51569">
        <time>2026-04-01T13:09:00Z</time>
      </trkpt>
      <trkpt lat="67.39876" lon="18.50737">
        <time>2026-04-01T13:19:00Z</time>
      </trkpt>
      <trkpt lat="67.40527" lon="18.49048">
        <time>2026-04-01T13:29:00Z</time>
      </trkpt>
      <trkpt lat="67.41127" lon="18.47278">
        <time>2026-04-01T13:39:00Z</time>
      </trkpt>
      <trkpt lat="67.41734" lon="18.45578">
        <time>2026-04-01T13:49:00Z</time>
      </trkpt>
      <trkpt lat="67.42394" lon="18.44171">
        <time>2026-04-01T13:59:00Z</time>
      </trkpt>
      <trkpt lat="67.43136" lon="18.43036">
        <time>2026-04-01T14:09:00Z</time>
      </trkpt>
      <trkpt lat="67.43661" lon="18.41909">
        <time>2026-04-01T14:19:00Z</time>
      </trkpt>
      <trkpt lat="67.44178" lon="18.40173">
        <time>2026-04-01T14:30:00Z</time>
      </trkpt>
      <trkpt lat="67.44888" lon="18.39235">
        <time>2026-04-01T14:40:00Z</time>
      </trkpt>
      <trkpt lat="67.45615" lon="18.38186">
        <time>2026-04-01T14:50:00Z</time>
      </trkpt>
      <trkpt lat="67.46209" lon="18.37454">
        <time>2026-04-01T15:00:00Z</time>
      </trkpt>
      <trkpt lat="67.47096" lon="18.36446">
        <time>2026-04-01T15:10:00Z</time>
      </trkpt>
      <trkpt lat="67.47722" lon="18.36259">
        <time>2026-04-01T15:20:00Z</time>
      </trkpt>
      <trkpt lat="67.48277" lon="18.35901">
        <time>2026-04-01T15:30:00Z</time>
      </trkpt>
      <trkpt lat="67.48181" lon="18.35639">
        <time>2026-04-01T15:39:00Z</time>
      </trkpt>
      <trkpt lat="67.48536" lon="18.36042">
        <time>2026-04-02T07:16:00Z</time>
      </trkpt>
      <trkpt lat="67.48841" lon="18.36729">
        <time>2026-04-02T07:26:00Z</time>
      </trkpt>
      <trkpt lat="67.49208" lon="18.36832">
        <time>2026-04-02T07:36:00Z</time>
      </trkpt>
      <trkpt lat="67.49873" lon="18.38611">
        <time>2026-04-02T07:46:00Z</time>
      </trkpt>
      <trkpt lat="67.50292" lon="18.4016">
        <time>2026-04-02T07:56:00Z</time>
      </trkpt>
      <trkpt lat="67.50721" lon="18.42937">
        <time>2026-04-02T08:06:00Z</time>
      </trkpt>
      <trkpt lat="67.50622" lon="18.44231">
        <time>2026-04-02T08:16:00Z</time>
      </trkpt>
      <trkpt lat="67.50687" lon="18.44447">
        <time>2026-04-02T08:26:00Z</time>
      </trkpt>
      <trkpt lat="67.51477" lon="18.44385">
        <time>2026-04-02T08:36:00Z</time>
      </trkpt>
      <trkpt lat="67.51708" lon="18.45115">
        <time>2026-04-02T08:46:00Z</time>
      </trkpt>
      <trkpt lat="67.52137" lon="18.4598">
        <time>2026-04-02T08:56:00Z</time>
      </trkpt>
      <trkpt lat="67.5275" lon="18.4772">
        <time>2026-04-02T09:06:00Z</time>
      </trkpt>
      <trkpt lat="67.53263" lon="18.48539">
        <time>2026-04-02T09:16:00Z</time>
      </trkpt>
      <trkpt lat="67.53874" lon="18.48698">
        <time>2026-04-02T09:26:00Z</time>
      </trkpt>
      <trkpt lat="67.54153" lon="18.47488">
        <time>2026-04-02T09:36:00Z</time>
      </trkpt>
      <trkpt lat="67.54616" lon="18.46209">
        <time>2026-04-02T09:46:00Z</time>
      </trkpt>
      <trkpt lat="67.54732" lon="18.45844">
        <time>2026-04-02T09:53:00Z</time>
      </trkpt>
      <trkpt lat="67.57699" lon="18.40207">
        <time>2026-04-02T13:08:00Z</time>
      </trkpt>
      <trkpt lat="67.58392" lon="18.39302">
        <time>2026-04-02T13:18:00Z</time>
      </trkpt>
      <trkpt lat="67.58822" lon="18.38669">
        <time>2026-04-02T13:28:00Z</time>
      </trkpt>
      <trkpt lat="67.59541" lon="18.37804">
        <time>2026-04-02T13:38:00Z</time>
      </trkpt>
      <trkpt lat="67.60053" lon="18.3801">
        <time>2026-04-02T13:48:00Z</time>
      </trkpt>
      <trkpt lat="67.60834" lon="18.37075">
        <time>2026-04-02T13:58:00Z</time>
      </trkpt>
      <trkpt lat="67.61459" lon="18.36405">
        <time>2026-04-02T14:08:00Z</time>
      </trkpt>
      <trkpt lat="67.61855" lon="18.3639">
        <time>2026-04-02T14:18:00Z</time>
      </trkpt>
      <trkpt lat="67.62492" lon="18.35759">
        <time>2026-04-02T14:28:00Z</time>
      </trkpt>
      <trkpt lat="67.63077" lon="18.34729">
        <time>2026-04-02T14:38:00Z</time>
      </trkpt>
      <trkpt lat="67.63417" lon="18.33371">
        <time>2026-04-02T14:48:00Z</time>
      </trkpt>
      <trkpt lat="67.63498" lon="18.32339">
        <time>2026-04-02T14:58:00Z</time>
      </trkpt>
      <trkpt lat="67.63812" lon="18.31787">
        <time>2026-04-02T15:08:00Z</time>
      </trkpt>
      <trkpt lat="67.64025" lon="18.31266">
        <time>2026-04-02T15:18:00Z</time>
      </trkpt>
      <trkpt lat="67.6447" lon="18.30536">
        <time>2026-04-02T15:28:00Z</time>
      </trkpt>
      <trkpt lat="67.64921" lon="18.29144">
        <time>2026-04-02T15:38:00Z</time>
      </trkpt>
      <trkpt lat="67.65354" lon="18.27747">
        <time>2026-04-02T15:48:00Z</time>
      </trkpt>
      <trkpt lat="67.65706" lon="18.26363">
        <time>2026-04-02T15:58:00Z</time>
      </trkpt>
      <trkpt lat="67.65993" lon="18.25071">
        <time>2026-04-02T16:08:00Z</time>
      </trkpt>
      <trkpt lat="67.66405" lon="18.23385">
        <time>2026-04-02T16:18:00Z</time>
      </trkpt>
      <trkpt lat="67.66715" lon="18.22267">
        <time>2026-04-02T16:28:00Z</time>
      </trkpt>
      <trkpt lat="67.67233" lon="18.20777">
        <time>2026-04-02T16:38:00Z</time>
      </trkpt>
      <trkpt lat="67.67631" lon="18.19788">
        <time>2026-04-02T16:48:00Z</time>
      </trkpt>
      <trkpt lat="67.68128" lon="18.18625">
        <time>2026-04-02T16:58:00Z</time>
      </trkpt>
      <trkpt lat="67.68789" lon="18.17128">
        <time>2026-04-02T17:08:00Z</time>
      </trkpt>
      <trkpt lat="67.69437" lon="18.15688">
        <time>2026-04-02T17:17:00Z</time>
      </trkpt>
      <trkpt lat="68.29199" lon="19.89364">
        <time>2026-04-06T13:38:00Z</time>
      </trkpt>
      <trkpt lat="68.29107" lon="19.89557">
        <time>2026-04-06T13:40:00Z</time>
      </trkpt>
      <trkpt lat="69.05985" lon="20.54861">
        <time>2026-04-09T13:44:00Z</time>
      </trkpt>
      <trkpt lat="69.05995" lon="20.54872">
        <time>2026-04-09T13:45:00Z</time>
      </trkpt>
    </trkseg>
  </trk>
</gpx>
