<?xml version="1.0" encoding="UTF-8"?>
<gpx xmlns="http://www.topografix.com/GPX/1/1" version="1.1" creator="VitaBandet">
  <metadata>
    <name>Christer Hed's Band</name>
  </metadata>
  <trk>
    <name>Christer Hed's Band</name>
    <trkseg>
      <trkpt lat="62.09848" lon="12.31231">
        <time>2022-02-01T09:16:00Z</time>
      </trkpt>
      <trkpt lat="62.09875" lon="12.31291">
        <time>2022-02-01T09:26:00Z</time>
      </trkpt>
      <trkpt lat="62.09727" lon="12.31692">
        <time>2022-02-01T09:43:00Z</time>
      </trkpt>
      <trkpt lat="62.0981" lon="12.31853">
        <time>2022-02-01T09:53:00Z</time>
      </trkpt>
      <trkpt lat="62.09845" lon="12.32018">
        <time>2022-02-01T10:03:00Z</time>
      </trkpt>
      <trkpt lat="62.09937" lon="12.32372">
        <time>2022-02-01T10:13:00Z</time>
      </trkpt>
      <trkpt lat="62.09957" lon="12.32591">
        <time>2022-02-01T10:23:00Z</time>
      </trkpt>
      <trkpt lat="62.1013" lon="12.32971">
        <time>2022-02-01T10:33:00Z</time>
      </trkpt>
      <trkpt lat="62.10374" lon="12.33164">
        <time>2022-02-01T10:43:00Z</time>
      </trkpt>
      <trkpt lat="62.10661" lon="12.33387">
        <time>2022-02-01T10:53:00Z</time>
      </trkpt>
      <trkpt lat="62.10881" lon="12.33593">
        <time>2022-02-01T11:03:00Z</time>
      </trkpt>
      <trkpt lat="62.11151" lon="12.3378">
        <time>2022-02-01T11:13:00Z</time>
      </trkpt>
      <trkpt lat="62.11548" lon="12.34336">
        <time>2022-02-01T11:23:00Z</time>
      </trkpt>
      <trkpt lat="62.11902" lon="12.35132">
        <time>2022-02-01T11:33:00Z</time>
      </trkpt>
      <trkpt lat="62.12469" lon="12.35511">
        <time>2022-02-01T11:43:00Z</time>
      </trkpt>
      <trkpt lat="62.12793" lon="12.35737">
        <time>2022-02-01T11:53:00Z</time>
      </trkpt>
      <trkpt lat="62.13122" lon="12.35979">
        <time>2022-02-01T12:03:00Z</time>
      </trkpt>
      <trkpt lat="62.13553" lon="12.3614">
        <time>2022-02-01T12:13:00Z</time>
      </trkpt>
      <trkpt lat="62.1392" lon="12.36307">
        <time>2022-02-01T12:23:00Z</time>
      </trkpt>
      <trkpt lat="62.14397" lon="12.36616">
        <time>2022-02-01T12:33:00Z</time>
      </trkpt>
      <trkpt lat="62.14725" lon="12.36782">
        <time>2022-02-01T12:43:00Z</time>
      </trkpt>
      <trkpt lat="62.1525" lon="12.37181">
        <time>2022-02-01T12:53:00Z</time>
      </trkpt>
      <trkpt lat="62.15718" lon="12.37561">
        <time>2022-02-01T13:03:00Z</time>
      </trkpt>
      <trkpt lat="62.15781" lon="12.37387">
        <time>2022-02-01T13:43:00Z</time>
      </trkpt>
      <trkpt lat="62.15879" lon="12.3764">
        <time>2022-02-01T13:53:00Z</time>
      </trkpt>
      <trkpt lat="62.16338" lon="12.37962">
        <time>2022-02-01T14:03:00Z</time>
      </trkpt>
      <trkpt lat="62.1695" lon="12.37928">
        <time>2022-02-01T14:13:00Z</time>
      </trkpt>
      <trkpt lat="62.17479" lon="12.38129">
        <time>2022-02-01T14:23:00Z</time>
      </trkpt>
      <trkpt lat="62.18024" lon="12.38801">
        <time>2022-02-01T14:33:00Z</time>
      </trkpt>
      <trkpt lat="62.18347" lon="12.3902">
        <time>2022-02-01T14:43:00Z</time>
      </trkpt>
      <trkpt lat="62.18573" lon="12.39133">
        <time>2022-02-01T14:53:00Z</time>
      </trkpt>
      <trkpt lat="62.18574" lon="12.39131">
        <time>2022-02-01T15:03:00Z</time>
      </trkpt>
      <trkpt lat="62.1866" lon="12.38936">
        <time>2022-02-01T15:12:00Z</time>
      </trkpt>
      <trkpt lat="62.18627" lon="12.38979">
        <time>2022-02-02T09:06:00Z</time>
      </trkpt>
      <trkpt lat="62.20483" lon="12.37912">
        <time>2022-02-02T10:06:00Z</time>
      </trkpt>
      <trkpt lat="62.22402" lon="12.3484">
        <time>2022-02-02T11:06:00Z</time>
      </trkpt>
      <trkpt lat="62.24433" lon="12.3469">
        <time>2022-02-02T12:07:00Z</time>
      </trkpt>
      <trkpt lat="62.25153" lon="12.34896">
        <time>2022-02-02T13:07:00Z</time>
      </trkpt>
      <trkpt lat="62.26322" lon="12.38168">
        <time>2022-02-02T14:07:00Z</time>
      </trkpt>
      <trkpt lat="62.28079" lon="12.39848">
        <time>2022-02-02T15:07:00Z</time>
      </trkpt>
      <trkpt lat="62.29319" lon="12.42195">
        <time>2022-02-02T16:07:00Z</time>
      </trkpt>
      <trkpt lat="62.3163" lon="12.44528">
        <time>2022-02-02T17:07:00Z</time>
      </trkpt>
      <trkpt lat="62.31672" lon="12.45017">
        <time>2022-02-02T17:40:00Z</time>
      </trkpt>
      <trkpt lat="62.31671" lon="12.45024">
        <time>2022-02-03T09:10:00Z</time>
      </trkpt>
      <trkpt lat="62.33416" lon="12.46676">
        <time>2022-02-03T10:10:00Z</time>
      </trkpt>
      <trkpt lat="62.34369" lon="12.51504">
        <time>2022-02-03T11:10:00Z</time>
      </trkpt>
      <trkpt lat="62.34356" lon="12.56956">
        <time>2022-02-03T12:10:00Z</time>
      </trkpt>
      <trkpt lat="62.34856" lon="12.5772">
        <time>2022-02-03T13:10:00Z</time>
      </trkpt>
      <trkpt lat="62.36826" lon="12.59186">
        <time>2022-02-03T14:10:00Z</time>
      </trkpt>
      <trkpt lat="62.39017" lon="12.5855">
        <time>2022-02-03T15:10:00Z</time>
      </trkpt>
      <trkpt lat="62.41469" lon="12.56628">
        <time>2022-02-03T16:10:00Z</time>
      </trkpt>
      <trkpt lat="62.41694" lon="12.56673">
        <time>2022-02-03T17:14:00Z</time>
      </trkpt>
      <trkpt lat="62.41697" lon="12.56675">
        <time>2022-02-03T17:15:00Z</time>
      </trkpt>
      <trkpt lat="62.41682" lon="12.56692">
        <time>2022-02-04T09:06:00Z</time>
      </trkpt>
      <trkpt lat="62.41919" lon="12.57894">
        <time>2022-02-04T10:06:00Z</time>
      </trkpt>
      <trkpt lat="62.43051" lon="12.64241">
        <time>2022-02-04T11:06:00Z</time>
      </trkpt>
      <trkpt lat="62.43781" lon="12.66125">
        <time>2022-02-04T12:06:00Z</time>
      </trkpt>
      <trkpt lat="62.45035" lon="12.63842">
        <time>2022-02-04T13:06:00Z</time>
      </trkpt>
      <trkpt lat="62.46304" lon="12.61623">
        <time>2022-02-04T14:06:00Z</time>
      </trkpt>
      <trkpt lat="62.4732" lon="12.59164">
        <time>2022-02-04T15:06:00Z</time>
      </trkpt>
      <trkpt lat="62.47815" lon="12.59641">
        <time>2022-02-04T15:36:00Z</time>
      </trkpt>
      <trkpt lat="62.47822" lon="12.59617">
        <time>2022-02-05T09:17:00Z</time>
      </trkpt>
      <trkpt lat="62.49943" lon="12.561">
        <time>2022-02-05T10:17:00Z</time>
      </trkpt>
      <trkpt lat="62.50904" lon="12.5174">
        <time>2022-02-05T11:17:00Z</time>
      </trkpt>
      <trkpt lat="62.52423" lon="12.48697">
        <time>2022-02-05T12:17:00Z</time>
      </trkpt>
      <trkpt lat="62.54357" lon="12.51023">
        <time>2022-02-05T13:17:00Z</time>
      </trkpt>
      <trkpt lat="62.54436" lon="12.54233">
        <time>2022-02-05T14:05:00Z</time>
      </trkpt>
      <trkpt lat="62.54436" lon="12.54222">
        <time>2022-02-07T08:46:00Z</time>
      </trkpt>
      <trkpt lat="62.52493" lon="12.58756">
        <time>2022-02-07T09:46:00Z</time>
      </trkpt>
      <trkpt lat="62.54726" lon="12.61879">
        <time>2022-02-07T10:47:00Z</time>
      </trkpt>
      <trkpt lat="62.57015" lon="12.6069">
        <time>2022-02-07T11:47:00Z</time>
      </trkpt>
      <trkpt lat="62.58774" lon="12.60634">
        <time>2022-02-07T12:47:00Z</time>
      </trkpt>
      <trkpt lat="62.61101" lon="12.62696">
        <time>2022-02-07T13:47:00Z</time>
      </trkpt>
      <trkpt lat="62.63643" lon="12.65471">
        <time>2022-02-07T14:47:00Z</time>
      </trkpt>
      <trkpt lat="62.65699" lon="12.70144">
        <time>2022-02-07T15:47:00Z</time>
      </trkpt>
      <trkpt lat="62.68525" lon="12.67249">
        <time>2022-02-07T16:47:00Z</time>
      </trkpt>
      <trkpt lat="62.68529" lon="12.67243">
        <time>2022-02-07T16:50:00Z</time>
      </trkpt>
      <trkpt lat="62.6854" lon="12.67252">
        <time>2022-02-08T08:18:00Z</time>
      </trkpt>
      <trkpt lat="62.70124" lon="12.69687">
        <time>2022-02-08T09:20:00Z</time>
      </trkpt>
      <trkpt lat="62.7172" lon="12.71936">
        <time>2022-02-08T10:20:00Z</time>
      </trkpt>
      <trkpt lat="62.74379" lon="12.74609">
        <time>2022-02-08T11:20:00Z</time>
      </trkpt>
      <trkpt lat="62.77789" lon="12.7677">
        <time>2022-02-08T12:20:00Z</time>
      </trkpt>
      <trkpt lat="62.80301" lon="12.76989">
        <time>2022-02-08T13:20:00Z</time>
      </trkpt>
      <trkpt lat="62.82486" lon="12.77671">
        <time>2022-02-08T14:20:00Z</time>
      </trkpt>
      <trkpt lat="62.85122" lon="12.79319">
        <time>2022-02-08T15:20:00Z</time>
      </trkpt>
      <trkpt lat="62.85099" lon="12.79098">
        <time>2022-02-09T08:34:00Z</time>
      </trkpt>
      <trkpt lat="62.86631" lon="12.76523">
        <time>2022-02-09T09:34:00Z</time>
      </trkpt>
      <trkpt lat="62.88614" lon="12.7453">
        <time>2022-02-09T10:34:00Z</time>
      </trkpt>
      <trkpt lat="62.90436" lon="12.73236">
        <time>2022-02-09T11:34:00Z</time>
      </trkpt>
      <trkpt lat="62.92906" lon="12.72691">
        <time>2022-02-09T12:34:00Z</time>
      </trkpt>
      <trkpt lat="62.94226" lon="12.72485">
        <time>2022-02-09T13:34:00Z</time>
      </trkpt>
      <trkpt lat="62.9666" lon="12.75184">
        <time>2022-02-09T14:34:00Z</time>
      </trkpt>
      <trkpt lat="62.99734" lon="12.74433">
        <time>2022-02-09T15:34:00Z</time>
      </trkpt>
      <trkpt lat="63.0208" lon="12.76429">
        <time>2022-02-09T16:34:00Z</time>
      </trkpt>
      <trkpt lat="63.04016" lon="12.80004">
        <time>2022-02-09T17:34:00Z</time>
      </trkpt>
      <trkpt lat="63.04076" lon="12.79987">
        <time>2022-02-09T17:40:00Z</time>
      </trkpt>
      <trkpt lat="63.04089" lon="12.79985">
        <time>2022-02-10T08:01:00Z</time>
      </trkpt>
      <trkpt lat="63.0662" lon="12.80435">
        <time>2022-02-10T09:01:00Z</time>
      </trkpt>
      <trkpt lat="63.08889" lon="12.81834">
        <time>2022-02-10T10:01:00Z</time>
      </trkpt>
      <trkpt lat="63.11376" lon="12.84171">
        <time>2022-02-10T11:01:00Z</time>
      </trkpt>
      <trkpt lat="63.13346" lon="12.88199">
        <time>2022-02-10T12:01:00Z</time>
      </trkpt>
      <trkpt lat="63.14892" lon="12.91488">
        <time>2022-02-10T13:01:00Z</time>
      </trkpt>
      <trkpt lat="63.14884" lon="12.96625">
        <time>2022-02-10T13:58:00Z</time>
      </trkpt>
      <trkpt lat="63.14885" lon="12.96601">
        <time>2022-02-11T08:52:00Z</time>
      </trkpt>
      <trkpt lat="63.15637" lon="13.02382">
        <time>2022-02-11T09:52:00Z</time>
      </trkpt>
      <trkpt lat="63.17189" lon="13.06118">
        <time>2022-02-11T10:52:00Z</time>
      </trkpt>
      <trkpt lat="63.19632" lon="13.06601">
        <time>2022-02-11T11:52:00Z</time>
      </trkpt>
      <trkpt lat="63.20318" lon="13.12967">
        <time>2022-02-11T12:52:00Z</time>
      </trkpt>
      <trkpt lat="63.2093" lon="13.17087">
        <time>2022-02-11T13:52:00Z</time>
      </trkpt>
      <trkpt lat="63.2232" lon="13.19986">
        <time>2022-02-11T14:52:00Z</time>
      </trkpt>
      <trkpt lat="63.23922" lon="13.25524">
        <time>2022-02-11T15:52:00Z</time>
      </trkpt>
      <trkpt lat="63.25112" lon="13.26316">
        <time>2022-02-11T16:33:00Z</time>
      </trkpt>
      <trkpt lat="63.25111" lon="13.26318">
        <time>2022-02-12T08:34:00Z</time>
      </trkpt>
      <trkpt lat="63.25534" lon="13.2166">
        <time>2022-02-12T09:34:00Z</time>
      </trkpt>
      <trkpt lat="63.26215" lon="13.19016">
        <time>2022-02-12T10:34:00Z</time>
      </trkpt>
      <trkpt lat="63.29335" lon="13.21065">
        <time>2022-02-12T11:34:00Z</time>
      </trkpt>
      <trkpt lat="63.30511" lon="13.17501">
        <time>2022-02-12T12:34:00Z</time>
      </trkpt>
      <trkpt lat="63.30679" lon="13.12624">
        <time>2022-02-12T13:34:00Z</time>
      </trkpt>
      <trkpt lat="63.30954" lon="13.0777">
        <time>2022-02-12T14:34:00Z</time>
      </trkpt>
      <trkpt lat="63.31445" lon="13.08403">
        <time>2022-02-12T15:00:00Z</time>
      </trkpt>
      <trkpt lat="63.3156" lon="13.08626">
        <time>2022-02-14T08:17:00Z</time>
      </trkpt>
      <trkpt lat="63.33119" lon="13.0768">
        <time>2022-02-14T09:17:00Z</time>
      </trkpt>
      <trkpt lat="63.33856" lon="13.15621">
        <time>2022-02-14T10:17:00Z</time>
      </trkpt>
      <trkpt lat="63.35076" lon="13.1898">
        <time>2022-02-14T11:17:00Z</time>
      </trkpt>
      <trkpt lat="63.36126" lon="13.22823">
        <time>2022-02-14T12:17:00Z</time>
      </trkpt>
      <trkpt lat="63.37254" lon="13.22145">
        <time>2022-02-14T13:17:00Z</time>
      </trkpt>
      <trkpt lat="63.39612" lon="13.19849">
        <time>2022-02-14T14:18:00Z</time>
      </trkpt>
      <trkpt lat="63.41357" lon="13.2261">
        <time>2022-02-14T15:18:00Z</time>
      </trkpt>
      <trkpt lat="63.44599" lon="13.22797">
        <time>2022-02-14T16:18:00Z</time>
      </trkpt>
      <trkpt lat="63.44768" lon="13.22256">
        <time>2022-02-14T16:27:00Z</time>
      </trkpt>
      <trkpt lat="63.44766" lon="13.22256">
        <time>2022-02-15T08:05:00Z</time>
      </trkpt>
      <trkpt lat="63.46618" lon="13.21754">
        <time>2022-02-15T09:06:00Z</time>
      </trkpt>
      <trkpt lat="63.47497" lon="13.22194">
        <time>2022-02-15T10:06:00Z</time>
      </trkpt>
      <trkpt lat="63.49466" lon="13.20561">
        <time>2022-02-15T11:06:00Z</time>
      </trkpt>
      <trkpt lat="63.515" lon="13.21398">
        <time>2022-02-15T12:07:00Z</time>
      </trkpt>
      <trkpt lat="63.5236" lon="13.20836">
        <time>2022-02-15T13:07:00Z</time>
      </trkpt>
      <trkpt lat="63.53897" lon="13.19419">
        <time>2022-02-15T14:07:00Z</time>
      </trkpt>
      <trkpt lat="63.54945" lon="13.17147">
        <time>2022-02-15T15:07:00Z</time>
      </trkpt>
      <trkpt lat="63.55864" lon="13.15733">
        <time>2022-02-15T15:51:00Z</time>
      </trkpt>
      <trkpt lat="63.55872" lon="13.15722">
        <time>2022-02-16T08:06:00Z</time>
      </trkpt>
      <trkpt lat="63.56665" lon="13.17426">
        <time>2022-02-16T09:06:00Z</time>
      </trkpt>
      <trkpt lat="63.5767" lon="13.17733">
        <time>2022-02-16T10:06:00Z</time>
      </trkpt>
      <trkpt lat="63.59258" lon="13.1878">
        <time>2022-02-16T11:06:00Z</time>
      </trkpt>
      <trkpt lat="63.60357" lon="13.1913">
        <time>2022-02-16T12:06:00Z</time>
      </trkpt>
      <trkpt lat="63.61643" lon="13.20977">
        <time>2022-02-16T13:06:00Z</time>
      </trkpt>
      <trkpt lat="63.63451" lon="13.22735">
        <time>2022-02-16T14:06:00Z</time>
      </trkpt>
      <trkpt lat="63.64059" lon="13.29136">
        <time>2022-02-16T15:06:00Z</time>
      </trkpt>
      <trkpt lat="63.64078" lon="13.29142">
        <time>2022-02-16T15:12:00Z</time>
      </trkpt>
      <trkpt lat="63.64073" lon="13.29157">
        <time>2022-02-17T08:29:00Z</time>
      </trkpt>
      <trkpt lat="63.6668" lon="13.29352">
        <time>2022-02-17T09:29:00Z</time>
      </trkpt>
      <trkpt lat="63.67643" lon="13.34824">
        <time>2022-02-17T10:29:00Z</time>
      </trkpt>
      <trkpt lat="63.6817" lon="13.39491">
        <time>2022-02-17T11:29:00Z</time>
      </trkpt>
      <trkpt lat="63.69005" lon="13.44225">
        <time>2022-02-17T12:29:00Z</time>
      </trkpt>
      <trkpt lat="63.69039" lon="13.48424">
        <time>2022-02-17T13:30:00Z</time>
      </trkpt>
      <trkpt lat="63.69241" lon="13.54149">
        <time>2022-02-17T14:30:00Z</time>
      </trkpt>
      <trkpt lat="63.69509" lon="13.60307">
        <time>2022-02-17T15:30:00Z</time>
      </trkpt>
      <trkpt lat="63.70803" lon="13.60698">
        <time>2022-02-17T16:02:00Z</time>
      </trkpt>
      <trkpt lat="63.70801" lon="13.60702">
        <time>2022-02-18T07:51:00Z</time>
      </trkpt>
      <trkpt lat="63.72601" lon="13.6203">
        <time>2022-02-18T08:51:00Z</time>
      </trkpt>
      <trkpt lat="63.7478" lon="13.63328">
        <time>2022-02-18T09:51:00Z</time>
      </trkpt>
      <trkpt lat="63.75184" lon="13.67616">
        <time>2022-02-18T10:51:00Z</time>
      </trkpt>
      <trkpt lat="63.74327" lon="13.73712">
        <time>2022-02-18T11:51:00Z</time>
      </trkpt>
      <trkpt lat="63.75267" lon="13.77304">
        <time>2022-02-18T12:51:00Z</time>
      </trkpt>
      <trkpt lat="63.76837" lon="13.80851">
        <time>2022-02-18T13:52:00Z</time>
      </trkpt>
      <trkpt lat="63.77603" lon="13.83318">
        <time>2022-02-18T14:52:00Z</time>
      </trkpt>
      <trkpt lat="63.7804" lon="13.82089">
        <time>2022-02-18T15:16:00Z</time>
      </trkpt>
      <trkpt lat="63.7806" lon="13.82112">
        <time>2022-02-20T08:04:00Z</time>
      </trkpt>
      <trkpt lat="63.80533" lon="13.83559">
        <time>2022-02-20T09:04:00Z</time>
      </trkpt>
      <trkpt lat="63.82712" lon="13.86028">
        <time>2022-02-20T10:04:00Z</time>
      </trkpt>
      <trkpt lat="63.85124" lon="13.87792">
        <time>2022-02-20T11:04:00Z</time>
      </trkpt>
      <trkpt lat="63.86949" lon="13.86885">
        <time>2022-02-20T12:04:00Z</time>
      </trkpt>
      <trkpt lat="63.88998" lon="13.85784">
        <time>2022-02-20T13:04:00Z</time>
      </trkpt>
      <trkpt lat="63.91137" lon="13.86648">
        <time>2022-02-20T14:04:00Z</time>
      </trkpt>
      <trkpt lat="63.93817" lon="13.89683">
        <time>2022-02-20T15:04:00Z</time>
      </trkpt>
      <trkpt lat="63.95882" lon="13.94901">
        <time>2022-02-20T16:04:00Z</time>
      </trkpt>
      <trkpt lat="63.95884" lon="13.94901">
        <time>2022-02-20T16:05:00Z</time>
      </trkpt>
      <trkpt lat="63.95884" lon="13.94903">
        <time>2022-02-21T08:14:00Z</time>
      </trkpt>
      <trkpt lat="63.9759" lon="13.96669">
        <time>2022-02-21T09:14:00Z</time>
      </trkpt>
      <trkpt lat="63.99372" lon="13.9916">
        <time>2022-02-21T10:14:00Z</time>
      </trkpt>
      <trkpt lat="64.00661" lon="14.02139">
        <time>2022-02-21T11:14:00Z</time>
      </trkpt>
      <trkpt lat="64.01797" lon="14.01459">
        <time>2022-02-21T12:14:00Z</time>
      </trkpt>
      <trkpt lat="64.02241" lon="14.03596">
        <time>2022-02-21T13:14:00Z</time>
      </trkpt>
      <trkpt lat="64.02775" lon="14.07508">
        <time>2022-02-21T14:14:00Z</time>
      </trkpt>
      <trkpt lat="64.04915" lon="14.1011">
        <time>2022-02-21T15:14:00Z</time>
      </trkpt>
      <trkpt lat="64.06118" lon="14.08945">
        <time>2022-02-21T16:07:00Z</time>
      </trkpt>
      <trkpt lat="64.06116" lon="14.08945">
        <time>2022-02-22T08:17:00Z</time>
      </trkpt>
      <trkpt lat="64.073" lon="14.12559">
        <time>2022-02-22T09:17:00Z</time>
      </trkpt>
      <trkpt lat="64.07103" lon="14.1484">
        <time>2022-02-22T10:17:00Z</time>
      </trkpt>
      <trkpt lat="64.07611" lon="14.1691">
        <time>2022-02-22T11:17:00Z</time>
      </trkpt>
      <trkpt lat="64.08566" lon="14.20811">
        <time>2022-02-22T12:17:00Z</time>
      </trkpt>
      <trkpt lat="64.0825" lon="14.21991">
        <time>2022-02-22T13:17:00Z</time>
      </trkpt>
      <trkpt lat="64.08264" lon="14.25126">
        <time>2022-02-22T14:17:00Z</time>
      </trkpt>
      <trkpt lat="64.0866" lon="14.27731">
        <time>2022-02-22T15:04:00Z</time>
      </trkpt>
      <trkpt lat="64.08653" lon="14.27761">
        <time>2022-02-23T08:22:00Z</time>
      </trkpt>
      <trkpt lat="64.07801" lon="14.31096">
        <time>2022-02-23T09:22:00Z</time>
      </trkpt>
      <trkpt lat="64.06396" lon="14.33147">
        <time>2022-02-23T10:22:00Z</time>
      </trkpt>
      <trkpt lat="64.07293" lon="14.32819">
        <time>2022-02-23T11:22:00Z</time>
      </trkpt>
      <trkpt lat="64.08574" lon="14.28826">
        <time>2022-02-23T12:22:00Z</time>
      </trkpt>
      <trkpt lat="64.08872" lon="14.2842">
        <time>2022-02-23T13:22:00Z</time>
      </trkpt>
      <trkpt lat="64.09682" lon="14.33225">
        <time>2022-02-23T14:22:00Z</time>
      </trkpt>
      <trkpt lat="64.10209" lon="14.36735">
        <time>2022-02-23T15:22:00Z</time>
      </trkpt>
      <trkpt lat="64.10454" lon="14.36885">
        <time>2022-02-23T15:42:00Z</time>
      </trkpt>
      <trkpt lat="64.10455" lon="14.36896">
        <time>2022-02-24T08:22:00Z</time>
      </trkpt>
      <trkpt lat="64.11221" lon="14.38606">
        <time>2022-02-24T09:22:00Z</time>
      </trkpt>
      <trkpt lat="64.1237" lon="14.42078">
        <time>2022-02-24T10:22:00Z</time>
      </trkpt>
      <trkpt lat="64.14431" lon="14.4279">
        <time>2022-02-24T11:22:00Z</time>
      </trkpt>
      <trkpt lat="64.16444" lon="14.44312">
        <time>2022-02-24T12:23:00Z</time>
      </trkpt>
      <trkpt lat="64.17404" lon="14.43063">
        <time>2022-02-24T13:23:00Z</time>
      </trkpt>
      <trkpt lat="64.18891" lon="14.42632">
        <time>2022-02-24T14:23:00Z</time>
      </trkpt>
      <trkpt lat="64.20353" lon="14.41439">
        <time>2022-02-24T15:23:00Z</time>
      </trkpt>
      <trkpt lat="64.21458" lon="14.44249">
        <time>2022-02-24T16:23:00Z</time>
      </trkpt>
      <trkpt lat="64.21889" lon="14.45985">
        <time>2022-02-24T16:52:00Z</time>
      </trkpt>
      <trkpt lat="64.21884" lon="14.46013">
        <time>2022-02-25T08:05:00Z</time>
      </trkpt>
      <trkpt lat="64.22516" lon="14.46694">
        <time>2022-02-25T09:05:00Z</time>
      </trkpt>
      <trkpt lat="64.23854" lon="14.46591">
        <time>2022-02-25T10:05:00Z</time>
      </trkpt>
      <trkpt lat="64.24586" lon="14.48125">
        <time>2022-02-25T11:05:00Z</time>
      </trkpt>
      <trkpt lat="64.25483" lon="14.46172">
        <time>2022-02-25T12:05:00Z</time>
      </trkpt>
      <trkpt lat="64.26392" lon="14.43473">
        <time>2022-02-25T13:05:00Z</time>
      </trkpt>
      <trkpt lat="64.27103" lon="14.42355">
        <time>2022-02-25T14:05:00Z</time>
      </trkpt>
      <trkpt lat="64.27466" lon="14.43363">
        <time>2022-02-25T15:05:00Z</time>
      </trkpt>
      <trkpt lat="64.2897" lon="14.41803">
        <time>2022-02-25T16:05:00Z</time>
      </trkpt>
      <trkpt lat="64.28941" lon="14.39544">
        <time>2022-02-25T17:06:00Z</time>
      </trkpt>
      <trkpt lat="64.29398" lon="14.40014">
        <time>2022-02-25T17:41:00Z</time>
      </trkpt>
      <trkpt lat="64.29476" lon="14.39936">
        <time>2022-02-26T08:43:00Z</time>
      </trkpt>
      <trkpt lat="64.29683" lon="14.39368">
        <time>2022-02-26T09:43:00Z</time>
      </trkpt>
      <trkpt lat="64.30289" lon="14.39149">
        <time>2022-02-26T10:43:00Z</time>
      </trkpt>
      <trkpt lat="64.31553" lon="14.38655">
        <time>2022-02-26T11:43:00Z</time>
      </trkpt>
      <trkpt lat="64.32704" lon="14.40235">
        <time>2022-02-26T12:43:00Z</time>
      </trkpt>
      <trkpt lat="64.34539" lon="14.39713">
        <time>2022-02-26T13:43:00Z</time>
      </trkpt>
      <trkpt lat="64.37497" lon="14.38078">
        <time>2022-02-26T14:43:00Z</time>
      </trkpt>
      <trkpt lat="64.3808" lon="14.33688">
        <time>2022-02-26T15:44:00Z</time>
      </trkpt>
      <trkpt lat="64.39913" lon="14.29358">
        <time>2022-02-26T16:44:00Z</time>
      </trkpt>
      <trkpt lat="64.39985" lon="14.29508">
        <time>2022-02-26T16:53:00Z</time>
      </trkpt>
      <trkpt lat="64.39985" lon="14.29506">
        <time>2022-02-27T08:02:00Z</time>
      </trkpt>
      <trkpt lat="64.41607" lon="14.24568">
        <time>2022-02-27T09:02:00Z</time>
      </trkpt>
      <trkpt lat="64.43674" lon="14.18811">
        <time>2022-02-27T10:02:00Z</time>
      </trkpt>
      <trkpt lat="64.45899" lon="14.16226">
        <time>2022-02-27T11:03:00Z</time>
      </trkpt>
      <trkpt lat="64.47801" lon="14.13074">
        <time>2022-02-27T12:04:00Z</time>
      </trkpt>
      <trkpt lat="64.4993" lon="14.14232">
        <time>2022-02-27T13:33:00Z</time>
      </trkpt>
      <trkpt lat="64.50638" lon="14.14567">
        <time>2022-02-27T14:33:00Z</time>
      </trkpt>
      <trkpt lat="64.50614" lon="14.1473">
        <time>2022-02-27T15:48:00Z</time>
      </trkpt>
      <trkpt lat="64.50711" lon="14.14689">
        <time>2022-03-01T08:42:00Z</time>
      </trkpt>
      <trkpt lat="64.50457" lon="14.17558">
        <time>2022-03-01T09:42:00Z</time>
      </trkpt>
      <trkpt lat="64.50184" lon="14.21736">
        <time>2022-03-01T10:42:00Z</time>
      </trkpt>
      <trkpt lat="64.51072" lon="14.25652">
        <time>2022-03-01T11:42:00Z</time>
      </trkpt>
      <trkpt lat="64.52588" lon="14.28231">
        <time>2022-03-01T12:42:00Z</time>
      </trkpt>
      <trkpt lat="64.53416" lon="14.29133">
        <time>2022-03-01T13:42:00Z</time>
      </trkpt>
      <trkpt lat="64.55666" lon="14.32147">
        <time>2022-03-01T14:42:00Z</time>
      </trkpt>
      <trkpt lat="64.5807" lon="14.27459">
        <time>2022-03-01T15:42:00Z</time>
      </trkpt>
      <trkpt lat="64.59728" lon="14.22637">
        <time>2022-03-01T16:42:00Z</time>
      </trkpt>
      <trkpt lat="64.61812" lon="14.20629">
        <time>2022-03-01T17:42:00Z</time>
      </trkpt>
      <trkpt lat="64.63156" lon="14.17996">
        <time>2022-03-01T18:33:00Z</time>
      </trkpt>
      <trkpt lat="64.63152" lon="14.17998">
        <time>2022-03-02T09:54:00Z</time>
      </trkpt>
      <trkpt lat="64.64289" lon="14.14419">
        <time>2022-03-02T11:06:00Z</time>
      </trkpt>
      <trkpt lat="64.65466" lon="14.13977">
        <time>2022-03-02T12:06:00Z</time>
      </trkpt>
      <trkpt lat="64.66736" lon="14.15417">
        <time>2022-03-02T13:06:00Z</time>
      </trkpt>
      <trkpt lat="64.67445" lon="14.20571">
        <time>2022-03-02T14:06:00Z</time>
      </trkpt>
      <trkpt lat="64.68519" lon="14.19562">
        <time>2022-03-02T15:06:00Z</time>
      </trkpt>
      <trkpt lat="64.70099" lon="14.20339">
        <time>2022-03-02T16:06:00Z</time>
      </trkpt>
      <trkpt lat="64.71341" lon="14.20371">
        <time>2022-03-02T16:38:00Z</time>
      </trkpt>
      <trkpt lat="64.71316" lon="14.20318">
        <time>2022-03-03T07:56:00Z</time>
      </trkpt>
      <trkpt lat="64.73459" lon="14.20335">
        <time>2022-03-03T08:56:00Z</time>
      </trkpt>
      <trkpt lat="64.75679" lon="14.22648">
        <time>2022-03-03T09:56:00Z</time>
      </trkpt>
      <trkpt lat="64.78084" lon="14.23217">
        <time>2022-03-03T10:56:00Z</time>
      </trkpt>
      <trkpt lat="64.79787" lon="14.23105">
        <time>2022-03-03T11:56:00Z</time>
      </trkpt>
      <trkpt lat="64.81572" lon="14.2441">
        <time>2022-03-03T12:56:00Z</time>
      </trkpt>
      <trkpt lat="64.83255" lon="14.26038">
        <time>2022-03-03T13:56:00Z</time>
      </trkpt>
      <trkpt lat="64.84668" lon="14.29935">
        <time>2022-03-03T14:56:00Z</time>
      </trkpt>
      <trkpt lat="64.84822" lon="14.34179">
        <time>2022-03-03T15:56:00Z</time>
      </trkpt>
      <trkpt lat="64.84751" lon="14.34709">
        <time>2022-03-03T16:06:00Z</time>
      </trkpt>
      <trkpt lat="64.84745" lon="14.34705">
        <time>2022-03-04T08:24:00Z</time>
      </trkpt>
      <trkpt lat="64.85527" lon="14.39851">
        <time>2022-03-04T09:24:00Z</time>
      </trkpt>
      <trkpt lat="64.8589" lon="14.43149">
        <time>2022-03-04T10:24:00Z</time>
      </trkpt>
      <trkpt lat="64.86538" lon="14.44436">
        <time>2022-03-04T11:24:00Z</time>
      </trkpt>
      <trkpt lat="64.86982" lon="14.48434">
        <time>2022-03-04T12:24:00Z</time>
      </trkpt>
      <trkpt lat="64.88691" lon="14.53554">
        <time>2022-03-04T13:24:00Z</time>
      </trkpt>
      <trkpt lat="64.90433" lon="14.57047">
        <time>2022-03-04T14:24:00Z</time>
      </trkpt>
      <trkpt lat="64.92107" lon="14.55545">
        <time>2022-03-04T15:24:00Z</time>
      </trkpt>
      <trkpt lat="64.92114" lon="14.55525">
        <time>2022-03-04T15:25:00Z</time>
      </trkpt>
      <trkpt lat="64.921" lon="14.55532">
        <time>2022-03-05T07:42:00Z</time>
      </trkpt>
      <trkpt lat="64.92665" lon="14.57141">
        <time>2022-03-05T08:42:00Z</time>
      </trkpt>
      <trkpt lat="64.94232" lon="14.60617">
        <time>2022-03-05T09:42:00Z</time>
      </trkpt>
      <trkpt lat="64.95325" lon="14.65025">
        <time>2022-03-05T10:42:00Z</time>
      </trkpt>
      <trkpt lat="64.97382" lon="14.70016">
        <time>2022-03-05T11:42:00Z</time>
      </trkpt>
      <trkpt lat="64.98404" lon="14.7181">
        <time>2022-03-05T14:43:00Z</time>
      </trkpt>
      <trkpt lat="64.98401" lon="14.71793">
        <time>2022-03-05T14:47:00Z</time>
      </trkpt>
      <trkpt lat="64.98397" lon="14.71812">
        <time>2022-03-06T07:50:00Z</time>
      </trkpt>
      <trkpt lat="65.00929" lon="14.72642">
        <time>2022-03-06T08:50:00Z</time>
      </trkpt>
      <trkpt lat="65.04847" lon="14.73848">
        <time>2022-03-06T09:50:00Z</time>
      </trkpt>
      <trkpt lat="65.05769" lon="14.80419">
        <time>2022-03-06T10:50:00Z</time>
      </trkpt>
      <trkpt lat="65.05457" lon="14.88738">
        <time>2022-03-06T11:50:00Z</time>
      </trkpt>
      <trkpt lat="65.05417" lon="14.94278">
        <time>2022-03-06T12:50:00Z</time>
      </trkpt>
      <trkpt lat="65.05805" lon="15.00926">
        <time>2022-03-06T13:50:00Z</time>
      </trkpt>
      <trkpt lat="65.06567" lon="15.06318">
        <time>2022-03-06T14:50:00Z</time>
      </trkpt>
      <trkpt lat="65.06683" lon="15.07243">
        <time>2022-03-06T15:01:00Z</time>
      </trkpt>
      <trkpt lat="65.06689" lon="15.07329">
        <time>2022-03-07T07:35:00Z</time>
      </trkpt>
      <trkpt lat="65.09261" lon="15.09088">
        <time>2022-03-07T08:35:00Z</time>
      </trkpt>
      <trkpt lat="65.10725" lon="15.06994">
        <time>2022-03-07T09:35:00Z</time>
      </trkpt>
      <trkpt lat="65.11996" lon="15.03988">
        <time>2022-03-07T10:35:00Z</time>
      </trkpt>
      <trkpt lat="65.142" lon="15.03234">
        <time>2022-03-07T11:35:00Z</time>
      </trkpt>
      <trkpt lat="65.1556" lon="15.05312">
        <time>2022-03-07T12:35:00Z</time>
      </trkpt>
      <trkpt lat="65.17432" lon="15.07511">
        <time>2022-03-07T13:35:00Z</time>
      </trkpt>
      <trkpt lat="65.19522" lon="15.08058">
        <time>2022-03-07T14:35:00Z</time>
      </trkpt>
      <trkpt lat="65.20051" lon="15.07841">
        <time>2022-03-07T15:20:00Z</time>
      </trkpt>
      <trkpt lat="65.20083" lon="15.07805">
        <time>2022-03-08T07:34:00Z</time>
      </trkpt>
      <trkpt lat="65.23474" lon="15.05545">
        <time>2022-03-08T08:34:00Z</time>
      </trkpt>
      <trkpt lat="65.26894" lon="15.03417">
        <time>2022-03-08T09:34:00Z</time>
      </trkpt>
      <trkpt lat="65.29875" lon="15.02638">
        <time>2022-03-08T10:34:00Z</time>
      </trkpt>
      <trkpt lat="65.32549" lon="15.06335">
        <time>2022-03-08T11:34:00Z</time>
      </trkpt>
      <trkpt lat="65.33441" lon="15.09322">
        <time>2022-03-08T12:34:00Z</time>
      </trkpt>
      <trkpt lat="65.33202" lon="15.15255">
        <time>2022-03-08T13:34:00Z</time>
      </trkpt>
      <trkpt lat="65.32707" lon="15.23924">
        <time>2022-03-08T14:34:00Z</time>
      </trkpt>
      <trkpt lat="65.32396" lon="15.28458">
        <time>2022-03-08T15:34:00Z</time>
      </trkpt>
      <trkpt lat="65.33273" lon="15.29505">
        <time>2022-03-08T16:06:00Z</time>
      </trkpt>
      <trkpt lat="65.33312" lon="15.29447">
        <time>2022-03-09T07:42:00Z</time>
      </trkpt>
      <trkpt lat="65.36053" lon="15.29617">
        <time>2022-03-09T08:42:00Z</time>
      </trkpt>
      <trkpt lat="65.38789" lon="15.29769">
        <time>2022-03-09T09:42:00Z</time>
      </trkpt>
      <trkpt lat="65.4136" lon="15.26497">
        <time>2022-03-09T10:42:00Z</time>
      </trkpt>
      <trkpt lat="65.43358" lon="15.23216">
        <time>2022-03-09T11:42:00Z</time>
      </trkpt>
      <trkpt lat="65.44941" lon="15.24703">
        <time>2022-03-09T12:42:00Z</time>
      </trkpt>
      <trkpt lat="65.47465" lon="15.30421">
        <time>2022-03-09T13:42:00Z</time>
      </trkpt>
      <trkpt lat="65.49921" lon="15.34494">
        <time>2022-03-09T14:42:00Z</time>
      </trkpt>
      <trkpt lat="65.53194" lon="15.32338">
        <time>2022-03-09T15:42:00Z</time>
      </trkpt>
      <trkpt lat="65.54693" lon="15.33794">
        <time>2022-03-09T16:14:00Z</time>
      </trkpt>
      <trkpt lat="65.54705" lon="15.33797">
        <time>2022-03-10T07:50:00Z</time>
      </trkpt>
      <trkpt lat="65.56438" lon="15.32672">
        <time>2022-03-10T08:50:00Z</time>
      </trkpt>
      <trkpt lat="65.57145" lon="15.32026">
        <time>2022-03-10T09:50:00Z</time>
      </trkpt>
      <trkpt lat="65.60179" lon="15.2757">
        <time>2022-03-10T10:50:00Z</time>
      </trkpt>
      <trkpt lat="65.62291" lon="15.23355">
        <time>2022-03-10T11:50:00Z</time>
      </trkpt>
      <trkpt lat="65.63581" lon="15.2004">
        <time>2022-03-10T12:50:00Z</time>
      </trkpt>
      <trkpt lat="65.65879" lon="15.14532">
        <time>2022-03-10T13:51:00Z</time>
      </trkpt>
      <trkpt lat="65.6797" lon="15.12221">
        <time>2022-03-10T14:51:00Z</time>
      </trkpt>
      <trkpt lat="65.71177" lon="15.09614">
        <time>2022-03-10T15:51:00Z</time>
      </trkpt>
      <trkpt lat="65.73765" lon="15.09519">
        <time>2022-03-10T16:51:00Z</time>
      </trkpt>
      <trkpt lat="65.75502" lon="15.12959">
        <time>2022-03-10T17:51:00Z</time>
      </trkpt>
      <trkpt lat="65.75857" lon="15.13111">
        <time>2022-03-10T18:03:00Z</time>
      </trkpt>
      <trkpt lat="65.75859" lon="15.13099">
        <time>2022-03-11T08:23:00Z</time>
      </trkpt>
      <trkpt lat="65.78711" lon="15.09779">
        <time>2022-03-11T09:23:00Z</time>
      </trkpt>
      <trkpt lat="65.81256" lon="15.07502">
        <time>2022-03-11T10:23:00Z</time>
      </trkpt>
      <trkpt lat="65.8119" lon="15.08764">
        <time>2022-03-11T11:15:00Z</time>
      </trkpt>
      <trkpt lat="65.81257" lon="15.08691">
        <time>2022-03-13T09:55:00Z</time>
      </trkpt>
      <trkpt lat="65.81481" lon="15.10592">
        <time>2022-03-13T10:55:00Z</time>
      </trkpt>
      <trkpt lat="65.82891" lon="15.10298">
        <time>2022-03-13T11:55:00Z</time>
      </trkpt>
      <trkpt lat="65.83861" lon="15.08964">
        <time>2022-03-13T12:55:00Z</time>
      </trkpt>
      <trkpt lat="65.85685" lon="15.09296">
        <time>2022-03-13T13:55:00Z</time>
      </trkpt>
      <trkpt lat="65.87395" lon="15.1297">
        <time>2022-03-13T14:55:00Z</time>
      </trkpt>
      <trkpt lat="65.88503" lon="15.1583">
        <time>2022-03-13T15:38:00Z</time>
      </trkpt>
      <trkpt lat="65.88511" lon="15.15849">
        <time>2022-03-14T07:12:00Z</time>
      </trkpt>
      <trkpt lat="65.88073" lon="15.22825">
        <time>2022-03-14T08:12:00Z</time>
      </trkpt>
      <trkpt lat="65.87088" lon="15.29898">
        <time>2022-03-14T09:12:00Z</time>
      </trkpt>
      <trkpt lat="65.87518" lon="15.34443">
        <time>2022-03-14T10:12:00Z</time>
      </trkpt>
      <trkpt lat="65.89278" lon="15.39652">
        <time>2022-03-14T11:12:00Z</time>
      </trkpt>
      <trkpt lat="65.89592" lon="15.43137">
        <time>2022-03-14T12:12:00Z</time>
      </trkpt>
      <trkpt lat="65.92679" lon="15.46257">
        <time>2022-03-14T13:12:00Z</time>
      </trkpt>
      <trkpt lat="65.96238" lon="15.47824">
        <time>2022-03-14T14:12:00Z</time>
      </trkpt>
      <trkpt lat="65.98873" lon="15.49729">
        <time>2022-03-14T15:01:00Z</time>
      </trkpt>
      <trkpt lat="65.98877" lon="15.49729">
        <time>2022-03-15T07:52:00Z</time>
      </trkpt>
      <trkpt lat="65.98739" lon="15.53003">
        <time>2022-03-15T08:52:00Z</time>
      </trkpt>
      <trkpt lat="65.97478" lon="15.58151">
        <time>2022-03-15T09:52:00Z</time>
      </trkpt>
      <trkpt lat="65.9676" lon="15.64741">
        <time>2022-03-15T10:52:00Z</time>
      </trkpt>
      <trkpt lat="65.96462" lon="15.70607">
        <time>2022-03-15T11:52:00Z</time>
      </trkpt>
      <trkpt lat="65.97223" lon="15.76435">
        <time>2022-03-15T12:50:00Z</time>
      </trkpt>
      <trkpt lat="65.97227" lon="15.76399">
        <time>2022-03-16T06:48:00Z</time>
      </trkpt>
      <trkpt lat="65.9701" lon="15.80928">
        <time>2022-03-16T07:48:00Z</time>
      </trkpt>
      <trkpt lat="65.9703" lon="15.87297">
        <time>2022-03-16T08:48:00Z</time>
      </trkpt>
      <trkpt lat="65.96417" lon="15.96129">
        <time>2022-03-16T09:48:00Z</time>
      </trkpt>
      <trkpt lat="65.96279" lon="16.0242">
        <time>2022-03-16T10:48:00Z</time>
      </trkpt>
      <trkpt lat="65.96241" lon="16.07622">
        <time>2022-03-16T11:48:00Z</time>
      </trkpt>
      <trkpt lat="65.95443" lon="16.17578">
        <time>2022-03-16T12:48:00Z</time>
      </trkpt>
      <trkpt lat="65.95835" lon="16.21168">
        <time>2022-03-16T14:00:00Z</time>
      </trkpt>
      <trkpt lat="65.9751" lon="16.21265">
        <time>2022-03-16T15:00:00Z</time>
      </trkpt>
      <trkpt lat="66.00523" lon="16.19529">
        <time>2022-03-16T16:00:00Z</time>
      </trkpt>
      <trkpt lat="66.03731" lon="16.19001">
        <time>2022-03-16T17:00:00Z</time>
      </trkpt>
      <trkpt lat="66.03833" lon="16.20022">
        <time>2022-03-16T17:18:00Z</time>
      </trkpt>
      <trkpt lat="66.03828" lon="16.20005">
        <time>2022-03-17T07:09:00Z</time>
      </trkpt>
      <trkpt lat="66.03885" lon="16.24794">
        <time>2022-03-17T08:09:00Z</time>
      </trkpt>
      <trkpt lat="66.05202" lon="16.26771">
        <time>2022-03-17T09:09:00Z</time>
      </trkpt>
      <trkpt lat="66.07774" lon="16.27779">
        <time>2022-03-17T10:09:00Z</time>
      </trkpt>
      <trkpt lat="66.1047" lon="16.31935">
        <time>2022-03-17T11:09:00Z</time>
      </trkpt>
      <trkpt lat="66.13132" lon="16.35856">
        <time>2022-03-17T12:09:00Z</time>
      </trkpt>
      <trkpt lat="66.16834" lon="16.35811">
        <time>2022-03-17T13:09:00Z</time>
      </trkpt>
      <trkpt lat="66.20351" lon="16.38042">
        <time>2022-03-17T14:09:00Z</time>
      </trkpt>
      <trkpt lat="66.21001" lon="16.37716">
        <time>2022-03-17T14:53:00Z</time>
      </trkpt>
      <trkpt lat="66.21191" lon="16.37905">
        <time>2022-03-18T06:32:00Z</time>
      </trkpt>
      <trkpt lat="66.24389" lon="16.38053">
        <time>2022-03-18T07:32:00Z</time>
      </trkpt>
      <trkpt lat="66.26581" lon="16.39933">
        <time>2022-03-18T08:32:00Z</time>
      </trkpt>
      <trkpt lat="66.2841" lon="16.49919">
        <time>2022-03-18T09:32:00Z</time>
      </trkpt>
      <trkpt lat="66.28293" lon="16.57358">
        <time>2022-03-18T10:32:00Z</time>
      </trkpt>
      <trkpt lat="66.28114" lon="16.63167">
        <time>2022-03-18T11:32:00Z</time>
      </trkpt>
      <trkpt lat="66.27828" lon="16.65294">
        <time>2022-03-18T12:02:00Z</time>
      </trkpt>
      <trkpt lat="66.27817" lon="16.65255">
        <time>2022-03-20T07:00:00Z</time>
      </trkpt>
      <trkpt lat="66.29683" lon="16.67581">
        <time>2022-03-20T08:00:00Z</time>
      </trkpt>
      <trkpt lat="66.32083" lon="16.70849">
        <time>2022-03-20T09:00:00Z</time>
      </trkpt>
      <trkpt lat="66.33315" lon="16.77722">
        <time>2022-03-20T10:00:00Z</time>
      </trkpt>
      <trkpt lat="66.35063" lon="16.83391">
        <time>2022-03-20T11:00:00Z</time>
      </trkpt>
      <trkpt lat="66.35468" lon="16.86022">
        <time>2022-03-20T12:00:00Z</time>
      </trkpt>
      <trkpt lat="66.37475" lon="16.92041">
        <time>2022-03-20T13:00:00Z</time>
      </trkpt>
      <trkpt lat="66.38755" lon="16.96564">
        <time>2022-03-20T13:55:00Z</time>
      </trkpt>
      <trkpt lat="66.3875" lon="16.96581">
        <time>2022-03-21T07:04:00Z</time>
      </trkpt>
      <trkpt lat="66.39407" lon="17.04583">
        <time>2022-03-21T08:04:00Z</time>
      </trkpt>
      <trkpt lat="66.40321" lon="17.14788">
        <time>2022-03-21T09:04:00Z</time>
      </trkpt>
      <trkpt lat="66.41762" lon="17.18642">
        <time>2022-03-21T10:04:00Z</time>
      </trkpt>
      <trkpt lat="66.43751" lon="17.22729">
        <time>2022-03-21T11:04:00Z</time>
      </trkpt>
      <trkpt lat="66.46183" lon="17.24236">
        <time>2022-03-21T12:19:00Z</time>
      </trkpt>
      <trkpt lat="66.49193" lon="17.23341">
        <time>2022-03-21T13:19:00Z</time>
      </trkpt>
      <trkpt lat="66.51098" lon="17.24212">
        <time>2022-03-21T14:19:00Z</time>
      </trkpt>
      <trkpt lat="66.52651" lon="17.24171">
        <time>2022-03-21T14:52:00Z</time>
      </trkpt>
      <trkpt lat="66.5265" lon="17.24158">
        <time>2022-03-22T07:13:00Z</time>
      </trkpt>
      <trkpt lat="66.55874" lon="17.22824">
        <time>2022-03-22T08:13:00Z</time>
      </trkpt>
      <trkpt lat="66.56287" lon="17.28931">
        <time>2022-03-22T09:13:00Z</time>
      </trkpt>
      <trkpt lat="66.5555" lon="17.36325">
        <time>2022-03-22T10:13:00Z</time>
      </trkpt>
      <trkpt lat="66.57467" lon="17.39934">
        <time>2022-03-22T11:13:00Z</time>
      </trkpt>
      <trkpt lat="66.59672" lon="17.39516">
        <time>2022-03-22T12:13:00Z</time>
      </trkpt>
      <trkpt lat="66.62545" lon="17.38089">
        <time>2022-03-22T13:13:00Z</time>
      </trkpt>
      <trkpt lat="66.65745" lon="17.41449">
        <time>2022-03-22T14:13:00Z</time>
      </trkpt>
      <trkpt lat="66.68359" lon="17.41983">
        <time>2022-03-22T15:13:00Z</time>
      </trkpt>
      <trkpt lat="66.71181" lon="17.38756">
        <time>2022-03-22T16:13:00Z</time>
      </trkpt>
      <trkpt lat="66.71778" lon="17.39417">
        <time>2022-03-22T16:36:00Z</time>
      </trkpt>
      <trkpt lat="66.71815" lon="17.39387">
        <time>2022-03-23T06:49:00Z</time>
      </trkpt>
      <trkpt lat="66.74498" lon="17.4173">
        <time>2022-03-23T07:49:00Z</time>
      </trkpt>
      <trkpt lat="66.7639" lon="17.48678">
        <time>2022-03-23T08:49:00Z</time>
      </trkpt>
      <trkpt lat="66.78167" lon="17.55025">
        <time>2022-03-23T09:49:00Z</time>
      </trkpt>
      <trkpt lat="66.79778" lon="17.53869">
        <time>2022-03-23T10:49:00Z</time>
      </trkpt>
      <trkpt lat="66.81884" lon="17.56225">
        <time>2022-03-23T11:49:00Z</time>
      </trkpt>
      <trkpt lat="66.8449" lon="17.58954">
        <time>2022-03-23T12:57:00Z</time>
      </trkpt>
      <trkpt lat="66.86998" lon="17.60825">
        <time>2022-03-23T13:57:00Z</time>
      </trkpt>
      <trkpt lat="66.88663" lon="17.65696">
        <time>2022-03-23T14:57:00Z</time>
      </trkpt>
      <trkpt lat="66.91858" lon="17.6693">
        <time>2022-03-23T15:57:00Z</time>
      </trkpt>
      <trkpt lat="66.92542" lon="17.71872">
        <time>2022-03-23T16:57:00Z</time>
      </trkpt>
      <trkpt lat="66.92444" lon="17.71912">
        <time>2022-03-23T17:37:00Z</time>
      </trkpt>
      <trkpt lat="66.92547" lon="17.71897">
        <time>2022-03-24T07:09:00Z</time>
      </trkpt>
      <trkpt lat="66.9499" lon="17.72232">
        <time>2022-03-24T08:09:00Z</time>
      </trkpt>
      <trkpt lat="66.95373" lon="17.71979">
        <time>2022-03-24T08:45:00Z</time>
      </trkpt>
      <trkpt lat="66.95895" lon="17.72189">
        <time>2022-03-25T08:07:00Z</time>
      </trkpt>
      <trkpt lat="66.98136" lon="17.76388">
        <time>2022-03-25T09:09:00Z</time>
      </trkpt>
      <trkpt lat="67.00852" lon="17.79174">
        <time>2022-03-25T10:09:00Z</time>
      </trkpt>
      <trkpt lat="67.02625" lon="17.85253">
        <time>2022-03-25T11:09:00Z</time>
      </trkpt>
      <trkpt lat="67.02951" lon="17.90744">
        <time>2022-03-25T12:09:00Z</time>
      </trkpt>
      <trkpt lat="67.04221" lon="17.94265">
        <time>2022-03-25T13:09:00Z</time>
      </trkpt>
      <trkpt lat="67.04242" lon="17.94271">
        <time>2022-03-25T13:12:00Z</time>
      </trkpt>
      <trkpt lat="67.0422" lon="17.94263">
        <time>2022-03-26T07:10:00Z</time>
      </trkpt>
      <trkpt lat="67.04267" lon="17.98614">
        <time>2022-03-26T08:10:00Z</time>
      </trkpt>
      <trkpt lat="67.04675" lon="18.05485">
        <time>2022-03-26T09:12:00Z</time>
      </trkpt>
      <trkpt lat="67.05513" lon="18.12298">
        <time>2022-03-26T10:12:00Z</time>
      </trkpt>
      <trkpt lat="67.05942" lon="18.20186">
        <time>2022-03-26T11:12:00Z</time>
      </trkpt>
      <trkpt lat="67.06246" lon="18.23561">
        <time>2022-03-26T12:12:00Z</time>
      </trkpt>
      <trkpt lat="67.08292" lon="18.28338">
        <time>2022-03-26T13:12:00Z</time>
      </trkpt>
      <trkpt lat="67.09774" lon="18.27346">
        <time>2022-03-26T14:12:00Z</time>
      </trkpt>
      <trkpt lat="67.13163" lon="18.30565">
        <time>2022-03-26T15:12:00Z</time>
      </trkpt>
      <trkpt lat="67.14865" lon="18.30612">
        <time>2022-03-26T16:00:00Z</time>
      </trkpt>
      <trkpt lat="67.14878" lon="18.3064">
        <time>2022-03-27T06:02:00Z</time>
      </trkpt>
      <trkpt lat="67.15069" lon="18.33101">
        <time>2022-03-27T07:02:00Z</time>
      </trkpt>
      <trkpt lat="67.1627" lon="18.34702">
        <time>2022-03-27T08:02:00Z</time>
      </trkpt>
      <trkpt lat="67.17216" lon="18.4103">
        <time>2022-03-27T09:02:00Z</time>
      </trkpt>
      <trkpt lat="67.20741" lon="18.42918">
        <time>2022-03-27T10:02:00Z</time>
      </trkpt>
      <trkpt lat="67.23096" lon="18.43914">
        <time>2022-03-27T11:03:00Z</time>
      </trkpt>
      <trkpt lat="67.23222" lon="18.44083">
        <time>2022-03-27T11:15:00Z</time>
      </trkpt>
      <trkpt lat="67.23186" lon="18.44083">
        <time>2022-03-28T06:00:00Z</time>
      </trkpt>
      <trkpt lat="67.24278" lon="18.4566">
        <time>2022-03-28T07:00:00Z</time>
      </trkpt>
      <trkpt lat="67.26461" lon="18.46853">
        <time>2022-03-28T08:00:00Z</time>
      </trkpt>
      <trkpt lat="67.28642" lon="18.46896">
        <time>2022-03-28T09:00:00Z</time>
      </trkpt>
      <trkpt lat="67.30571" lon="18.48937">
        <time>2022-03-28T10:00:00Z</time>
      </trkpt>
      <trkpt lat="67.32354" lon="18.49952">
        <time>2022-03-28T11:01:00Z</time>
      </trkpt>
      <trkpt lat="67.33202" lon="18.50915">
        <time>2022-03-28T12:01:00Z</time>
      </trkpt>
      <trkpt lat="67.35797" lon="18.50375">
        <time>2022-03-28T13:01:00Z</time>
      </trkpt>
      <trkpt lat="67.38777" lon="18.53282">
        <time>2022-03-28T14:01:00Z</time>
      </trkpt>
      <trkpt lat="67.39397" lon="18.52031">
        <time>2022-03-28T14:23:00Z</time>
      </trkpt>
      <trkpt lat="67.39494" lon="18.51714">
        <time>2022-03-29T06:27:00Z</time>
      </trkpt>
      <trkpt lat="67.41271" lon="18.46675">
        <time>2022-03-29T07:29:00Z</time>
      </trkpt>
      <trkpt lat="67.42863" lon="18.4336">
        <time>2022-03-29T08:29:00Z</time>
      </trkpt>
      <trkpt lat="67.44478" lon="18.39639">
        <time>2022-03-29T09:29:00Z</time>
      </trkpt>
      <trkpt lat="67.47225" lon="18.37107">
        <time>2022-03-29T10:29:00Z</time>
      </trkpt>
      <trkpt lat="67.48195" lon="18.3564">
        <time>2022-03-29T12:45:00Z</time>
      </trkpt>
      <trkpt lat="67.50379" lon="18.40485">
        <time>2022-03-29T13:45:00Z</time>
      </trkpt>
      <trkpt lat="67.50616" lon="18.44152">
        <time>2022-03-29T14:46:00Z</time>
      </trkpt>
      <trkpt lat="67.50597" lon="18.44006">
        <time>2022-03-29T14:55:00Z</time>
      </trkpt>
      <trkpt lat="67.50611" lon="18.43982">
        <time>2022-03-30T06:10:00Z</time>
      </trkpt>
      <trkpt lat="67.52971" lon="18.47731">
        <time>2022-03-30T07:10:00Z</time>
      </trkpt>
      <trkpt lat="67.5523" lon="18.45716">
        <time>2022-03-30T08:10:00Z</time>
      </trkpt>
      <trkpt lat="67.57497" lon="18.40008">
        <time>2022-03-30T09:10:00Z</time>
      </trkpt>
      <trkpt lat="67.60045" lon="18.37996">
        <time>2022-03-30T10:10:00Z</time>
      </trkpt>
      <trkpt lat="67.61828" lon="18.36393">
        <time>2022-03-30T11:10:00Z</time>
      </trkpt>
      <trkpt lat="67.63396" lon="18.32648">
        <time>2022-03-30T12:10:00Z</time>
      </trkpt>
      <trkpt lat="67.64885" lon="18.2941">
        <time>2022-03-30T13:10:00Z</time>
      </trkpt>
      <trkpt lat="67.66756" lon="18.22239">
        <time>2022-03-30T14:10:00Z</time>
      </trkpt>
      <trkpt lat="67.69431" lon="18.15712">
        <time>2022-03-30T15:10:00Z</time>
      </trkpt>
      <trkpt lat="67.69484" lon="18.15635">
        <time>2022-03-30T15:15:00Z</time>
      </trkpt>
      <trkpt lat="67.69461" lon="18.15542">
        <time>2022-03-31T05:58:00Z</time>
      </trkpt>
      <trkpt lat="67.69628" lon="18.16871">
        <time>2022-03-31T06:58:00Z</time>
      </trkpt>
      <trkpt lat="67.70633" lon="18.18845">
        <time>2022-03-31T07:58:00Z</time>
      </trkpt>
      <trkpt lat="67.72903" lon="18.23419">
        <time>2022-03-31T08:58:00Z</time>
      </trkpt>
      <trkpt lat="67.74664" lon="18.29552">
        <time>2022-03-31T09:58:00Z</time>
      </trkpt>
      <trkpt lat="67.74655" lon="18.2955">
        <time>2022-03-31T10:59:00Z</time>
      </trkpt>
      <trkpt lat="67.75479" lon="18.29333">
        <time>2022-03-31T11:59:00Z</time>
      </trkpt>
      <trkpt lat="67.77669" lon="18.28425">
        <time>2022-03-31T12:59:00Z</time>
      </trkpt>
      <trkpt lat="67.81515" lon="18.29644">
        <time>2022-03-31T13:59:00Z</time>
      </trkpt>
      <trkpt lat="67.84579" lon="18.3247">
        <time>2022-03-31T14:59:00Z</time>
      </trkpt>
      <trkpt lat="67.85131" lon="18.31575">
        <time>2022-03-31T15:28:00Z</time>
      </trkpt>
      <trkpt lat="67.8512" lon="18.31578">
        <time>2022-04-01T05:51:00Z</time>
      </trkpt>
      <trkpt lat="67.87877" lon="18.31936">
        <time>2022-04-01T06:51:00Z</time>
      </trkpt>
      <trkpt lat="67.90869" lon="18.31166">
        <time>2022-04-01T07:51:00Z</time>
      </trkpt>
      <trkpt lat="67.94172" lon="18.28709">
        <time>2022-04-01T08:51:00Z</time>
      </trkpt>
      <trkpt lat="67.94619" lon="18.28237">
        <time>2022-04-01T09:56:00Z</time>
      </trkpt>
      <trkpt lat="67.97529" lon="18.25413">
        <time>2022-04-01T10:56:00Z</time>
      </trkpt>
      <trkpt lat="68.00583" lon="18.2425">
        <time>2022-04-01T11:56:00Z</time>
      </trkpt>
      <trkpt lat="68.01743" lon="18.24353">
        <time>2022-04-01T12:56:00Z</time>
      </trkpt>
      <trkpt lat="68.04136" lon="18.24557">
        <time>2022-04-01T13:56:00Z</time>
      </trkpt>
      <trkpt lat="68.05148" lon="18.24175">
        <time>2022-04-01T14:27:00Z</time>
      </trkpt>
      <trkpt lat="68.0516" lon="18.24188">
        <time>2022-04-02T05:35:00Z</time>
      </trkpt>
      <trkpt lat="68.08017" lon="18.27773">
        <time>2022-04-02T06:35:00Z</time>
      </trkpt>
      <trkpt lat="68.10143" lon="18.31595">
        <time>2022-04-02T07:35:00Z</time>
      </trkpt>
      <trkpt lat="68.12166" lon="18.3909">
        <time>2022-04-02T08:35:00Z</time>
      </trkpt>
      <trkpt lat="68.13648" lon="18.41506">
        <time>2022-04-02T10:10:00Z</time>
      </trkpt>
      <trkpt lat="68.1368" lon="18.41547">
        <time>2022-04-03T05:30:00Z</time>
      </trkpt>
      <trkpt lat="68.15477" lon="18.4415">
        <time>2022-04-03T06:30:00Z</time>
      </trkpt>
      <trkpt lat="68.17887" lon="18.47143">
        <time>2022-04-03T07:30:00Z</time>
      </trkpt>
      <trkpt lat="68.19738" lon="18.51523">
        <time>2022-04-03T08:30:00Z</time>
      </trkpt>
      <trkpt lat="68.21674" lon="18.56346">
        <time>2022-04-03T09:30:00Z</time>
      </trkpt>
      <trkpt lat="68.23385" lon="18.59872">
        <time>2022-04-03T10:30:00Z</time>
      </trkpt>
      <trkpt lat="68.25686" lon="18.58844">
        <time>2022-04-03T11:30:00Z</time>
      </trkpt>
      <trkpt lat="68.28556" lon="18.5891">
        <time>2022-04-03T12:30:00Z</time>
      </trkpt>
      <trkpt lat="68.30476" lon="18.65788">
        <time>2022-04-03T13:30:00Z</time>
      </trkpt>
      <trkpt lat="68.31761" lon="18.7395">
        <time>2022-04-03T14:31:00Z</time>
      </trkpt>
      <trkpt lat="68.32795" lon="18.75401">
        <time>2022-04-03T15:28:00Z</time>
      </trkpt>
      <trkpt lat="68.32791" lon="18.75401">
        <time>2022-04-04T06:33:00Z</time>
      </trkpt>
      <trkpt lat="68.35475" lon="18.76639">
        <time>2022-04-04T07:33:00Z</time>
      </trkpt>
      <trkpt lat="68.35833" lon="18.78368">
        <time>2022-04-04T08:17:00Z</time>
      </trkpt>
      <trkpt lat="68.35895" lon="18.78497">
        <time>2022-04-06T06:51:00Z</time>
      </trkpt>
      <trkpt lat="68.36146" lon="18.82243">
        <time>2022-04-06T07:51:00Z</time>
      </trkpt>
      <trkpt lat="68.36454" lon="18.87089">
        <time>2022-04-06T08:51:00Z</time>
      </trkpt>
      <trkpt lat="68.37038" lon="18.92517">
        <time>2022-04-06T09:51:00Z</time>
      </trkpt>
      <trkpt lat="68.36841" lon="18.99648">
        <time>2022-04-06T10:51:00Z</time>
      </trkpt>
      <trkpt lat="68.37007" lon="19.04263">
        <time>2022-04-06T11:51:00Z</time>
      </trkpt>
      <trkpt lat="68.36154" lon="19.11102">
        <time>2022-04-06T12:51:00Z</time>
      </trkpt>
      <trkpt lat="68.34056" lon="19.17033">
        <time>2022-04-06T13:52:00Z</time>
      </trkpt>
      <trkpt lat="68.32518" lon="19.21487">
        <time>2022-04-06T14:52:00Z</time>
      </trkpt>
      <trkpt lat="68.31176" lon="19.23936">
        <time>2022-04-06T15:52:00Z</time>
      </trkpt>
      <trkpt lat="68.30468" lon="19.23412">
        <time>2022-04-06T16:48:00Z</time>
      </trkpt>
      <trkpt lat="68.30475" lon="19.23399">
        <time>2022-04-07T06:51:00Z</time>
      </trkpt>
      <trkpt lat="68.30901" lon="19.24878">
        <time>2022-04-07T07:51:00Z</time>
      </trkpt>
      <trkpt lat="68.31256" lon="19.26833">
        <time>2022-04-07T08:51:00Z</time>
      </trkpt>
      <trkpt lat="68.31527" lon="19.29354">
        <time>2022-04-07T09:51:00Z</time>
      </trkpt>
      <trkpt lat="68.31325" lon="19.32487">
        <time>2022-04-07T10:51:00Z</time>
      </trkpt>
      <trkpt lat="68.30402" lon="19.36864">
        <time>2022-04-07T11:51:00Z</time>
      </trkpt>
      <trkpt lat="68.3051" lon="19.42128">
        <time>2022-04-07T12:51:00Z</time>
      </trkpt>
      <trkpt lat="68.30108" lon="19.49041">
        <time>2022-04-07T13:51:00Z</time>
      </trkpt>
      <trkpt lat="68.30108" lon="19.54663">
        <time>2022-04-07T14:51:00Z</time>
      </trkpt>
      <trkpt lat="68.30265" lon="19.55285">
        <time>2022-04-07T15:09:00Z</time>
      </trkpt>
      <trkpt lat="68.30256" lon="19.553">
        <time>2022-04-08T06:19:00Z</time>
      </trkpt>
      <trkpt lat="68.30105" lon="19.60759">
        <time>2022-04-08T07:19:00Z</time>
      </trkpt>
      <trkpt lat="68.30217" lon="19.69868">
        <time>2022-04-08T08:19:00Z</time>
      </trkpt>
      <trkpt lat="68.30894" lon="19.77958">
        <time>2022-04-08T09:19:00Z</time>
      </trkpt>
      <trkpt lat="68.31903" lon="19.82964">
        <time>2022-04-08T10:19:00Z</time>
      </trkpt>
      <trkpt lat="68.31936" lon="19.84582">
        <time>2022-04-08T11:19:00Z</time>
      </trkpt>
      <trkpt lat="68.30362" lon="19.88744">
        <time>2022-04-08T12:19:00Z</time>
      </trkpt>
      <trkpt lat="68.30799" lon="19.93669">
        <time>2022-04-08T13:19:00Z</time>
      </trkpt>
      <trkpt lat="68.33362" lon="19.9586">
        <time>2022-04-08T14:19:00Z</time>
      </trkpt>
      <trkpt lat="68.33495" lon="19.96049">
        <time>2022-04-08T14:30:00Z</time>
      </trkpt>
      <trkpt lat="68.33502" lon="19.96036">
        <time>2022-04-09T06:24:00Z</time>
      </trkpt>
      <trkpt lat="68.35502" lon="19.99767">
        <time>2022-04-09T07:24:00Z</time>
      </trkpt>
      <trkpt lat="68.36943" lon="20.05106">
        <time>2022-04-09T08:24:00Z</time>
      </trkpt>
      <trkpt lat="68.39144" lon="20.06372">
        <time>2022-04-09T09:24:00Z</time>
      </trkpt>
      <trkpt lat="68.41189" lon="20.08157">
        <time>2022-04-09T10:24:00Z</time>
      </trkpt>
      <trkpt lat="68.42001" lon="20.11429">
        <time>2022-04-09T11:24:00Z</time>
      </trkpt>
      <trkpt lat="68.43346" lon="20.17206">
        <time>2022-04-09T12:24:00Z</time>
      </trkpt>
      <trkpt lat="68.46248" lon="20.21517">
        <time>2022-04-09T13:24:00Z</time>
      </trkpt>
      <trkpt lat="68.4755" lon="20.22984">
        <time>2022-04-09T13:54:00Z</time>
      </trkpt>
      <trkpt lat="68.47554" lon="20.22963">
        <time>2022-04-11T05:23:00Z</time>
      </trkpt>
      <trkpt lat="68.49469" lon="20.27795">
        <time>2022-04-11T06:23:00Z</time>
      </trkpt>
      <trkpt lat="68.52511" lon="20.29387">
        <time>2022-04-11T07:23:00Z</time>
      </trkpt>
      <trkpt lat="68.55132" lon="20.31563">
        <time>2022-04-11T08:23:00Z</time>
      </trkpt>
      <trkpt lat="68.57423" lon="20.36101">
        <time>2022-04-11T09:24:00Z</time>
      </trkpt>
      <trkpt lat="68.59482" lon="20.41498">
        <time>2022-04-11T10:24:00Z</time>
      </trkpt>
      <trkpt lat="68.6132" lon="20.41843">
        <time>2022-04-11T11:24:00Z</time>
      </trkpt>
      <trkpt lat="68.63761" lon="20.43399">
        <time>2022-04-11T12:24:00Z</time>
      </trkpt>
      <trkpt lat="68.66084" lon="20.45665">
        <time>2022-04-11T13:24:00Z</time>
      </trkpt>
      <trkpt lat="68.68892" lon="20.49206">
        <time>2022-04-11T14:24:00Z</time>
      </trkpt>
      <trkpt lat="68.71462" lon="20.51433">
        <time>2022-04-11T15:24:00Z</time>
      </trkpt>
      <trkpt lat="68.73805" lon="20.55686">
        <time>2022-04-11T16:24:00Z</time>
      </trkpt>
      <trkpt lat="68.73769" lon="20.55686">
        <time>2022-04-11T16:38:00Z</time>
      </trkpt>
      <trkpt lat="68.7377" lon="20.55699">
        <time>2022-04-12T07:10:00Z</time>
      </trkpt>
      <trkpt lat="68.75137" lon="20.61726">
        <time>2022-04-12T08:10:00Z</time>
      </trkpt>
      <trkpt lat="68.77069" lon="20.6567">
        <time>2022-04-12T09:11:00Z</time>
      </trkpt>
      <trkpt lat="68.79111" lon="20.71779">
        <time>2022-04-12T10:11:00Z</time>
      </trkpt>
      <trkpt lat="68.8123" lon="20.73822">
        <time>2022-04-12T11:11:00Z</time>
      </trkpt>
      <trkpt lat="68.83105" lon="20.73678">
        <time>2022-04-12T12:11:00Z</time>
      </trkpt>
      <trkpt lat="68.85485" lon="20.71695">
        <time>2022-04-12T13:11:00Z</time>
      </trkpt>
      <trkpt lat="68.855" lon="20.71687">
        <time>2022-04-12T13:44:00Z</time>
      </trkpt>
      <trkpt lat="68.85496" lon="20.71693">
        <time>2022-04-13T05:17:00Z</time>
      </trkpt>
      <trkpt lat="68.86368" lon="20.63893">
        <time>2022-04-13T06:17:00Z</time>
      </trkpt>
      <trkpt lat="68.87206" lon="20.55081">
        <time>2022-04-13T07:17:00Z</time>
      </trkpt>
      <trkpt lat="68.88389" lon="20.47661">
        <time>2022-04-13T08:17:00Z</time>
      </trkpt>
      <trkpt lat="68.89869" lon="20.44612">
        <time>2022-04-13T09:17:00Z</time>
      </trkpt>
      <trkpt lat="68.91377" lon="20.40792">
        <time>2022-04-13T10:17:00Z</time>
      </trkpt>
      <trkpt lat="68.93979" lon="20.37417">
        <time>2022-04-13T11:18:00Z</time>
      </trkpt>
      <trkpt lat="68.97178" lon="20.35387">
        <time>2022-04-13T12:18:00Z</time>
      </trkpt>
      <trkpt lat="68.97408" lon="20.36861">
        <time>2022-04-13T12:35:00Z</time>
      </trkpt>
      <trkpt lat="68.9741" lon="20.36842">
        <time>2022-04-14T05:49:00Z</time>
      </trkpt>
      <trkpt lat="68.98192" lon="20.41189">
        <time>2022-04-14T06:49:00Z</time>
      </trkpt>
      <trkpt lat="68.99436" lon="20.45504">
        <time>2022-04-14T07:49:00Z</time>
      </trkpt>
      <trkpt lat="69.00857" lon="20.48699">
        <time>2022-04-14T08:49:00Z</time>
      </trkpt>
      <trkpt lat="69.03812" lon="20.51512">
        <time>2022-04-14T09:49:00Z</time>
      </trkpt>
      <trkpt lat="69.05994" lon="20.5486">
        <time>2022-04-14T10:36:00Z</time>
      </trkpt>
    </trkseg>
  </trk>
</gpx>
