<?xml version="1.0" encoding="UTF-8"?>
<gpx xmlns="http://www.topografix.com/GPX/1/1" version="1.1" creator="VitaBandet">
  <metadata>
    <name>Hannes och Ebbas band</name>
  </metadata>
  <trk>
    <name>Hannes och Ebbas band</name>
    <trkseg>
      <trkpt lat="62.09842" lon="12.31228">
        <time>2026-02-14T09:32:00Z</time>
      </trkpt>
      <trkpt lat="62.09882" lon="12.31342">
        <time>2026-02-14T09:42:00Z</time>
      </trkpt>
      <trkpt lat="62.0988" lon="12.3137">
        <time>2026-02-14T10:05:00Z</time>
      </trkpt>
      <trkpt lat="62.36931" lon="12.33548">
        <time>2026-02-15T18:23:00Z</time>
      </trkpt>
      <trkpt lat="62.36942" lon="12.33563">
        <time>2026-02-15T18:33:00Z</time>
      </trkpt>
      <trkpt lat="62.36939" lon="12.3356">
        <time>2026-02-15T19:08:00Z</time>
      </trkpt>
      <trkpt lat="62.60099" lon="12.19415">
        <time>2026-02-17T13:16:00Z</time>
      </trkpt>
      <trkpt lat="62.60096" lon="12.19431">
        <time>2026-02-17T13:25:00Z</time>
      </trkpt>
      <trkpt lat="62.9309" lon="12.48298">
        <time>2026-02-19T17:18:00Z</time>
      </trkpt>
      <trkpt lat="62.93554" lon="12.47669">
        <time>2026-02-19T17:28:00Z</time>
      </trkpt>
      <trkpt lat="62.93875" lon="12.4731">
        <time>2026-02-19T17:38:00Z</time>
      </trkpt>
      <trkpt lat="62.94166" lon="12.4672">
        <time>2026-02-19T17:45:00Z</time>
      </trkpt>
      <trkpt lat="63.0424" lon="12.27415">
        <time>2026-02-20T13:40:00Z</time>
      </trkpt>
      <trkpt lat="63.04228" lon="12.2746">
        <time>2026-02-20T13:50:00Z</time>
      </trkpt>
      <trkpt lat="63.04219" lon="12.27458">
        <time>2026-02-20T14:15:00Z</time>
      </trkpt>
      <trkpt lat="63.18556" lon="12.17403">
        <time>2026-02-21T18:38:00Z</time>
      </trkpt>
      <trkpt lat="63.23272" lon="12.16098">
        <time>2026-02-22T10:34:00Z</time>
      </trkpt>
      <trkpt lat="63.24482" lon="12.17699">
        <time>2026-02-22T11:04:00Z</time>
      </trkpt>
      <trkpt lat="63.2584" lon="12.17587">
        <time>2026-02-22T11:34:00Z</time>
      </trkpt>
      <trkpt lat="63.26319" lon="12.16349">
        <time>2026-02-22T12:04:00Z</time>
      </trkpt>
      <trkpt lat="63.3123" lon="12.10914">
        <time>2026-02-22T14:41:00Z</time>
      </trkpt>
      <trkpt lat="63.3124" lon="12.10794">
        <time>2026-02-22T14:55:00Z</time>
      </trkpt>
      <trkpt lat="63.31157" lon="12.10852">
        <time>2026-02-22T16:23:00Z</time>
      </trkpt>
      <trkpt lat="63.3124" lon="12.10802">
        <time>2026-02-22T16:53:00Z</time>
      </trkpt>
      <trkpt lat="63.31967" lon="12.11772">
        <time>2026-02-22T17:23:00Z</time>
      </trkpt>
      <trkpt lat="63.33405" lon="12.13294">
        <time>2026-02-22T17:53:00Z</time>
      </trkpt>
      <trkpt lat="63.34557" lon="12.14388">
        <time>2026-02-22T18:23:00Z</time>
      </trkpt>
      <trkpt lat="63.34816" lon="12.1442">
        <time>2026-02-22T18:53:00Z</time>
      </trkpt>
      <trkpt lat="63.34813" lon="12.14431">
        <time>2026-02-22T19:23:00Z</time>
      </trkpt>
      <trkpt lat="63.34831" lon="12.14422">
        <time>2026-02-22T19:56:00Z</time>
      </trkpt>
      <trkpt lat="63.35502" lon="12.16463">
        <time>2026-02-23T08:59:00Z</time>
      </trkpt>
      <trkpt lat="63.35304" lon="12.22164">
        <time>2026-02-23T09:59:00Z</time>
      </trkpt>
      <trkpt lat="63.37092" lon="12.28224">
        <time>2026-02-23T10:59:00Z</time>
      </trkpt>
      <trkpt lat="63.38995" lon="12.26188">
        <time>2026-02-23T11:59:00Z</time>
      </trkpt>
      <trkpt lat="63.4055" lon="12.23435">
        <time>2026-02-23T12:59:00Z</time>
      </trkpt>
      <trkpt lat="63.41691" lon="12.22559">
        <time>2026-02-23T13:59:00Z</time>
      </trkpt>
      <trkpt lat="63.43218" lon="12.22503">
        <time>2026-02-23T14:59:00Z</time>
      </trkpt>
      <trkpt lat="63.45886" lon="12.24188">
        <time>2026-02-23T15:59:00Z</time>
      </trkpt>
      <trkpt lat="63.48043" lon="12.24977">
        <time>2026-02-23T16:59:00Z</time>
      </trkpt>
      <trkpt lat="63.48758" lon="12.24679">
        <time>2026-02-23T17:59:00Z</time>
      </trkpt>
      <trkpt lat="63.48777" lon="12.2469">
        <time>2026-02-23T18:55:00Z</time>
      </trkpt>
      <trkpt lat="63.48797" lon="12.24718">
        <time>2026-02-24T08:55:00Z</time>
      </trkpt>
      <trkpt lat="63.52777" lon="12.2463">
        <time>2026-02-24T09:55:00Z</time>
      </trkpt>
      <trkpt lat="63.55455" lon="12.26477">
        <time>2026-02-24T10:55:00Z</time>
      </trkpt>
      <trkpt lat="63.5749" lon="12.27589">
        <time>2026-02-24T11:58:00Z</time>
      </trkpt>
      <trkpt lat="63.59014" lon="12.29254">
        <time>2026-02-24T12:58:00Z</time>
      </trkpt>
      <trkpt lat="63.59297" lon="12.31779">
        <time>2026-02-24T13:58:00Z</time>
      </trkpt>
      <trkpt lat="63.60331" lon="12.35753">
        <time>2026-02-24T14:58:00Z</time>
      </trkpt>
      <trkpt lat="63.61889" lon="12.41633">
        <time>2026-02-24T15:58:00Z</time>
      </trkpt>
      <trkpt lat="63.62619" lon="12.47255">
        <time>2026-02-24T16:58:00Z</time>
      </trkpt>
      <trkpt lat="63.62846" lon="12.49377">
        <time>2026-02-24T17:58:00Z</time>
      </trkpt>
      <trkpt lat="63.62845" lon="12.49385">
        <time>2026-02-24T18:58:00Z</time>
      </trkpt>
      <trkpt lat="63.62838" lon="12.49383">
        <time>2026-02-24T20:08:00Z</time>
      </trkpt>
      <trkpt lat="63.62851" lon="12.49533">
        <time>2026-02-25T08:23:00Z</time>
      </trkpt>
      <trkpt lat="63.65475" lon="12.54145">
        <time>2026-02-25T09:23:00Z</time>
      </trkpt>
      <trkpt lat="63.67047" lon="12.57327">
        <time>2026-02-25T10:23:00Z</time>
      </trkpt>
      <trkpt lat="63.68473" lon="12.57612">
        <time>2026-02-25T11:23:00Z</time>
      </trkpt>
      <trkpt lat="63.69193" lon="12.56563">
        <time>2026-02-25T12:23:00Z</time>
      </trkpt>
      <trkpt lat="63.70167" lon="12.61464">
        <time>2026-02-25T13:23:00Z</time>
      </trkpt>
      <trkpt lat="63.71017" lon="12.63391">
        <time>2026-02-25T14:24:00Z</time>
      </trkpt>
      <trkpt lat="63.71031" lon="12.63382">
        <time>2026-02-25T15:24:00Z</time>
      </trkpt>
      <trkpt lat="63.70201" lon="12.65286">
        <time>2026-02-25T16:24:00Z</time>
      </trkpt>
      <trkpt lat="63.69891" lon="12.6935">
        <time>2026-02-25T17:24:00Z</time>
      </trkpt>
      <trkpt lat="63.69919" lon="12.72978">
        <time>2026-02-25T18:24:00Z</time>
      </trkpt>
      <trkpt lat="63.69916" lon="12.72952">
        <time>2026-02-25T19:24:00Z</time>
      </trkpt>
      <trkpt lat="63.69924" lon="12.72948">
        <time>2026-02-25T21:09:00Z</time>
      </trkpt>
      <trkpt lat="63.69925" lon="12.7295">
        <time>2026-02-26T08:33:00Z</time>
      </trkpt>
      <trkpt lat="63.70147" lon="12.76911">
        <time>2026-02-26T09:33:00Z</time>
      </trkpt>
      <trkpt lat="63.68275" lon="12.80922">
        <time>2026-02-26T10:33:00Z</time>
      </trkpt>
      <trkpt lat="63.67178" lon="12.85814">
        <time>2026-02-26T11:33:00Z</time>
      </trkpt>
      <trkpt lat="63.69317" lon="12.93032">
        <time>2026-02-26T12:33:00Z</time>
      </trkpt>
      <trkpt lat="63.70081" lon="12.94281">
        <time>2026-02-26T13:14:00Z</time>
      </trkpt>
      <trkpt lat="63.68969" lon="12.98223">
        <time>2026-02-26T15:07:00Z</time>
      </trkpt>
      <trkpt lat="63.67887" lon="13.04864">
        <time>2026-02-26T16:07:00Z</time>
      </trkpt>
      <trkpt lat="63.65512" lon="13.06662">
        <time>2026-02-26T17:07:00Z</time>
      </trkpt>
      <trkpt lat="63.63784" lon="13.09963">
        <time>2026-02-26T18:07:00Z</time>
      </trkpt>
      <trkpt lat="63.63785" lon="13.09939">
        <time>2026-02-26T19:07:00Z</time>
      </trkpt>
      <trkpt lat="63.63792" lon="13.09812">
        <time>2026-02-27T07:22:00Z</time>
      </trkpt>
      <trkpt lat="63.61953" lon="13.17627">
        <time>2026-02-27T08:22:00Z</time>
      </trkpt>
      <trkpt lat="63.62779" lon="13.22223">
        <time>2026-02-27T09:22:00Z</time>
      </trkpt>
      <trkpt lat="63.63976" lon="13.24356">
        <time>2026-02-27T10:22:00Z</time>
      </trkpt>
      <trkpt lat="63.6484" lon="13.28699">
        <time>2026-02-27T11:22:00Z</time>
      </trkpt>
      <trkpt lat="63.66247" lon="13.28719">
        <time>2026-02-27T12:22:00Z</time>
      </trkpt>
      <trkpt lat="63.67439" lon="13.32201">
        <time>2026-02-27T13:22:00Z</time>
      </trkpt>
      <trkpt lat="63.68115" lon="13.38424">
        <time>2026-02-27T14:22:00Z</time>
      </trkpt>
      <trkpt lat="63.68789" lon="13.43477">
        <time>2026-02-27T15:22:00Z</time>
      </trkpt>
      <trkpt lat="63.68951" lon="13.49041">
        <time>2026-02-27T16:22:00Z</time>
      </trkpt>
      <trkpt lat="63.69294" lon="13.54805">
        <time>2026-02-27T17:22:00Z</time>
      </trkpt>
      <trkpt lat="63.69917" lon="13.60525">
        <time>2026-02-27T18:22:00Z</time>
      </trkpt>
      <trkpt lat="63.70279" lon="13.60392">
        <time>2026-02-27T19:22:00Z</time>
      </trkpt>
      <trkpt lat="63.70275" lon="13.60392">
        <time>2026-02-27T20:22:00Z</time>
      </trkpt>
      <trkpt lat="63.70267" lon="13.60386">
        <time>2026-02-27T20:46:00Z</time>
      </trkpt>
      <trkpt lat="63.70264" lon="13.60388">
        <time>2026-02-28T07:11:00Z</time>
      </trkpt>
      <trkpt lat="63.72328" lon="13.61751">
        <time>2026-02-28T08:11:00Z</time>
      </trkpt>
      <trkpt lat="63.74221" lon="13.62643">
        <time>2026-02-28T09:11:00Z</time>
      </trkpt>
      <trkpt lat="63.75458" lon="13.65856">
        <time>2026-02-28T10:11:00Z</time>
      </trkpt>
      <trkpt lat="63.74524" lon="13.71902">
        <time>2026-02-28T11:11:00Z</time>
      </trkpt>
      <trkpt lat="63.75588" lon="13.77848">
        <time>2026-02-28T12:11:00Z</time>
      </trkpt>
      <trkpt lat="63.7594" lon="13.78189">
        <time>2026-02-28T13:11:00Z</time>
      </trkpt>
      <trkpt lat="63.76708" lon="13.80503">
        <time>2026-02-28T14:11:00Z</time>
      </trkpt>
      <trkpt lat="63.78059" lon="13.82099">
        <time>2026-02-28T15:11:00Z</time>
      </trkpt>
      <trkpt lat="63.78063" lon="13.82112">
        <time>2026-03-02T08:58:00Z</time>
      </trkpt>
      <trkpt lat="63.78878" lon="13.83768">
        <time>2026-03-02T09:28:00Z</time>
      </trkpt>
      <trkpt lat="63.80584" lon="13.83489">
        <time>2026-03-02T09:58:00Z</time>
      </trkpt>
      <trkpt lat="63.81418" lon="13.82917">
        <time>2026-03-02T10:28:00Z</time>
      </trkpt>
      <trkpt lat="63.82562" lon="13.85661">
        <time>2026-03-02T10:58:00Z</time>
      </trkpt>
      <trkpt lat="63.83361" lon="13.87062">
        <time>2026-03-02T11:28:00Z</time>
      </trkpt>
      <trkpt lat="63.85086" lon="13.87811">
        <time>2026-03-02T11:58:00Z</time>
      </trkpt>
      <trkpt lat="63.86929" lon="13.8691">
        <time>2026-03-02T12:28:00Z</time>
      </trkpt>
      <trkpt lat="63.86935" lon="13.86903">
        <time>2026-03-02T12:58:00Z</time>
      </trkpt>
      <trkpt lat="63.87272" lon="13.86882">
        <time>2026-03-02T13:28:00Z</time>
      </trkpt>
      <trkpt lat="63.88891" lon="13.8556">
        <time>2026-03-02T13:58:00Z</time>
      </trkpt>
      <trkpt lat="63.90189" lon="13.86592">
        <time>2026-03-02T14:28:00Z</time>
      </trkpt>
      <trkpt lat="63.90814" lon="13.86719">
        <time>2026-03-02T14:58:00Z</time>
      </trkpt>
      <trkpt lat="63.92859" lon="13.87882">
        <time>2026-03-02T15:28:00Z</time>
      </trkpt>
      <trkpt lat="63.93315" lon="13.89367">
        <time>2026-03-02T15:58:00Z</time>
      </trkpt>
      <trkpt lat="63.95053" lon="13.92077">
        <time>2026-03-02T16:28:00Z</time>
      </trkpt>
      <trkpt lat="63.96428" lon="13.94901">
        <time>2026-03-02T16:58:00Z</time>
      </trkpt>
      <trkpt lat="63.97196" lon="13.95304">
        <time>2026-03-02T17:28:00Z</time>
      </trkpt>
      <trkpt lat="63.98089" lon="13.97089">
        <time>2026-03-02T17:58:00Z</time>
      </trkpt>
      <trkpt lat="63.98086" lon="13.97079">
        <time>2026-03-02T18:28:00Z</time>
      </trkpt>
      <trkpt lat="63.981" lon="13.97074">
        <time>2026-03-02T18:58:00Z</time>
      </trkpt>
      <trkpt lat="63.98093" lon="13.97087">
        <time>2026-03-03T08:48:00Z</time>
      </trkpt>
      <trkpt lat="63.99699" lon="13.98733">
        <time>2026-03-03T09:18:00Z</time>
      </trkpt>
      <trkpt lat="64.00089" lon="14.00632">
        <time>2026-03-03T09:48:00Z</time>
      </trkpt>
      <trkpt lat="64.00606" lon="14.01913">
        <time>2026-03-03T10:18:00Z</time>
      </trkpt>
      <trkpt lat="64.01746" lon="14.01462">
        <time>2026-03-03T10:48:00Z</time>
      </trkpt>
      <trkpt lat="64.0219" lon="14.03183">
        <time>2026-03-03T11:18:00Z</time>
      </trkpt>
      <trkpt lat="64.02848" lon="14.03703">
        <time>2026-03-03T11:48:00Z</time>
      </trkpt>
      <trkpt lat="64.03649" lon="14.0313">
        <time>2026-03-03T12:18:00Z</time>
      </trkpt>
      <trkpt lat="64.03804" lon="14.02939">
        <time>2026-03-03T12:48:00Z</time>
      </trkpt>
      <trkpt lat="64.03896" lon="14.05057">
        <time>2026-03-03T13:18:00Z</time>
      </trkpt>
      <trkpt lat="64.04373" lon="14.08026">
        <time>2026-03-03T13:48:00Z</time>
      </trkpt>
      <trkpt lat="64.05057" lon="14.09022">
        <time>2026-03-03T14:18:00Z</time>
      </trkpt>
      <trkpt lat="64.0658" lon="14.09505">
        <time>2026-03-03T14:48:00Z</time>
      </trkpt>
      <trkpt lat="64.06884" lon="14.13275">
        <time>2026-03-03T15:18:00Z</time>
      </trkpt>
      <trkpt lat="64.06711" lon="14.14103">
        <time>2026-03-03T15:33:00Z</time>
      </trkpt>
      <trkpt lat="64.07044" lon="14.13635">
        <time>2026-03-04T12:15:00Z</time>
      </trkpt>
      <trkpt lat="64.0874" lon="14.13811">
        <time>2026-03-04T12:45:00Z</time>
      </trkpt>
      <trkpt lat="64.09876" lon="14.14839">
        <time>2026-03-04T13:15:00Z</time>
      </trkpt>
      <trkpt lat="64.11375" lon="14.15105">
        <time>2026-03-04T13:45:00Z</time>
      </trkpt>
      <trkpt lat="64.12599" lon="14.15513">
        <time>2026-03-04T14:15:00Z</time>
      </trkpt>
      <trkpt lat="64.12715" lon="14.16058">
        <time>2026-03-04T14:45:00Z</time>
      </trkpt>
      <trkpt lat="64.1299" lon="14.17996">
        <time>2026-03-04T15:15:00Z</time>
      </trkpt>
      <trkpt lat="64.13392" lon="14.18742">
        <time>2026-03-04T15:45:00Z</time>
      </trkpt>
      <trkpt lat="64.13985" lon="14.19206">
        <time>2026-03-04T16:15:00Z</time>
      </trkpt>
      <trkpt lat="64.14604" lon="14.21141">
        <time>2026-03-04T16:45:00Z</time>
      </trkpt>
      <trkpt lat="64.14746" lon="14.21557">
        <time>2026-03-04T17:15:00Z</time>
      </trkpt>
      <trkpt lat="64.14787" lon="14.21562">
        <time>2026-03-04T17:45:00Z</time>
      </trkpt>
      <trkpt lat="64.14794" lon="14.21555">
        <time>2026-03-04T19:59:00Z</time>
      </trkpt>
      <trkpt lat="64.14772" lon="14.21581">
        <time>2026-03-05T07:50:00Z</time>
      </trkpt>
      <trkpt lat="64.14738" lon="14.2372">
        <time>2026-03-05T08:20:00Z</time>
      </trkpt>
      <trkpt lat="64.15546" lon="14.24963">
        <time>2026-03-05T08:50:00Z</time>
      </trkpt>
      <trkpt lat="64.15679" lon="14.2551">
        <time>2026-03-05T09:20:00Z</time>
      </trkpt>
      <trkpt lat="64.16626" lon="14.27162">
        <time>2026-03-05T09:50:00Z</time>
      </trkpt>
      <trkpt lat="64.16993" lon="14.30222">
        <time>2026-03-05T10:20:00Z</time>
      </trkpt>
      <trkpt lat="64.17503" lon="14.30113">
        <time>2026-03-05T10:50:00Z</time>
      </trkpt>
      <trkpt lat="64.18755" lon="14.28289">
        <time>2026-03-05T11:20:00Z</time>
      </trkpt>
      <trkpt lat="64.19844" lon="14.28244">
        <time>2026-03-05T11:50:00Z</time>
      </trkpt>
      <trkpt lat="64.20584" lon="14.27827">
        <time>2026-03-05T12:20:00Z</time>
      </trkpt>
      <trkpt lat="64.21718" lon="14.28722">
        <time>2026-03-05T12:50:00Z</time>
      </trkpt>
      <trkpt lat="64.22069" lon="14.29634">
        <time>2026-03-05T13:20:00Z</time>
      </trkpt>
      <trkpt lat="64.22289" lon="14.30469">
        <time>2026-03-05T13:50:00Z</time>
      </trkpt>
      <trkpt lat="64.239" lon="14.32464">
        <time>2026-03-05T14:20:00Z</time>
      </trkpt>
      <trkpt lat="64.2471" lon="14.34732">
        <time>2026-03-05T14:50:00Z</time>
      </trkpt>
      <trkpt lat="64.25097" lon="14.35947">
        <time>2026-03-05T15:20:00Z</time>
      </trkpt>
      <trkpt lat="64.25683" lon="14.37578">
        <time>2026-03-05T15:50:00Z</time>
      </trkpt>
      <trkpt lat="64.26046" lon="14.39569">
        <time>2026-03-05T16:20:00Z</time>
      </trkpt>
      <trkpt lat="64.26996" lon="14.41258">
        <time>2026-03-05T16:50:00Z</time>
      </trkpt>
      <trkpt lat="64.27153" lon="14.42423">
        <time>2026-03-05T17:20:00Z</time>
      </trkpt>
      <trkpt lat="64.27757" lon="14.40612">
        <time>2026-03-05T17:50:00Z</time>
      </trkpt>
      <trkpt lat="64.28568" lon="14.40457">
        <time>2026-03-05T18:20:00Z</time>
      </trkpt>
      <trkpt lat="64.29389" lon="14.3917">
        <time>2026-03-05T18:50:00Z</time>
      </trkpt>
      <trkpt lat="64.30245" lon="14.38588">
        <time>2026-03-05T19:20:00Z</time>
      </trkpt>
      <trkpt lat="64.30267" lon="14.38569">
        <time>2026-03-05T19:50:00Z</time>
      </trkpt>
      <trkpt lat="64.30264" lon="14.38621">
        <time>2026-03-05T20:24:00Z</time>
      </trkpt>
      <trkpt lat="64.30273" lon="14.38582">
        <time>2026-03-06T07:38:00Z</time>
      </trkpt>
      <trkpt lat="64.31555" lon="14.38649">
        <time>2026-03-06T08:08:00Z</time>
      </trkpt>
      <trkpt lat="64.33182" lon="14.41181">
        <time>2026-03-06T08:38:00Z</time>
      </trkpt>
      <trkpt lat="64.33819" lon="14.40603">
        <time>2026-03-06T09:08:00Z</time>
      </trkpt>
      <trkpt lat="64.35672" lon="14.40578">
        <time>2026-03-06T09:38:00Z</time>
      </trkpt>
      <trkpt lat="64.3717" lon="14.38567">
        <time>2026-03-06T10:08:00Z</time>
      </trkpt>
      <trkpt lat="64.37339" lon="14.36966">
        <time>2026-03-06T10:38:00Z</time>
      </trkpt>
      <trkpt lat="64.38481" lon="14.3263">
        <time>2026-03-06T11:08:00Z</time>
      </trkpt>
      <trkpt lat="64.38886" lon="14.31851">
        <time>2026-03-06T11:38:00Z</time>
      </trkpt>
      <trkpt lat="64.40042" lon="14.29012">
        <time>2026-03-06T12:08:00Z</time>
      </trkpt>
      <trkpt lat="64.41071" lon="14.26441">
        <time>2026-03-06T12:38:00Z</time>
      </trkpt>
      <trkpt lat="64.41071" lon="14.26437">
        <time>2026-03-06T13:08:00Z</time>
      </trkpt>
      <trkpt lat="64.42451" lon="14.22753">
        <time>2026-03-06T13:38:00Z</time>
      </trkpt>
      <trkpt lat="64.4326" lon="14.21103">
        <time>2026-03-06T14:08:00Z</time>
      </trkpt>
      <trkpt lat="64.4326" lon="14.21111">
        <time>2026-03-06T14:38:00Z</time>
      </trkpt>
      <trkpt lat="64.44215" lon="14.18064">
        <time>2026-03-06T15:08:00Z</time>
      </trkpt>
      <trkpt lat="64.45133" lon="14.15453">
        <time>2026-03-06T15:38:00Z</time>
      </trkpt>
      <trkpt lat="64.46223" lon="14.15989">
        <time>2026-03-06T16:08:00Z</time>
      </trkpt>
      <trkpt lat="64.47192" lon="14.14517">
        <time>2026-03-06T16:38:00Z</time>
      </trkpt>
      <trkpt lat="64.48903" lon="14.13416">
        <time>2026-03-06T17:08:00Z</time>
      </trkpt>
      <trkpt lat="64.49918" lon="14.14193">
        <time>2026-03-06T17:39:00Z</time>
      </trkpt>
      <trkpt lat="64.50666" lon="14.1441">
        <time>2026-03-06T18:09:00Z</time>
      </trkpt>
      <trkpt lat="64.50678" lon="14.14322">
        <time>2026-03-06T18:22:00Z</time>
      </trkpt>
      <trkpt lat="64.50707" lon="14.1468">
        <time>2026-03-07T09:40:00Z</time>
      </trkpt>
      <trkpt lat="64.50697" lon="14.14629">
        <time>2026-03-07T09:40:00Z</time>
      </trkpt>
      <trkpt lat="64.51228" lon="14.15152">
        <time>2026-03-07T10:10:00Z</time>
      </trkpt>
      <trkpt lat="64.5317" lon="14.14107">
        <time>2026-03-07T10:40:00Z</time>
      </trkpt>
      <trkpt lat="64.53234" lon="14.14039">
        <time>2026-03-07T10:51:00Z</time>
      </trkpt>
      <trkpt lat="64.5384" lon="14.13361">
        <time>2026-03-07T11:10:00Z</time>
      </trkpt>
      <trkpt lat="64.54976" lon="14.12929">
        <time>2026-03-07T11:40:00Z</time>
      </trkpt>
      <trkpt lat="64.55889" lon="14.13466">
        <time>2026-03-07T12:10:00Z</time>
      </trkpt>
      <trkpt lat="64.55888" lon="14.13466">
        <time>2026-03-07T12:20:00Z</time>
      </trkpt>
      <trkpt lat="64.56952" lon="14.1282">
        <time>2026-03-07T12:40:00Z</time>
      </trkpt>
      <trkpt lat="64.58908" lon="14.11078">
        <time>2026-03-07T13:10:00Z</time>
      </trkpt>
      <trkpt lat="64.60207" lon="14.10947">
        <time>2026-03-07T13:40:00Z</time>
      </trkpt>
      <trkpt lat="64.60208" lon="14.10957">
        <time>2026-03-07T14:01:00Z</time>
      </trkpt>
      <trkpt lat="64.60206" lon="14.10962">
        <time>2026-03-07T14:10:00Z</time>
      </trkpt>
      <trkpt lat="64.61572" lon="14.11749">
        <time>2026-03-07T14:40:00Z</time>
      </trkpt>
      <trkpt lat="64.62294" lon="14.11689">
        <time>2026-03-07T14:51:00Z</time>
      </trkpt>
      <trkpt lat="64.63291" lon="14.12213">
        <time>2026-03-07T15:10:00Z</time>
      </trkpt>
      <trkpt lat="64.64572" lon="14.13217">
        <time>2026-03-07T15:40:00Z</time>
      </trkpt>
      <trkpt lat="64.65396" lon="14.14004">
        <time>2026-03-07T16:10:00Z</time>
      </trkpt>
      <trkpt lat="64.65395" lon="14.14007">
        <time>2026-03-07T16:10:00Z</time>
      </trkpt>
      <trkpt lat="64.6697" lon="14.15998">
        <time>2026-03-07T16:40:00Z</time>
      </trkpt>
      <trkpt lat="64.67204" lon="14.1735">
        <time>2026-03-07T17:10:00Z</time>
      </trkpt>
      <trkpt lat="64.67835" lon="14.20757">
        <time>2026-03-07T17:40:00Z</time>
      </trkpt>
      <trkpt lat="64.67835" lon="14.20757">
        <time>2026-03-07T17:40:00Z</time>
      </trkpt>
      <trkpt lat="64.67916" lon="14.20772">
        <time>2026-03-07T18:10:00Z</time>
      </trkpt>
      <trkpt lat="64.67922" lon="14.20768">
        <time>2026-03-07T18:14:00Z</time>
      </trkpt>
      <trkpt lat="64.67913" lon="14.20764">
        <time>2026-03-07T18:16:00Z</time>
      </trkpt>
      <trkpt lat="64.68141" lon="14.19697">
        <time>2026-03-08T08:31:00Z</time>
      </trkpt>
      <trkpt lat="64.69783" lon="14.20186">
        <time>2026-03-08T09:01:00Z</time>
      </trkpt>
      <trkpt lat="64.70135" lon="14.19088">
        <time>2026-03-08T09:31:00Z</time>
      </trkpt>
      <trkpt lat="64.71662" lon="14.17856">
        <time>2026-03-08T10:01:00Z</time>
      </trkpt>
      <trkpt lat="64.73367" lon="14.17757">
        <time>2026-03-08T10:31:00Z</time>
      </trkpt>
      <trkpt lat="64.73924" lon="14.18075">
        <time>2026-03-08T11:01:00Z</time>
      </trkpt>
      <trkpt lat="64.75892" lon="14.19504">
        <time>2026-03-08T11:31:00Z</time>
      </trkpt>
      <trkpt lat="64.77128" lon="14.20028">
        <time>2026-03-08T12:01:00Z</time>
      </trkpt>
      <trkpt lat="64.77131" lon="14.2003">
        <time>2026-03-08T12:31:00Z</time>
      </trkpt>
      <trkpt lat="64.78805" lon="14.19976">
        <time>2026-03-08T13:31:00Z</time>
      </trkpt>
      <trkpt lat="64.808" lon="14.21727">
        <time>2026-03-08T14:01:00Z</time>
      </trkpt>
      <trkpt lat="64.81042" lon="14.22087">
        <time>2026-03-08T14:31:00Z</time>
      </trkpt>
      <trkpt lat="64.82185" lon="14.23311">
        <time>2026-03-08T15:01:00Z</time>
      </trkpt>
      <trkpt lat="64.83564" lon="14.23892">
        <time>2026-03-08T15:31:00Z</time>
      </trkpt>
      <trkpt lat="64.83561" lon="14.23924">
        <time>2026-03-08T16:01:00Z</time>
      </trkpt>
      <trkpt lat="64.852" lon="14.22772">
        <time>2026-03-08T16:31:00Z</time>
      </trkpt>
      <trkpt lat="64.87339" lon="14.21394">
        <time>2026-03-08T17:01:00Z</time>
      </trkpt>
      <trkpt lat="64.87598" lon="14.21253">
        <time>2026-03-08T17:31:00Z</time>
      </trkpt>
      <trkpt lat="64.882" lon="14.18159">
        <time>2026-03-08T18:01:00Z</time>
      </trkpt>
      <trkpt lat="64.88227" lon="14.17927">
        <time>2026-03-08T18:31:00Z</time>
      </trkpt>
      <trkpt lat="64.88221" lon="14.17927">
        <time>2026-03-08T19:01:00Z</time>
      </trkpt>
      <trkpt lat="64.88195" lon="14.17908">
        <time>2026-03-08T20:21:00Z</time>
      </trkpt>
      <trkpt lat="64.88229" lon="14.1792">
        <time>2026-03-09T07:56:00Z</time>
      </trkpt>
      <trkpt lat="64.88228" lon="14.17923">
        <time>2026-03-09T07:56:00Z</time>
      </trkpt>
      <trkpt lat="64.89113" lon="14.16689">
        <time>2026-03-09T08:26:00Z</time>
      </trkpt>
      <trkpt lat="64.89996" lon="14.16714">
        <time>2026-03-09T08:56:00Z</time>
      </trkpt>
      <trkpt lat="64.90231" lon="14.15923">
        <time>2026-03-09T09:26:00Z</time>
      </trkpt>
      <trkpt lat="64.90231" lon="14.15921">
        <time>2026-03-09T09:26:00Z</time>
      </trkpt>
      <trkpt lat="64.91543" lon="14.15185">
        <time>2026-03-09T09:56:00Z</time>
      </trkpt>
      <trkpt lat="64.92277" lon="14.16764">
        <time>2026-03-09T10:26:00Z</time>
      </trkpt>
      <trkpt lat="64.92276" lon="14.16764">
        <time>2026-03-09T10:26:00Z</time>
      </trkpt>
      <trkpt lat="64.93396" lon="14.18744">
        <time>2026-03-09T10:56:00Z</time>
      </trkpt>
      <trkpt lat="64.9435" lon="14.19757">
        <time>2026-03-09T11:17:00Z</time>
      </trkpt>
      <trkpt lat="64.94678" lon="14.19933">
        <time>2026-03-09T11:26:00Z</time>
      </trkpt>
      <trkpt lat="64.94895" lon="14.19721">
        <time>2026-03-09T11:56:00Z</time>
      </trkpt>
      <trkpt lat="64.96737" lon="14.20459">
        <time>2026-03-09T12:26:00Z</time>
      </trkpt>
      <trkpt lat="64.96736" lon="14.20457">
        <time>2026-03-09T12:26:00Z</time>
      </trkpt>
      <trkpt lat="64.96737" lon="14.20429">
        <time>2026-03-09T12:56:00Z</time>
      </trkpt>
      <trkpt lat="64.96738" lon="14.20429">
        <time>2026-03-09T12:56:00Z</time>
      </trkpt>
      <trkpt lat="64.98405" lon="14.21283">
        <time>2026-03-09T13:56:00Z</time>
      </trkpt>
      <trkpt lat="64.99855" lon="14.24085">
        <time>2026-03-09T14:26:00Z</time>
      </trkpt>
      <trkpt lat="64.99854" lon="14.24083">
        <time>2026-03-09T14:26:00Z</time>
      </trkpt>
      <trkpt lat="65.00117" lon="14.24611">
        <time>2026-03-09T14:56:00Z</time>
      </trkpt>
      <trkpt lat="65.01382" lon="14.28559">
        <time>2026-03-09T15:26:00Z</time>
      </trkpt>
      <trkpt lat="65.02315" lon="14.31799">
        <time>2026-03-09T15:56:00Z</time>
      </trkpt>
      <trkpt lat="65.02315" lon="14.31799">
        <time>2026-03-09T15:56:00Z</time>
      </trkpt>
      <trkpt lat="65.03212" lon="14.32449">
        <time>2026-03-09T16:26:00Z</time>
      </trkpt>
      <trkpt lat="65.0462" lon="14.33239">
        <time>2026-03-09T16:56:00Z</time>
      </trkpt>
      <trkpt lat="65.04618" lon="14.33245">
        <time>2026-03-09T16:56:00Z</time>
      </trkpt>
      <trkpt lat="65.04623" lon="14.33239">
        <time>2026-03-09T17:26:00Z</time>
      </trkpt>
      <trkpt lat="65.04623" lon="14.33211">
        <time>2026-03-09T18:04:00Z</time>
      </trkpt>
      <trkpt lat="65.04661" lon="14.3337">
        <time>2026-03-10T08:38:00Z</time>
      </trkpt>
      <trkpt lat="65.05158" lon="14.35057">
        <time>2026-03-10T09:08:00Z</time>
      </trkpt>
      <trkpt lat="65.06104" lon="14.37966">
        <time>2026-03-10T09:38:00Z</time>
      </trkpt>
      <trkpt lat="65.0674" lon="14.3961">
        <time>2026-03-10T10:08:00Z</time>
      </trkpt>
      <trkpt lat="65.08466" lon="14.45509">
        <time>2026-03-10T10:38:00Z</time>
      </trkpt>
      <trkpt lat="65.10947" lon="14.48362">
        <time>2026-03-10T11:08:00Z</time>
      </trkpt>
      <trkpt lat="65.11845" lon="14.50618">
        <time>2026-03-10T11:38:00Z</time>
      </trkpt>
      <trkpt lat="65.12947" lon="14.53079">
        <time>2026-03-10T12:08:00Z</time>
      </trkpt>
      <trkpt lat="65.13839" lon="14.54214">
        <time>2026-03-10T12:38:00Z</time>
      </trkpt>
      <trkpt lat="65.15447" lon="14.56935">
        <time>2026-03-10T13:08:00Z</time>
      </trkpt>
      <trkpt lat="65.17669" lon="14.57287">
        <time>2026-03-10T13:38:00Z</time>
      </trkpt>
      <trkpt lat="65.18247" lon="14.56697">
        <time>2026-03-10T14:08:00Z</time>
      </trkpt>
      <trkpt lat="65.20269" lon="14.62143">
        <time>2026-03-10T16:01:00Z</time>
      </trkpt>
      <trkpt lat="65.20643" lon="14.64713">
        <time>2026-03-10T16:41:00Z</time>
      </trkpt>
      <trkpt lat="65.20576" lon="14.66331">
        <time>2026-03-10T17:11:00Z</time>
      </trkpt>
      <trkpt lat="65.21014" lon="14.68852">
        <time>2026-03-10T17:41:00Z</time>
      </trkpt>
      <trkpt lat="65.21533" lon="14.72558">
        <time>2026-03-10T18:11:00Z</time>
      </trkpt>
      <trkpt lat="65.21747" lon="14.73382">
        <time>2026-03-10T21:43:00Z</time>
      </trkpt>
      <trkpt lat="65.21741" lon="14.73388">
        <time>2026-03-10T21:45:00Z</time>
      </trkpt>
      <trkpt lat="65.21751" lon="14.73382">
        <time>2026-03-11T08:27:00Z</time>
      </trkpt>
      <trkpt lat="65.22536" lon="14.76393">
        <time>2026-03-11T08:57:00Z</time>
      </trkpt>
      <trkpt lat="65.23508" lon="14.79847">
        <time>2026-03-11T09:27:00Z</time>
      </trkpt>
      <trkpt lat="65.23712" lon="14.81107">
        <time>2026-03-11T09:57:00Z</time>
      </trkpt>
      <trkpt lat="65.23783" lon="14.85282">
        <time>2026-03-11T10:27:00Z</time>
      </trkpt>
      <trkpt lat="65.24116" lon="14.88008">
        <time>2026-03-11T10:57:00Z</time>
      </trkpt>
      <trkpt lat="65.24275" lon="14.89136">
        <time>2026-03-11T11:27:00Z</time>
      </trkpt>
      <trkpt lat="65.24374" lon="14.91604">
        <time>2026-03-11T11:57:00Z</time>
      </trkpt>
      <trkpt lat="65.25014" lon="14.93481">
        <time>2026-03-11T12:27:00Z</time>
      </trkpt>
      <trkpt lat="65.25013" lon="14.93484">
        <time>2026-03-11T12:57:00Z</time>
      </trkpt>
      <trkpt lat="65.25207" lon="14.93745">
        <time>2026-03-11T13:27:00Z</time>
      </trkpt>
      <trkpt lat="65.25715" lon="14.98318">
        <time>2026-03-11T13:57:00Z</time>
      </trkpt>
      <trkpt lat="65.26191" lon="15.01146">
        <time>2026-03-11T14:27:00Z</time>
      </trkpt>
      <trkpt lat="65.27507" lon="15.01474">
        <time>2026-03-11T14:57:00Z</time>
      </trkpt>
      <trkpt lat="65.29466" lon="15.02238">
        <time>2026-03-11T15:27:00Z</time>
      </trkpt>
      <trkpt lat="65.29955" lon="15.02614">
        <time>2026-03-11T15:57:00Z</time>
      </trkpt>
      <trkpt lat="65.32053" lon="15.05616">
        <time>2026-03-11T16:27:00Z</time>
      </trkpt>
      <trkpt lat="65.33226" lon="15.07708">
        <time>2026-03-11T16:57:00Z</time>
      </trkpt>
      <trkpt lat="65.33735" lon="15.09738">
        <time>2026-03-11T17:27:00Z</time>
      </trkpt>
      <trkpt lat="65.34444" lon="15.11032">
        <time>2026-03-11T17:57:00Z</time>
      </trkpt>
      <trkpt lat="65.34454" lon="15.10991">
        <time>2026-03-11T18:27:00Z</time>
      </trkpt>
      <trkpt lat="65.34464" lon="15.10987">
        <time>2026-03-11T19:24:00Z</time>
      </trkpt>
      <trkpt lat="65.34451" lon="15.10967">
        <time>2026-03-12T08:06:00Z</time>
      </trkpt>
      <trkpt lat="65.35779" lon="15.10304">
        <time>2026-03-12T08:32:00Z</time>
      </trkpt>
      <trkpt lat="65.35946" lon="15.11791">
        <time>2026-03-12T08:42:00Z</time>
      </trkpt>
      <trkpt lat="65.36099" lon="15.13429">
        <time>2026-03-12T08:52:00Z</time>
      </trkpt>
      <trkpt lat="65.36499" lon="15.14077">
        <time>2026-03-12T09:02:00Z</time>
      </trkpt>
      <trkpt lat="65.36504" lon="15.14064">
        <time>2026-03-12T09:12:00Z</time>
      </trkpt>
      <trkpt lat="65.36646" lon="15.14336">
        <time>2026-03-12T09:32:00Z</time>
      </trkpt>
      <trkpt lat="65.37159" lon="15.14802">
        <time>2026-03-12T09:42:00Z</time>
      </trkpt>
      <trkpt lat="65.37409" lon="15.14085">
        <time>2026-03-12T09:52:00Z</time>
      </trkpt>
      <trkpt lat="65.38032" lon="15.13302">
        <time>2026-03-12T10:02:00Z</time>
      </trkpt>
      <trkpt lat="65.38957" lon="15.1534">
        <time>2026-03-12T10:22:00Z</time>
      </trkpt>
      <trkpt lat="65.39151" lon="15.15928">
        <time>2026-03-12T10:42:00Z</time>
      </trkpt>
      <trkpt lat="65.39752" lon="15.16746">
        <time>2026-03-12T11:02:00Z</time>
      </trkpt>
      <trkpt lat="65.40859" lon="15.17694">
        <time>2026-03-12T11:22:00Z</time>
      </trkpt>
      <trkpt lat="65.42091" lon="15.19737">
        <time>2026-03-12T11:42:00Z</time>
      </trkpt>
      <trkpt lat="65.42215" lon="15.19868">
        <time>2026-03-12T12:02:00Z</time>
      </trkpt>
      <trkpt lat="65.42216" lon="15.19868">
        <time>2026-03-12T12:22:00Z</time>
      </trkpt>
      <trkpt lat="65.43" lon="15.21544">
        <time>2026-03-12T13:22:00Z</time>
      </trkpt>
      <trkpt lat="65.43372" lon="15.22816">
        <time>2026-03-12T13:42:00Z</time>
      </trkpt>
      <trkpt lat="65.44578" lon="15.23709">
        <time>2026-03-12T14:02:00Z</time>
      </trkpt>
      <trkpt lat="65.45014" lon="15.249">
        <time>2026-03-12T14:22:00Z</time>
      </trkpt>
      <trkpt lat="65.4604" lon="15.26009">
        <time>2026-03-12T14:42:00Z</time>
      </trkpt>
      <trkpt lat="65.4742" lon="15.30288">
        <time>2026-03-12T15:02:00Z</time>
      </trkpt>
      <trkpt lat="65.48649" lon="15.34015">
        <time>2026-03-12T15:22:00Z</time>
      </trkpt>
      <trkpt lat="65.48704" lon="15.34839">
        <time>2026-03-12T15:42:00Z</time>
      </trkpt>
      <trkpt lat="65.49119" lon="15.35573">
        <time>2026-03-12T16:02:00Z</time>
      </trkpt>
      <trkpt lat="65.49289" lon="15.35519">
        <time>2026-03-12T16:22:00Z</time>
      </trkpt>
      <trkpt lat="65.49292" lon="15.3553">
        <time>2026-03-12T16:42:00Z</time>
      </trkpt>
      <trkpt lat="65.49658" lon="15.3453">
        <time>2026-03-12T17:22:00Z</time>
      </trkpt>
      <trkpt lat="65.51074" lon="15.34564">
        <time>2026-03-12T17:42:00Z</time>
      </trkpt>
      <trkpt lat="65.51847" lon="15.34154">
        <time>2026-03-12T18:02:00Z</time>
      </trkpt>
      <trkpt lat="65.51854" lon="15.34159">
        <time>2026-03-12T18:22:00Z</time>
      </trkpt>
      <trkpt lat="65.51844" lon="15.34165">
        <time>2026-03-12T21:01:00Z</time>
      </trkpt>
      <trkpt lat="65.51983" lon="15.34024">
        <time>2026-03-13T07:47:00Z</time>
      </trkpt>
      <trkpt lat="65.5338" lon="15.33197">
        <time>2026-03-13T08:07:00Z</time>
      </trkpt>
      <trkpt lat="65.54812" lon="15.33556">
        <time>2026-03-13T08:27:00Z</time>
      </trkpt>
      <trkpt lat="65.55634" lon="15.34682">
        <time>2026-03-13T08:47:00Z</time>
      </trkpt>
      <trkpt lat="65.55912" lon="15.34189">
        <time>2026-03-13T09:07:00Z</time>
      </trkpt>
      <trkpt lat="65.56988" lon="15.32603">
        <time>2026-03-13T09:27:00Z</time>
      </trkpt>
      <trkpt lat="65.57651" lon="15.30369">
        <time>2026-03-13T09:47:00Z</time>
      </trkpt>
      <trkpt lat="65.58365" lon="15.2958">
        <time>2026-03-13T10:07:00Z</time>
      </trkpt>
      <trkpt lat="65.58963" lon="15.28754">
        <time>2026-03-13T10:27:00Z</time>
      </trkpt>
      <trkpt lat="65.6017" lon="15.275">
        <time>2026-03-13T10:47:00Z</time>
      </trkpt>
      <trkpt lat="65.60425" lon="15.2608">
        <time>2026-03-13T11:07:00Z</time>
      </trkpt>
      <trkpt lat="65.61028" lon="15.24612">
        <time>2026-03-13T11:27:00Z</time>
      </trkpt>
      <trkpt lat="65.61607" lon="15.23591">
        <time>2026-03-13T11:47:00Z</time>
      </trkpt>
      <trkpt lat="65.62653" lon="15.22293">
        <time>2026-03-13T12:07:00Z</time>
      </trkpt>
      <trkpt lat="65.63781" lon="15.20078">
        <time>2026-03-13T12:27:00Z</time>
      </trkpt>
      <trkpt lat="65.64044" lon="15.1937">
        <time>2026-03-13T12:47:00Z</time>
      </trkpt>
      <trkpt lat="65.64041" lon="15.19377">
        <time>2026-03-13T13:07:00Z</time>
      </trkpt>
      <trkpt lat="65.65176" lon="15.16574">
        <time>2026-03-13T13:47:00Z</time>
      </trkpt>
      <trkpt lat="65.65875" lon="15.14366">
        <time>2026-03-13T14:07:00Z</time>
      </trkpt>
      <trkpt lat="65.65995" lon="15.12905">
        <time>2026-03-13T14:27:00Z</time>
      </trkpt>
      <trkpt lat="65.66179" lon="15.13002">
        <time>2026-03-13T14:47:00Z</time>
      </trkpt>
      <trkpt lat="65.66657" lon="15.12944">
        <time>2026-03-13T15:07:00Z</time>
      </trkpt>
      <trkpt lat="65.67519" lon="15.12828">
        <time>2026-03-13T15:27:00Z</time>
      </trkpt>
      <trkpt lat="65.67913" lon="15.1157">
        <time>2026-03-13T15:47:00Z</time>
      </trkpt>
      <trkpt lat="65.68397" lon="15.10094">
        <time>2026-03-13T16:07:00Z</time>
      </trkpt>
      <trkpt lat="65.68447" lon="15.09937">
        <time>2026-03-13T16:27:00Z</time>
      </trkpt>
      <trkpt lat="65.69551" lon="15.08862">
        <time>2026-03-13T16:47:00Z</time>
      </trkpt>
      <trkpt lat="65.70803" lon="15.08734">
        <time>2026-03-13T17:07:00Z</time>
      </trkpt>
      <trkpt lat="65.70852" lon="15.08744">
        <time>2026-03-13T17:27:00Z</time>
      </trkpt>
      <trkpt lat="65.71392" lon="15.08693">
        <time>2026-03-13T17:47:00Z</time>
      </trkpt>
      <trkpt lat="65.71968" lon="15.08648">
        <time>2026-03-13T18:07:00Z</time>
      </trkpt>
      <trkpt lat="65.71965" lon="15.08573">
        <time>2026-03-13T18:27:00Z</time>
      </trkpt>
      <trkpt lat="65.71973" lon="15.08562">
        <time>2026-03-13T19:45:00Z</time>
      </trkpt>
      <trkpt lat="65.73341" lon="15.09006">
        <time>2026-03-14T08:54:00Z</time>
      </trkpt>
      <trkpt lat="65.7402" lon="15.10794">
        <time>2026-03-14T09:14:00Z</time>
      </trkpt>
      <trkpt lat="65.74729" lon="15.11851">
        <time>2026-03-14T09:34:00Z</time>
      </trkpt>
      <trkpt lat="65.74778" lon="15.11948">
        <time>2026-03-14T09:54:00Z</time>
      </trkpt>
      <trkpt lat="65.75968" lon="15.12785">
        <time>2026-03-14T10:14:00Z</time>
      </trkpt>
      <trkpt lat="65.77175" lon="15.11268">
        <time>2026-03-14T10:34:00Z</time>
      </trkpt>
      <trkpt lat="65.78332" lon="15.10145">
        <time>2026-03-14T10:54:00Z</time>
      </trkpt>
      <trkpt lat="65.78455" lon="15.10055">
        <time>2026-03-14T11:14:00Z</time>
      </trkpt>
      <trkpt lat="65.79271" lon="15.08266">
        <time>2026-03-14T11:34:00Z</time>
      </trkpt>
      <trkpt lat="65.80397" lon="15.07594">
        <time>2026-03-14T11:54:00Z</time>
      </trkpt>
      <trkpt lat="65.81459" lon="15.08077">
        <time>2026-03-14T12:14:00Z</time>
      </trkpt>
      <trkpt lat="65.82406" lon="15.08586">
        <time>2026-03-16T09:34:00Z</time>
      </trkpt>
      <trkpt lat="65.83521" lon="15.07618">
        <time>2026-03-16T10:34:00Z</time>
      </trkpt>
      <trkpt lat="65.8413" lon="15.08386">
        <time>2026-03-16T11:34:00Z</time>
      </trkpt>
      <trkpt lat="65.86197" lon="15.09873">
        <time>2026-03-16T12:34:00Z</time>
      </trkpt>
      <trkpt lat="65.87929" lon="15.1424">
        <time>2026-03-16T13:34:00Z</time>
      </trkpt>
      <trkpt lat="65.87929" lon="15.14237">
        <time>2026-03-16T13:34:00Z</time>
      </trkpt>
      <trkpt lat="65.88503" lon="15.15877">
        <time>2026-03-16T14:07:00Z</time>
      </trkpt>
      <trkpt lat="65.88708" lon="15.17314">
        <time>2026-03-16T14:57:00Z</time>
      </trkpt>
      <trkpt lat="65.87899" lon="15.23915">
        <time>2026-03-16T15:57:00Z</time>
      </trkpt>
      <trkpt lat="65.87386" lon="15.28897">
        <time>2026-03-16T16:58:00Z</time>
      </trkpt>
      <trkpt lat="65.86784" lon="15.32715">
        <time>2026-03-16T17:58:00Z</time>
      </trkpt>
      <trkpt lat="65.86774" lon="15.32713">
        <time>2026-03-16T18:58:00Z</time>
      </trkpt>
      <trkpt lat="65.86781" lon="15.32717">
        <time>2026-03-16T19:32:00Z</time>
      </trkpt>
      <trkpt lat="65.86902" lon="15.33159">
        <time>2026-03-17T07:50:00Z</time>
      </trkpt>
      <trkpt lat="65.88495" lon="15.37154">
        <time>2026-03-17T08:50:00Z</time>
      </trkpt>
      <trkpt lat="65.89894" lon="15.44087">
        <time>2026-03-17T09:50:00Z</time>
      </trkpt>
      <trkpt lat="65.91824" lon="15.45051">
        <time>2026-03-17T10:50:00Z</time>
      </trkpt>
      <trkpt lat="65.95781" lon="15.47791">
        <time>2026-03-17T11:50:00Z</time>
      </trkpt>
      <trkpt lat="65.98821" lon="15.4951">
        <time>2026-03-17T12:50:00Z</time>
      </trkpt>
      <trkpt lat="65.9887" lon="15.49806">
        <time>2026-03-17T13:05:00Z</time>
      </trkpt>
      <trkpt lat="65.98908" lon="15.49591">
        <time>2026-03-17T14:30:00Z</time>
      </trkpt>
      <trkpt lat="66.0292" lon="15.46182">
        <time>2026-03-17T15:30:00Z</time>
      </trkpt>
      <trkpt lat="66.05464" lon="15.48759">
        <time>2026-03-17T16:30:00Z</time>
      </trkpt>
      <trkpt lat="66.07873" lon="15.51151">
        <time>2026-03-17T17:30:00Z</time>
      </trkpt>
      <trkpt lat="66.08427" lon="15.54063">
        <time>2026-03-17T18:08:00Z</time>
      </trkpt>
      <trkpt lat="66.0841" lon="15.54046">
        <time>2026-03-18T08:13:00Z</time>
      </trkpt>
      <trkpt lat="66.09981" lon="15.52625">
        <time>2026-03-18T08:49:00Z</time>
      </trkpt>
      <trkpt lat="66.11075" lon="15.5305">
        <time>2026-03-18T09:19:00Z</time>
      </trkpt>
      <trkpt lat="66.11573" lon="15.54082">
        <time>2026-03-18T09:49:00Z</time>
      </trkpt>
      <trkpt lat="66.12444" lon="15.56116">
        <time>2026-03-18T10:19:00Z</time>
      </trkpt>
      <trkpt lat="66.12605" lon="15.57179">
        <time>2026-03-18T10:49:00Z</time>
      </trkpt>
      <trkpt lat="66.13453" lon="15.6003">
        <time>2026-03-18T11:19:00Z</time>
      </trkpt>
      <trkpt lat="66.14774" lon="15.6224">
        <time>2026-03-18T11:49:00Z</time>
      </trkpt>
      <trkpt lat="66.15603" lon="15.6267">
        <time>2026-03-18T12:19:00Z</time>
      </trkpt>
      <trkpt lat="66.17254" lon="15.63848">
        <time>2026-03-18T12:49:00Z</time>
      </trkpt>
      <trkpt lat="66.18461" lon="15.65116">
        <time>2026-03-18T13:19:00Z</time>
      </trkpt>
      <trkpt lat="66.18865" lon="15.65028">
        <time>2026-03-18T13:33:00Z</time>
      </trkpt>
      <trkpt lat="66.18834" lon="15.65043">
        <time>2026-03-18T14:43:00Z</time>
      </trkpt>
      <trkpt lat="66.20073" lon="15.63305">
        <time>2026-03-18T15:13:00Z</time>
      </trkpt>
      <trkpt lat="66.21616" lon="15.63721">
        <time>2026-03-18T15:43:00Z</time>
      </trkpt>
      <trkpt lat="66.22015" lon="15.63352">
        <time>2026-03-18T16:13:00Z</time>
      </trkpt>
      <trkpt lat="66.23138" lon="15.62659">
        <time>2026-03-18T16:43:00Z</time>
      </trkpt>
      <trkpt lat="66.24368" lon="15.60859">
        <time>2026-03-18T17:13:00Z</time>
      </trkpt>
      <trkpt lat="66.24998" lon="15.60273">
        <time>2026-03-18T17:43:00Z</time>
      </trkpt>
      <trkpt lat="66.26264" lon="15.58093">
        <time>2026-03-18T18:13:00Z</time>
      </trkpt>
      <trkpt lat="66.27049" lon="15.54913">
        <time>2026-03-18T18:43:00Z</time>
      </trkpt>
      <trkpt lat="66.27308" lon="15.55174">
        <time>2026-03-18T19:13:00Z</time>
      </trkpt>
      <trkpt lat="66.27326" lon="15.5523">
        <time>2026-03-18T19:43:00Z</time>
      </trkpt>
      <trkpt lat="66.27341" lon="15.5529">
        <time>2026-03-18T19:59:00Z</time>
      </trkpt>
      <trkpt lat="66.27328" lon="15.55267">
        <time>2026-03-19T12:01:00Z</time>
      </trkpt>
      <trkpt lat="66.27308" lon="15.52921">
        <time>2026-03-19T12:31:00Z</time>
      </trkpt>
      <trkpt lat="66.27511" lon="15.50529">
        <time>2026-03-19T13:01:00Z</time>
      </trkpt>
      <trkpt lat="66.28137" lon="15.48817">
        <time>2026-03-19T13:31:00Z</time>
      </trkpt>
      <trkpt lat="66.29053" lon="15.46677">
        <time>2026-03-19T14:01:00Z</time>
      </trkpt>
      <trkpt lat="66.29863" lon="15.44729">
        <time>2026-03-19T14:31:00Z</time>
      </trkpt>
      <trkpt lat="66.30378" lon="15.41102">
        <time>2026-03-19T15:01:00Z</time>
      </trkpt>
      <trkpt lat="66.30797" lon="15.36852">
        <time>2026-03-19T15:31:00Z</time>
      </trkpt>
      <trkpt lat="66.30853" lon="15.36476">
        <time>2026-03-19T16:01:00Z</time>
      </trkpt>
      <trkpt lat="66.30845" lon="15.3645">
        <time>2026-03-19T16:31:00Z</time>
      </trkpt>
      <trkpt lat="66.31338" lon="15.3585">
        <time>2026-03-20T07:42:00Z</time>
      </trkpt>
      <trkpt lat="66.32267" lon="15.3485">
        <time>2026-03-20T08:12:00Z</time>
      </trkpt>
      <trkpt lat="66.32932" lon="15.33764">
        <time>2026-03-20T08:42:00Z</time>
      </trkpt>
      <trkpt lat="66.3336" lon="15.32436">
        <time>2026-03-20T09:12:00Z</time>
      </trkpt>
      <trkpt lat="66.34633" lon="15.29691">
        <time>2026-03-20T09:42:00Z</time>
      </trkpt>
      <trkpt lat="66.35022" lon="15.28807">
        <time>2026-03-20T10:12:00Z</time>
      </trkpt>
      <trkpt lat="66.36912" lon="15.29039">
        <time>2026-03-20T10:42:00Z</time>
      </trkpt>
      <trkpt lat="66.37896" lon="15.30084">
        <time>2026-03-20T11:12:00Z</time>
      </trkpt>
      <trkpt lat="66.39178" lon="15.29666">
        <time>2026-03-20T11:42:00Z</time>
      </trkpt>
      <trkpt lat="66.4078" lon="15.32807">
        <time>2026-03-20T12:12:00Z</time>
      </trkpt>
      <trkpt lat="66.40995" lon="15.33496">
        <time>2026-03-20T12:42:00Z</time>
      </trkpt>
      <trkpt lat="66.40995" lon="15.335">
        <time>2026-03-20T13:12:00Z</time>
      </trkpt>
      <trkpt lat="66.42142" lon="15.34335">
        <time>2026-03-20T13:42:00Z</time>
      </trkpt>
      <trkpt lat="66.43683" lon="15.3636">
        <time>2026-03-20T14:12:00Z</time>
      </trkpt>
      <trkpt lat="66.44912" lon="15.39008">
        <time>2026-03-20T14:42:00Z</time>
      </trkpt>
      <trkpt lat="66.46223" lon="15.42982">
        <time>2026-03-20T15:12:00Z</time>
      </trkpt>
      <trkpt lat="66.47254" lon="15.46611">
        <time>2026-03-20T15:42:00Z</time>
      </trkpt>
      <trkpt lat="66.47707" lon="15.48233">
        <time>2026-03-20T16:12:00Z</time>
      </trkpt>
      <trkpt lat="66.48519" lon="15.53572">
        <time>2026-03-20T16:42:00Z</time>
      </trkpt>
      <trkpt lat="66.48626" lon="15.5373">
        <time>2026-03-20T17:12:00Z</time>
      </trkpt>
      <trkpt lat="66.48625" lon="15.53726">
        <time>2026-03-20T17:42:00Z</time>
      </trkpt>
      <trkpt lat="66.48616" lon="15.53728">
        <time>2026-03-20T18:17:00Z</time>
      </trkpt>
      <trkpt lat="66.48629" lon="15.5373">
        <time>2026-03-21T08:20:00Z</time>
      </trkpt>
      <trkpt lat="66.49379" lon="15.56436">
        <time>2026-03-21T08:50:00Z</time>
      </trkpt>
      <trkpt lat="66.50241" lon="15.59322">
        <time>2026-03-21T09:20:00Z</time>
      </trkpt>
      <trkpt lat="66.51366" lon="15.62395">
        <time>2026-03-21T09:50:00Z</time>
      </trkpt>
      <trkpt lat="66.52443" lon="15.67214">
        <time>2026-03-21T10:20:00Z</time>
      </trkpt>
      <trkpt lat="66.52874" lon="15.68573">
        <time>2026-03-21T10:50:00Z</time>
      </trkpt>
      <trkpt lat="66.54012" lon="15.72291">
        <time>2026-03-21T11:20:00Z</time>
      </trkpt>
      <trkpt lat="66.55376" lon="15.7978">
        <time>2026-03-21T11:50:00Z</time>
      </trkpt>
      <trkpt lat="66.55274" lon="15.81314">
        <time>2026-03-21T12:20:00Z</time>
      </trkpt>
      <trkpt lat="66.55115" lon="15.86996">
        <time>2026-03-21T12:50:00Z</time>
      </trkpt>
      <trkpt lat="66.55239" lon="15.93633">
        <time>2026-03-21T13:20:00Z</time>
      </trkpt>
      <trkpt lat="66.55738" lon="16.00386">
        <time>2026-03-21T13:50:00Z</time>
      </trkpt>
      <trkpt lat="66.56581" lon="16.0254">
        <time>2026-03-21T14:31:00Z</time>
      </trkpt>
      <trkpt lat="66.56546" lon="16.02534">
        <time>2026-03-22T07:57:00Z</time>
      </trkpt>
      <trkpt lat="66.57906" lon="15.98669">
        <time>2026-03-22T08:27:00Z</time>
      </trkpt>
      <trkpt lat="66.59287" lon="15.9415">
        <time>2026-03-22T08:57:00Z</time>
      </trkpt>
      <trkpt lat="66.59868" lon="15.92208">
        <time>2026-03-22T09:27:00Z</time>
      </trkpt>
      <trkpt lat="66.61199" lon="15.88045">
        <time>2026-03-22T09:57:00Z</time>
      </trkpt>
      <trkpt lat="66.62069" lon="15.85882">
        <time>2026-03-22T10:27:00Z</time>
      </trkpt>
      <trkpt lat="66.64136" lon="15.84172">
        <time>2026-03-22T10:57:00Z</time>
      </trkpt>
      <trkpt lat="66.65611" lon="15.83647">
        <time>2026-03-22T11:27:00Z</time>
      </trkpt>
      <trkpt lat="66.65706" lon="15.83773">
        <time>2026-03-22T13:02:00Z</time>
      </trkpt>
      <trkpt lat="66.67675" lon="15.83938">
        <time>2026-03-22T13:32:00Z</time>
      </trkpt>
      <trkpt lat="66.69494" lon="15.827">
        <time>2026-03-22T14:02:00Z</time>
      </trkpt>
      <trkpt lat="66.70409" lon="15.80921">
        <time>2026-03-22T14:32:00Z</time>
      </trkpt>
      <trkpt lat="66.72103" lon="15.80252">
        <time>2026-03-22T15:02:00Z</time>
      </trkpt>
      <trkpt lat="66.72705" lon="15.82299">
        <time>2026-03-22T15:32:00Z</time>
      </trkpt>
      <trkpt lat="66.74616" lon="15.8411">
        <time>2026-03-22T16:02:00Z</time>
      </trkpt>
      <trkpt lat="66.75788" lon="15.84582">
        <time>2026-03-22T16:32:00Z</time>
      </trkpt>
      <trkpt lat="66.75942" lon="15.85816">
        <time>2026-03-22T17:02:00Z</time>
      </trkpt>
      <trkpt lat="66.76336" lon="15.91504">
        <time>2026-03-22T17:32:00Z</time>
      </trkpt>
      <trkpt lat="66.76328" lon="15.91526">
        <time>2026-03-22T18:02:00Z</time>
      </trkpt>
      <trkpt lat="66.76354" lon="15.91876">
        <time>2026-03-23T08:15:00Z</time>
      </trkpt>
      <trkpt lat="66.76441" lon="15.94556">
        <time>2026-03-23T08:45:00Z</time>
      </trkpt>
      <trkpt lat="66.77223" lon="15.97871">
        <time>2026-03-23T09:15:00Z</time>
      </trkpt>
      <trkpt lat="66.78214" lon="15.99356">
        <time>2026-03-23T09:45:00Z</time>
      </trkpt>
      <trkpt lat="66.79601" lon="16.03832">
        <time>2026-03-23T10:15:00Z</time>
      </trkpt>
      <trkpt lat="66.80494" lon="16.06312">
        <time>2026-03-23T10:45:00Z</time>
      </trkpt>
      <trkpt lat="66.8101" lon="16.09336">
        <time>2026-03-23T11:15:00Z</time>
      </trkpt>
      <trkpt lat="66.81748" lon="16.12866">
        <time>2026-03-23T11:45:00Z</time>
      </trkpt>
      <trkpt lat="66.82715" lon="16.1823">
        <time>2026-03-23T12:15:00Z</time>
      </trkpt>
      <trkpt lat="66.83602" lon="16.21219">
        <time>2026-03-23T12:46:00Z</time>
      </trkpt>
      <trkpt lat="66.83592" lon="16.21191">
        <time>2026-03-23T13:16:00Z</time>
      </trkpt>
      <trkpt lat="66.83878" lon="16.22215">
        <time>2026-03-23T14:46:00Z</time>
      </trkpt>
      <trkpt lat="66.84686" lon="16.26676">
        <time>2026-03-23T15:16:00Z</time>
      </trkpt>
      <trkpt lat="66.85961" lon="16.31126">
        <time>2026-03-23T15:46:00Z</time>
      </trkpt>
      <trkpt lat="66.86196" lon="16.3242">
        <time>2026-03-23T16:16:00Z</time>
      </trkpt>
      <trkpt lat="66.88007" lon="16.34152">
        <time>2026-03-23T16:46:00Z</time>
      </trkpt>
      <trkpt lat="66.89866" lon="16.36514">
        <time>2026-03-23T17:16:00Z</time>
      </trkpt>
      <trkpt lat="66.90529" lon="16.37012">
        <time>2026-03-23T17:46:00Z</time>
      </trkpt>
      <trkpt lat="66.90484" lon="16.36999">
        <time>2026-03-23T18:16:00Z</time>
      </trkpt>
      <trkpt lat="66.90491" lon="16.3701">
        <time>2026-03-23T19:12:00Z</time>
      </trkpt>
      <trkpt lat="66.90669" lon="16.3707">
        <time>2026-03-24T08:21:00Z</time>
      </trkpt>
      <trkpt lat="66.91568" lon="16.3904">
        <time>2026-03-24T08:51:00Z</time>
      </trkpt>
      <trkpt lat="66.92748" lon="16.40838">
        <time>2026-03-24T09:21:00Z</time>
      </trkpt>
      <trkpt lat="66.93365" lon="16.41557">
        <time>2026-03-24T09:51:00Z</time>
      </trkpt>
      <trkpt lat="66.9393" lon="16.41363">
        <time>2026-03-24T10:21:00Z</time>
      </trkpt>
      <trkpt lat="66.94418" lon="16.41522">
        <time>2026-03-24T10:51:00Z</time>
      </trkpt>
      <trkpt lat="66.96122" lon="16.434">
        <time>2026-03-24T11:21:00Z</time>
      </trkpt>
      <trkpt lat="66.9769" lon="16.42284">
        <time>2026-03-24T11:51:00Z</time>
      </trkpt>
      <trkpt lat="66.99207" lon="16.44526">
        <time>2026-03-24T12:21:00Z</time>
      </trkpt>
      <trkpt lat="66.99674" lon="16.45222">
        <time>2026-03-24T12:51:00Z</time>
      </trkpt>
      <trkpt lat="67.01351" lon="16.48801">
        <time>2026-03-24T13:21:00Z</time>
      </trkpt>
      <trkpt lat="67.02668" lon="16.52373">
        <time>2026-03-24T13:51:00Z</time>
      </trkpt>
      <trkpt lat="67.03786" lon="16.53478">
        <time>2026-03-24T16:42:00Z</time>
      </trkpt>
      <trkpt lat="67.05074" lon="16.53455">
        <time>2026-03-24T17:12:00Z</time>
      </trkpt>
      <trkpt lat="67.053" lon="16.54418">
        <time>2026-03-24T17:42:00Z</time>
      </trkpt>
      <trkpt lat="67.06025" lon="16.57422">
        <time>2026-03-24T18:12:00Z</time>
      </trkpt>
      <trkpt lat="67.07136" lon="16.60716">
        <time>2026-03-24T18:42:00Z</time>
      </trkpt>
      <trkpt lat="67.07511" lon="16.61486">
        <time>2026-03-24T19:12:00Z</time>
      </trkpt>
      <trkpt lat="67.07505" lon="16.61497">
        <time>2026-03-24T19:42:00Z</time>
      </trkpt>
      <trkpt lat="67.07501" lon="16.61499">
        <time>2026-03-24T19:43:00Z</time>
      </trkpt>
      <trkpt lat="67.07539" lon="16.61532">
        <time>2026-03-25T07:54:00Z</time>
      </trkpt>
      <trkpt lat="67.0866" lon="16.64186">
        <time>2026-03-25T08:24:00Z</time>
      </trkpt>
      <trkpt lat="67.10164" lon="16.65834">
        <time>2026-03-25T08:54:00Z</time>
      </trkpt>
      <trkpt lat="67.10317" lon="16.66325">
        <time>2026-03-25T09:24:00Z</time>
      </trkpt>
      <trkpt lat="67.11687" lon="16.66355">
        <time>2026-03-25T09:54:00Z</time>
      </trkpt>
      <trkpt lat="67.1265" lon="16.6596">
        <time>2026-03-25T10:24:00Z</time>
      </trkpt>
      <trkpt lat="67.13104" lon="16.65666">
        <time>2026-03-25T10:54:00Z</time>
      </trkpt>
      <trkpt lat="67.13974" lon="16.64875">
        <time>2026-03-25T11:24:00Z</time>
      </trkpt>
      <trkpt lat="67.14587" lon="16.64842">
        <time>2026-03-25T11:54:00Z</time>
      </trkpt>
      <trkpt lat="67.1509" lon="16.65211">
        <time>2026-03-25T12:24:00Z</time>
      </trkpt>
      <trkpt lat="67.16225" lon="16.64611">
        <time>2026-03-25T12:54:00Z</time>
      </trkpt>
      <trkpt lat="67.16358" lon="16.64559">
        <time>2026-03-25T13:24:00Z</time>
      </trkpt>
      <trkpt lat="67.16405" lon="16.64596">
        <time>2026-03-25T13:54:00Z</time>
      </trkpt>
      <trkpt lat="67.16652" lon="16.64265">
        <time>2026-03-25T14:24:00Z</time>
      </trkpt>
      <trkpt lat="67.18086" lon="16.62671">
        <time>2026-03-25T14:54:00Z</time>
      </trkpt>
      <trkpt lat="67.19163" lon="16.61783">
        <time>2026-03-25T15:24:00Z</time>
      </trkpt>
      <trkpt lat="67.20367" lon="16.59783">
        <time>2026-03-25T15:54:00Z</time>
      </trkpt>
      <trkpt lat="67.21695" lon="16.57772">
        <time>2026-03-25T16:24:00Z</time>
      </trkpt>
      <trkpt lat="67.22081" lon="16.57427">
        <time>2026-03-25T16:54:00Z</time>
      </trkpt>
      <trkpt lat="67.24027" lon="16.59203">
        <time>2026-03-25T17:24:00Z</time>
      </trkpt>
      <trkpt lat="67.24963" lon="16.6225">
        <time>2026-03-25T18:04:00Z</time>
      </trkpt>
      <trkpt lat="67.2569" lon="16.6466">
        <time>2026-03-25T18:34:00Z</time>
      </trkpt>
      <trkpt lat="67.27158" lon="16.67102">
        <time>2026-03-25T19:04:00Z</time>
      </trkpt>
      <trkpt lat="67.27178" lon="16.67087">
        <time>2026-03-25T19:34:00Z</time>
      </trkpt>
      <trkpt lat="67.27175" lon="16.6708">
        <time>2026-03-25T20:55:00Z</time>
      </trkpt>
      <trkpt lat="67.27914" lon="16.6692">
        <time>2026-03-26T08:29:00Z</time>
      </trkpt>
      <trkpt lat="67.29153" lon="16.67911">
        <time>2026-03-26T08:59:00Z</time>
      </trkpt>
      <trkpt lat="67.29622" lon="16.69434">
        <time>2026-03-26T09:29:00Z</time>
      </trkpt>
      <trkpt lat="67.30572" lon="16.71992">
        <time>2026-03-26T09:59:00Z</time>
      </trkpt>
      <trkpt lat="67.30701" lon="16.73696">
        <time>2026-03-26T10:29:00Z</time>
      </trkpt>
      <trkpt lat="67.30673" lon="16.764">
        <time>2026-03-26T10:59:00Z</time>
      </trkpt>
      <trkpt lat="67.31074" lon="16.79092">
        <time>2026-03-26T11:29:00Z</time>
      </trkpt>
      <trkpt lat="67.31335" lon="16.79946">
        <time>2026-03-26T11:59:00Z</time>
      </trkpt>
      <trkpt lat="67.31335" lon="16.79942">
        <time>2026-03-26T12:29:00Z</time>
      </trkpt>
      <trkpt lat="67.31334" lon="16.79934">
        <time>2026-03-26T13:01:00Z</time>
      </trkpt>
      <trkpt lat="67.31338" lon="16.79957">
        <time>2026-03-27T06:36:00Z</time>
      </trkpt>
      <trkpt lat="67.31767" lon="16.8185">
        <time>2026-03-27T07:06:00Z</time>
      </trkpt>
      <trkpt lat="67.32745" lon="16.82908">
        <time>2026-03-27T07:36:00Z</time>
      </trkpt>
      <trkpt lat="67.33598" lon="16.83717">
        <time>2026-03-27T08:06:00Z</time>
      </trkpt>
      <trkpt lat="67.35324" lon="16.86403">
        <time>2026-03-27T08:36:00Z</time>
      </trkpt>
      <trkpt lat="67.35678" lon="16.8724">
        <time>2026-03-27T09:06:00Z</time>
      </trkpt>
      <trkpt lat="67.3687" lon="16.89581">
        <time>2026-03-27T09:36:00Z</time>
      </trkpt>
      <trkpt lat="67.38288" lon="16.91186">
        <time>2026-03-27T10:06:00Z</time>
      </trkpt>
      <trkpt lat="67.38805" lon="16.92948">
        <time>2026-03-27T10:36:00Z</time>
      </trkpt>
      <trkpt lat="67.39462" lon="16.96447">
        <time>2026-03-27T11:06:00Z</time>
      </trkpt>
      <trkpt lat="67.3936" lon="16.98136">
        <time>2026-03-27T11:36:00Z</time>
      </trkpt>
      <trkpt lat="67.39827" lon="17.01496">
        <time>2026-03-27T12:06:00Z</time>
      </trkpt>
      <trkpt lat="67.4072" lon="17.05185">
        <time>2026-03-27T12:36:00Z</time>
      </trkpt>
      <trkpt lat="67.41038" lon="17.05949">
        <time>2026-03-27T13:06:00Z</time>
      </trkpt>
      <trkpt lat="67.41039" lon="17.05936">
        <time>2026-03-27T13:36:00Z</time>
      </trkpt>
      <trkpt lat="67.42296" lon="17.07944">
        <time>2026-03-27T14:06:00Z</time>
      </trkpt>
      <trkpt lat="67.4394" lon="17.10071">
        <time>2026-03-27T14:36:00Z</time>
      </trkpt>
      <trkpt lat="67.44745" lon="17.1074">
        <time>2026-03-27T15:06:00Z</time>
      </trkpt>
      <trkpt lat="67.45928" lon="17.13566">
        <time>2026-03-27T15:36:00Z</time>
      </trkpt>
      <trkpt lat="67.46869" lon="17.15538">
        <time>2026-03-27T16:06:00Z</time>
      </trkpt>
      <trkpt lat="67.47664" lon="17.17141">
        <time>2026-03-27T16:36:00Z</time>
      </trkpt>
      <trkpt lat="67.49384" lon="17.1872">
        <time>2026-03-27T17:06:00Z</time>
      </trkpt>
      <trkpt lat="67.49385" lon="17.18725">
        <time>2026-03-27T17:36:00Z</time>
      </trkpt>
      <trkpt lat="67.50993" lon="17.19008">
        <time>2026-03-27T18:06:00Z</time>
      </trkpt>
      <trkpt lat="67.52031" lon="17.21495">
        <time>2026-03-27T18:36:00Z</time>
      </trkpt>
      <trkpt lat="67.53729" lon="17.21596">
        <time>2026-03-27T19:06:00Z</time>
      </trkpt>
      <trkpt lat="67.55512" lon="17.19315">
        <time>2026-03-27T19:36:00Z</time>
      </trkpt>
      <trkpt lat="67.55509" lon="17.19334">
        <time>2026-03-27T20:06:00Z</time>
      </trkpt>
      <trkpt lat="67.55512" lon="17.19328">
        <time>2026-03-27T20:27:00Z</time>
      </trkpt>
      <trkpt lat="67.557" lon="17.18854">
        <time>2026-03-28T07:23:00Z</time>
      </trkpt>
      <trkpt lat="67.57523" lon="17.1703">
        <time>2026-03-28T07:53:00Z</time>
      </trkpt>
      <trkpt lat="67.58393" lon="17.18845">
        <time>2026-03-28T08:23:00Z</time>
      </trkpt>
      <trkpt lat="67.58518" lon="17.22358">
        <time>2026-03-28T08:53:00Z</time>
      </trkpt>
      <trkpt lat="67.60056" lon="17.25237">
        <time>2026-03-28T09:23:00Z</time>
      </trkpt>
      <trkpt lat="67.60857" lon="17.27136">
        <time>2026-03-28T09:53:00Z</time>
      </trkpt>
      <trkpt lat="67.61791" lon="17.30145">
        <time>2026-03-28T10:23:00Z</time>
      </trkpt>
      <trkpt lat="67.62911" lon="17.33153">
        <time>2026-03-28T10:53:00Z</time>
      </trkpt>
      <trkpt lat="67.63428" lon="17.36058">
        <time>2026-03-28T11:23:00Z</time>
      </trkpt>
      <trkpt lat="67.6342" lon="17.36069">
        <time>2026-03-28T11:53:00Z</time>
      </trkpt>
      <trkpt lat="67.63427" lon="17.36513">
        <time>2026-03-28T12:23:00Z</time>
      </trkpt>
      <trkpt lat="67.65501" lon="17.38444">
        <time>2026-03-28T12:53:00Z</time>
      </trkpt>
      <trkpt lat="67.66894" lon="17.40946">
        <time>2026-03-28T13:23:00Z</time>
      </trkpt>
      <trkpt lat="67.68174" lon="17.42116">
        <time>2026-03-28T13:53:00Z</time>
      </trkpt>
      <trkpt lat="67.70527" lon="17.4435">
        <time>2026-03-28T14:23:00Z</time>
      </trkpt>
      <trkpt lat="67.72098" lon="17.47227">
        <time>2026-03-28T14:53:00Z</time>
      </trkpt>
      <trkpt lat="67.72222" lon="17.46961">
        <time>2026-03-28T15:04:00Z</time>
      </trkpt>
      <trkpt lat="67.72257" lon="17.46759">
        <time>2026-03-29T11:18:00Z</time>
      </trkpt>
      <trkpt lat="67.72926" lon="17.47379">
        <time>2026-03-29T11:48:00Z</time>
      </trkpt>
      <trkpt lat="67.73862" lon="17.47798">
        <time>2026-03-29T12:18:00Z</time>
      </trkpt>
      <trkpt lat="67.74879" lon="17.50851">
        <time>2026-03-29T12:48:00Z</time>
      </trkpt>
      <trkpt lat="67.76175" lon="17.54958">
        <time>2026-03-29T13:18:00Z</time>
      </trkpt>
      <trkpt lat="67.76555" lon="17.5622">
        <time>2026-03-29T13:48:00Z</time>
      </trkpt>
      <trkpt lat="67.7865" lon="17.60818">
        <time>2026-03-29T14:18:00Z</time>
      </trkpt>
      <trkpt lat="67.78647" lon="17.60818">
        <time>2026-03-29T14:48:00Z</time>
      </trkpt>
      <trkpt lat="67.80425" lon="17.62964">
        <time>2026-03-29T15:18:00Z</time>
      </trkpt>
      <trkpt lat="67.82008" lon="17.64458">
        <time>2026-03-29T15:48:00Z</time>
      </trkpt>
      <trkpt lat="67.82438" lon="17.64664">
        <time>2026-03-29T16:18:00Z</time>
      </trkpt>
      <trkpt lat="67.84069" lon="17.66653">
        <time>2026-03-29T16:48:00Z</time>
      </trkpt>
      <trkpt lat="67.85153" lon="17.69264">
        <time>2026-03-29T17:18:00Z</time>
      </trkpt>
      <trkpt lat="67.85329" lon="17.69534">
        <time>2026-03-29T17:48:00Z</time>
      </trkpt>
      <trkpt lat="67.86438" lon="17.71905">
        <time>2026-03-29T18:18:00Z</time>
      </trkpt>
      <trkpt lat="67.87541" lon="17.74701">
        <time>2026-03-29T18:48:00Z</time>
      </trkpt>
      <trkpt lat="67.87542" lon="17.74689">
        <time>2026-03-29T19:18:00Z</time>
      </trkpt>
      <trkpt lat="67.8754" lon="17.74699">
        <time>2026-03-29T21:30:00Z</time>
      </trkpt>
      <trkpt lat="67.8753" lon="17.74684">
        <time>2026-03-30T08:13:00Z</time>
      </trkpt>
      <trkpt lat="67.88704" lon="17.77824">
        <time>2026-03-30T08:43:00Z</time>
      </trkpt>
      <trkpt lat="67.89259" lon="17.79731">
        <time>2026-03-30T09:13:00Z</time>
      </trkpt>
      <trkpt lat="67.90134" lon="17.83568">
        <time>2026-03-30T09:43:00Z</time>
      </trkpt>
      <trkpt lat="67.9118" lon="17.87385">
        <time>2026-03-30T10:13:00Z</time>
      </trkpt>
      <trkpt lat="67.91367" lon="17.89042">
        <time>2026-03-30T10:43:00Z</time>
      </trkpt>
      <trkpt lat="67.92206" lon="17.92112">
        <time>2026-03-30T11:13:00Z</time>
      </trkpt>
      <trkpt lat="67.92873" lon="17.96112">
        <time>2026-03-30T11:43:00Z</time>
      </trkpt>
      <trkpt lat="67.956" lon="17.98073">
        <time>2026-03-30T14:27:00Z</time>
      </trkpt>
      <trkpt lat="67.97128" lon="17.99846">
        <time>2026-03-30T14:57:00Z</time>
      </trkpt>
      <trkpt lat="67.98022" lon="18.00966">
        <time>2026-03-30T15:27:00Z</time>
      </trkpt>
      <trkpt lat="67.99301" lon="18.03354">
        <time>2026-03-30T15:57:00Z</time>
      </trkpt>
      <trkpt lat="68.00031" lon="18.04727">
        <time>2026-03-30T16:27:00Z</time>
      </trkpt>
      <trkpt lat="68.00156" lon="18.04862">
        <time>2026-03-30T16:57:00Z</time>
      </trkpt>
      <trkpt lat="68.00162" lon="18.04856">
        <time>2026-03-30T17:27:00Z</time>
      </trkpt>
      <trkpt lat="68.00157" lon="18.04852">
        <time>2026-03-30T17:50:00Z</time>
      </trkpt>
      <trkpt lat="68.00164" lon="18.04824">
        <time>2026-03-31T06:18:00Z</time>
      </trkpt>
      <trkpt lat="68.00568" lon="18.05613">
        <time>2026-03-31T06:28:00Z</time>
      </trkpt>
      <trkpt lat="68.00832" lon="18.06892">
        <time>2026-03-31T06:38:00Z</time>
      </trkpt>
      <trkpt lat="68.01053" lon="18.0801">
        <time>2026-03-31T06:48:00Z</time>
      </trkpt>
      <trkpt lat="68.01184" lon="18.09051">
        <time>2026-03-31T06:58:00Z</time>
      </trkpt>
      <trkpt lat="68.01559" lon="18.09817">
        <time>2026-03-31T07:08:00Z</time>
      </trkpt>
      <trkpt lat="68.01841" lon="18.10675">
        <time>2026-03-31T07:18:00Z</time>
      </trkpt>
      <trkpt lat="68.02181" lon="18.11023">
        <time>2026-03-31T07:28:00Z</time>
      </trkpt>
      <trkpt lat="68.02185" lon="18.11027">
        <time>2026-03-31T07:38:00Z</time>
      </trkpt>
      <trkpt lat="68.02425" lon="18.11353">
        <time>2026-03-31T07:48:00Z</time>
      </trkpt>
      <trkpt lat="68.02762" lon="18.1284">
        <time>2026-03-31T07:58:00Z</time>
      </trkpt>
      <trkpt lat="68.02967" lon="18.14829">
        <time>2026-03-31T08:08:00Z</time>
      </trkpt>
      <trkpt lat="68.03055" lon="18.16173">
        <time>2026-03-31T08:18:00Z</time>
      </trkpt>
      <trkpt lat="68.03595" lon="18.17016">
        <time>2026-03-31T08:28:00Z</time>
      </trkpt>
      <trkpt lat="68.04421" lon="18.17971">
        <time>2026-03-31T08:38:00Z</time>
      </trkpt>
      <trkpt lat="68.05077" lon="18.17746">
        <time>2026-03-31T08:48:00Z</time>
      </trkpt>
      <trkpt lat="68.05464" lon="18.1831">
        <time>2026-03-31T08:58:00Z</time>
      </trkpt>
      <trkpt lat="68.05858" lon="18.19194">
        <time>2026-03-31T09:08:00Z</time>
      </trkpt>
      <trkpt lat="68.06085" lon="18.20046">
        <time>2026-03-31T09:18:00Z</time>
      </trkpt>
      <trkpt lat="68.06089" lon="18.20048">
        <time>2026-03-31T09:28:00Z</time>
      </trkpt>
      <trkpt lat="68.06526" lon="18.21694">
        <time>2026-03-31T09:38:00Z</time>
      </trkpt>
      <trkpt lat="68.07089" lon="18.23732">
        <time>2026-03-31T09:48:00Z</time>
      </trkpt>
      <trkpt lat="68.07559" lon="18.25421">
        <time>2026-03-31T09:58:00Z</time>
      </trkpt>
      <trkpt lat="68.07993" lon="18.2694">
        <time>2026-03-31T10:08:00Z</time>
      </trkpt>
      <trkpt lat="68.08697" lon="18.28099">
        <time>2026-03-31T10:18:00Z</time>
      </trkpt>
      <trkpt lat="68.09394" lon="18.28794">
        <time>2026-03-31T10:28:00Z</time>
      </trkpt>
      <trkpt lat="68.09427" lon="18.28854">
        <time>2026-03-31T10:38:00Z</time>
      </trkpt>
      <trkpt lat="68.09516" lon="18.28987">
        <time>2026-03-31T10:48:00Z</time>
      </trkpt>
      <trkpt lat="68.10247" lon="18.29906">
        <time>2026-03-31T10:58:00Z</time>
      </trkpt>
      <trkpt lat="68.11057" lon="18.3035">
        <time>2026-03-31T11:08:00Z</time>
      </trkpt>
      <trkpt lat="68.11699" lon="18.31959">
        <time>2026-03-31T11:18:00Z</time>
      </trkpt>
      <trkpt lat="68.12232" lon="18.33532">
        <time>2026-03-31T11:28:00Z</time>
      </trkpt>
      <trkpt lat="68.12449" lon="18.34845">
        <time>2026-03-31T11:38:00Z</time>
      </trkpt>
      <trkpt lat="68.12447" lon="18.34852">
        <time>2026-03-31T11:48:00Z</time>
      </trkpt>
      <trkpt lat="68.12795" lon="18.36532">
        <time>2026-03-31T11:58:00Z</time>
      </trkpt>
      <trkpt lat="68.12845" lon="18.38491">
        <time>2026-03-31T12:08:00Z</time>
      </trkpt>
      <trkpt lat="68.13181" lon="18.40255">
        <time>2026-03-31T12:18:00Z</time>
      </trkpt>
      <trkpt lat="68.13564" lon="18.41312">
        <time>2026-03-31T12:28:00Z</time>
      </trkpt>
      <trkpt lat="68.13704" lon="18.41478">
        <time>2026-03-31T12:38:00Z</time>
      </trkpt>
      <trkpt lat="68.13628" lon="18.41585">
        <time>2026-03-31T12:48:00Z</time>
      </trkpt>
      <trkpt lat="68.14173" lon="18.42169">
        <time>2026-03-31T13:54:00Z</time>
      </trkpt>
      <trkpt lat="68.14707" lon="18.43023">
        <time>2026-03-31T14:04:00Z</time>
      </trkpt>
      <trkpt lat="68.15381" lon="18.43986">
        <time>2026-03-31T14:14:00Z</time>
      </trkpt>
      <trkpt lat="68.16126" lon="18.44868">
        <time>2026-03-31T14:24:00Z</time>
      </trkpt>
      <trkpt lat="68.1685" lon="18.45885">
        <time>2026-03-31T14:34:00Z</time>
      </trkpt>
      <trkpt lat="68.17118" lon="18.46293">
        <time>2026-03-31T14:44:00Z</time>
      </trkpt>
      <trkpt lat="68.17114" lon="18.46282">
        <time>2026-03-31T14:54:00Z</time>
      </trkpt>
      <trkpt lat="68.17599" lon="18.47179">
        <time>2026-03-31T15:04:00Z</time>
      </trkpt>
      <trkpt lat="68.18234" lon="18.48578">
        <time>2026-03-31T15:14:00Z</time>
      </trkpt>
      <trkpt lat="68.18809" lon="18.502">
        <time>2026-03-31T15:24:00Z</time>
      </trkpt>
      <trkpt lat="68.19261" lon="18.51915">
        <time>2026-03-31T15:34:00Z</time>
      </trkpt>
      <trkpt lat="68.19718" lon="18.53608">
        <time>2026-03-31T15:44:00Z</time>
      </trkpt>
      <trkpt lat="68.20123" lon="18.55178">
        <time>2026-03-31T15:54:00Z</time>
      </trkpt>
      <trkpt lat="68.20119" lon="18.55181">
        <time>2026-03-31T16:04:00Z</time>
      </trkpt>
      <trkpt lat="68.205" lon="18.56779">
        <time>2026-03-31T16:24:00Z</time>
      </trkpt>
      <trkpt lat="68.20803" lon="18.58045">
        <time>2026-03-31T16:34:00Z</time>
      </trkpt>
      <trkpt lat="68.21273" lon="18.59504">
        <time>2026-03-31T16:44:00Z</time>
      </trkpt>
      <trkpt lat="68.219" lon="18.60109">
        <time>2026-03-31T16:54:00Z</time>
      </trkpt>
      <trkpt lat="68.22668" lon="18.60006">
        <time>2026-03-31T17:04:00Z</time>
      </trkpt>
      <trkpt lat="68.23593" lon="18.6044">
        <time>2026-03-31T17:14:00Z</time>
      </trkpt>
      <trkpt lat="68.24075" lon="18.60352">
        <time>2026-03-31T17:24:00Z</time>
      </trkpt>
      <trkpt lat="68.2407" lon="18.60358">
        <time>2026-03-31T17:34:00Z</time>
      </trkpt>
      <trkpt lat="68.25021" lon="18.60103">
        <time>2026-03-31T17:44:00Z</time>
      </trkpt>
      <trkpt lat="68.25752" lon="18.5864">
        <time>2026-03-31T17:54:00Z</time>
      </trkpt>
      <trkpt lat="68.26072" lon="18.58116">
        <time>2026-03-31T18:04:00Z</time>
      </trkpt>
      <trkpt lat="68.26622" lon="18.56955">
        <time>2026-03-31T18:14:00Z</time>
      </trkpt>
      <trkpt lat="68.27448" lon="18.5715">
        <time>2026-03-31T18:24:00Z</time>
      </trkpt>
      <trkpt lat="68.28166" lon="18.58022">
        <time>2026-03-31T18:34:00Z</time>
      </trkpt>
      <trkpt lat="68.28612" lon="18.59133">
        <time>2026-03-31T18:44:00Z</time>
      </trkpt>
      <trkpt lat="68.2861" lon="18.59129">
        <time>2026-03-31T18:54:00Z</time>
      </trkpt>
      <trkpt lat="68.29056" lon="18.61322">
        <time>2026-03-31T19:54:00Z</time>
      </trkpt>
      <trkpt lat="68.2961" lon="18.62884">
        <time>2026-03-31T20:04:00Z</time>
      </trkpt>
      <trkpt lat="68.30163" lon="18.6477">
        <time>2026-03-31T20:14:00Z</time>
      </trkpt>
      <trkpt lat="68.30439" lon="18.65568">
        <time>2026-03-31T20:24:00Z</time>
      </trkpt>
      <trkpt lat="68.30723" lon="18.66738">
        <time>2026-03-31T20:34:00Z</time>
      </trkpt>
      <trkpt lat="68.30956" lon="18.67884">
        <time>2026-03-31T20:44:00Z</time>
      </trkpt>
      <trkpt lat="68.30953" lon="18.67879">
        <time>2026-03-31T20:54:00Z</time>
      </trkpt>
      <trkpt lat="68.31169" lon="18.68431">
        <time>2026-03-31T21:04:00Z</time>
      </trkpt>
      <trkpt lat="68.31279" lon="18.7036">
        <time>2026-03-31T21:14:00Z</time>
      </trkpt>
      <trkpt lat="68.3146" lon="18.72057">
        <time>2026-03-31T21:24:00Z</time>
      </trkpt>
      <trkpt lat="68.31606" lon="18.73385">
        <time>2026-03-31T21:34:00Z</time>
      </trkpt>
      <trkpt lat="68.32075" lon="18.74301">
        <time>2026-03-31T21:44:00Z</time>
      </trkpt>
      <trkpt lat="68.32451" lon="18.74894">
        <time>2026-03-31T21:54:00Z</time>
      </trkpt>
      <trkpt lat="68.32749" lon="18.75338">
        <time>2026-03-31T22:04:00Z</time>
      </trkpt>
      <trkpt lat="68.32735" lon="18.75392">
        <time>2026-03-31T22:14:00Z</time>
      </trkpt>
      <trkpt lat="68.32755" lon="18.75336">
        <time>2026-03-31T23:09:00Z</time>
      </trkpt>
      <trkpt lat="68.32756" lon="18.75392">
        <time>2026-04-01T09:48:00Z</time>
      </trkpt>
      <trkpt lat="68.32972" lon="18.76216">
        <time>2026-04-01T09:58:00Z</time>
      </trkpt>
      <trkpt lat="68.33622" lon="18.75797">
        <time>2026-04-01T10:08:00Z</time>
      </trkpt>
      <trkpt lat="68.33975" lon="18.76351">
        <time>2026-04-01T10:18:00Z</time>
      </trkpt>
      <trkpt lat="68.34232" lon="18.76501">
        <time>2026-04-01T10:28:00Z</time>
      </trkpt>
      <trkpt lat="68.34714" lon="18.76666">
        <time>2026-04-01T10:38:00Z</time>
      </trkpt>
      <trkpt lat="68.35401" lon="18.76645">
        <time>2026-04-01T10:48:00Z</time>
      </trkpt>
      <trkpt lat="68.35629" lon="18.77359">
        <time>2026-04-01T10:58:00Z</time>
      </trkpt>
      <trkpt lat="68.35798" lon="18.78001">
        <time>2026-04-01T11:08:00Z</time>
      </trkpt>
      <trkpt lat="68.35837" lon="18.78067">
        <time>2026-04-01T11:14:00Z</time>
      </trkpt>
      <trkpt lat="68.3571" lon="18.79383">
        <time>2026-04-02T09:57:00Z</time>
      </trkpt>
      <trkpt lat="68.35381" lon="18.81104">
        <time>2026-04-02T10:07:00Z</time>
      </trkpt>
      <trkpt lat="68.35676" lon="18.84041">
        <time>2026-04-02T10:37:00Z</time>
      </trkpt>
      <trkpt lat="68.36975" lon="18.9291">
        <time>2026-04-02T11:07:00Z</time>
      </trkpt>
      <trkpt lat="68.37176" lon="19.04329">
        <time>2026-04-02T11:37:00Z</time>
      </trkpt>
      <trkpt lat="68.35674" lon="19.17015">
        <time>2026-04-02T12:07:00Z</time>
      </trkpt>
      <trkpt lat="68.34048" lon="19.26796">
        <time>2026-04-02T12:37:00Z</time>
      </trkpt>
      <trkpt lat="68.33472" lon="19.30224">
        <time>2026-04-02T13:07:00Z</time>
      </trkpt>
      <trkpt lat="68.32366" lon="19.38434">
        <time>2026-04-02T13:37:00Z</time>
      </trkpt>
      <trkpt lat="68.31227" lon="19.46395">
        <time>2026-04-02T14:07:00Z</time>
      </trkpt>
      <trkpt lat="68.30989" lon="19.48189">
        <time>2026-04-02T14:37:00Z</time>
      </trkpt>
      <trkpt lat="68.30108" lon="19.55579">
        <time>2026-04-02T15:07:00Z</time>
      </trkpt>
      <trkpt lat="68.30401" lon="19.66479">
        <time>2026-04-02T15:37:00Z</time>
      </trkpt>
      <trkpt lat="68.30513" lon="19.7373">
        <time>2026-04-02T16:07:00Z</time>
      </trkpt>
      <trkpt lat="68.30651" lon="19.75957">
        <time>2026-04-02T16:37:00Z</time>
      </trkpt>
      <trkpt lat="68.31224" lon="19.8153">
        <time>2026-04-02T17:07:00Z</time>
      </trkpt>
      <trkpt lat="68.31346" lon="19.83849">
        <time>2026-04-02T17:37:00Z</time>
      </trkpt>
      <trkpt lat="68.31371" lon="19.83721">
        <time>2026-04-02T17:42:00Z</time>
      </trkpt>
      <trkpt lat="68.31352" lon="19.83849">
        <time>2026-04-03T07:38:00Z</time>
      </trkpt>
      <trkpt lat="68.31629" lon="19.85716">
        <time>2026-04-03T08:08:00Z</time>
      </trkpt>
      <trkpt lat="68.31703" lon="19.87308">
        <time>2026-04-03T08:18:00Z</time>
      </trkpt>
      <trkpt lat="68.31596" lon="19.88585">
        <time>2026-04-03T08:28:00Z</time>
      </trkpt>
      <trkpt lat="68.31681" lon="19.90188">
        <time>2026-04-03T08:38:00Z</time>
      </trkpt>
      <trkpt lat="68.31764" lon="19.90486">
        <time>2026-04-03T08:48:00Z</time>
      </trkpt>
      <trkpt lat="68.31763" lon="19.90493">
        <time>2026-04-03T08:58:00Z</time>
      </trkpt>
      <trkpt lat="68.31915" lon="19.91417">
        <time>2026-04-03T09:08:00Z</time>
      </trkpt>
      <trkpt lat="68.31901" lon="19.93668">
        <time>2026-04-03T09:18:00Z</time>
      </trkpt>
      <trkpt lat="68.32309" lon="19.94731">
        <time>2026-04-03T09:28:00Z</time>
      </trkpt>
      <trkpt lat="68.32788" lon="19.95235">
        <time>2026-04-03T09:38:00Z</time>
      </trkpt>
      <trkpt lat="68.33177" lon="19.95604">
        <time>2026-04-03T09:48:00Z</time>
      </trkpt>
      <trkpt lat="68.33662" lon="19.96149">
        <time>2026-04-03T09:58:00Z</time>
      </trkpt>
      <trkpt lat="68.33942" lon="19.96312">
        <time>2026-04-03T10:08:00Z</time>
      </trkpt>
      <trkpt lat="68.33937" lon="19.9631">
        <time>2026-04-03T10:18:00Z</time>
      </trkpt>
      <trkpt lat="68.34163" lon="19.96346">
        <time>2026-04-03T10:28:00Z</time>
      </trkpt>
      <trkpt lat="68.34632" lon="19.9693">
        <time>2026-04-03T10:38:00Z</time>
      </trkpt>
      <trkpt lat="68.35103" lon="19.98001">
        <time>2026-04-03T10:48:00Z</time>
      </trkpt>
      <trkpt lat="68.35399" lon="19.99361">
        <time>2026-04-03T10:58:00Z</time>
      </trkpt>
      <trkpt lat="68.35778" lon="20.0102">
        <time>2026-04-03T11:08:00Z</time>
      </trkpt>
      <trkpt lat="68.35962" lon="20.01769">
        <time>2026-04-03T11:18:00Z</time>
      </trkpt>
      <trkpt lat="68.36132" lon="20.02389">
        <time>2026-04-03T11:28:00Z</time>
      </trkpt>
      <trkpt lat="68.36132" lon="20.02384">
        <time>2026-04-03T11:38:00Z</time>
      </trkpt>
      <trkpt lat="68.36374" lon="20.02603">
        <time>2026-04-03T11:48:00Z</time>
      </trkpt>
      <trkpt lat="68.3663" lon="20.03796">
        <time>2026-04-03T11:58:00Z</time>
      </trkpt>
      <trkpt lat="68.3702" lon="20.04942">
        <time>2026-04-03T12:08:00Z</time>
      </trkpt>
      <trkpt lat="68.37645" lon="20.05339">
        <time>2026-04-03T12:18:00Z</time>
      </trkpt>
      <trkpt lat="68.38345" lon="20.05406">
        <time>2026-04-03T12:28:00Z</time>
      </trkpt>
      <trkpt lat="68.38607" lon="20.05794">
        <time>2026-04-03T12:38:00Z</time>
      </trkpt>
      <trkpt lat="68.38982" lon="20.06101">
        <time>2026-04-03T12:48:00Z</time>
      </trkpt>
      <trkpt lat="68.39074" lon="20.06393">
        <time>2026-04-03T12:58:00Z</time>
      </trkpt>
      <trkpt lat="68.39055" lon="20.06554">
        <time>2026-04-03T13:08:00Z</time>
      </trkpt>
      <trkpt lat="68.39446" lon="20.06161">
        <time>2026-04-03T14:08:00Z</time>
      </trkpt>
      <trkpt lat="68.39797" lon="20.06367">
        <time>2026-04-03T14:18:00Z</time>
      </trkpt>
      <trkpt lat="68.4021" lon="20.06908">
        <time>2026-04-03T14:28:00Z</time>
      </trkpt>
      <trkpt lat="68.40664" lon="20.07421">
        <time>2026-04-03T14:38:00Z</time>
      </trkpt>
      <trkpt lat="68.41041" lon="20.07891">
        <time>2026-04-03T14:48:00Z</time>
      </trkpt>
      <trkpt lat="68.41315" lon="20.08202">
        <time>2026-04-03T14:58:00Z</time>
      </trkpt>
      <trkpt lat="68.41311" lon="20.08204">
        <time>2026-04-03T15:08:00Z</time>
      </trkpt>
      <trkpt lat="68.41602" lon="20.09129">
        <time>2026-04-03T15:28:00Z</time>
      </trkpt>
      <trkpt lat="68.41966" lon="20.1053">
        <time>2026-04-03T15:38:00Z</time>
      </trkpt>
      <trkpt lat="68.4215" lon="20.12111">
        <time>2026-04-03T15:48:00Z</time>
      </trkpt>
      <trkpt lat="68.42763" lon="20.12993">
        <time>2026-04-03T15:58:00Z</time>
      </trkpt>
      <trkpt lat="68.43071" lon="20.13909">
        <time>2026-04-03T16:08:00Z</time>
      </trkpt>
      <trkpt lat="68.43055" lon="20.13894">
        <time>2026-04-03T16:18:00Z</time>
      </trkpt>
      <trkpt lat="68.43795" lon="20.14903">
        <time>2026-04-03T16:48:00Z</time>
      </trkpt>
      <trkpt lat="68.4419" lon="20.16268">
        <time>2026-04-03T16:58:00Z</time>
      </trkpt>
      <trkpt lat="68.44628" lon="20.17454">
        <time>2026-04-03T17:08:00Z</time>
      </trkpt>
      <trkpt lat="68.45061" lon="20.18639">
        <time>2026-04-03T17:18:00Z</time>
      </trkpt>
      <trkpt lat="68.45632" lon="20.19694">
        <time>2026-04-03T17:28:00Z</time>
      </trkpt>
      <trkpt lat="68.45714" lon="20.19834">
        <time>2026-04-03T17:38:00Z</time>
      </trkpt>
      <trkpt lat="68.45715" lon="20.19836">
        <time>2026-04-03T17:48:00Z</time>
      </trkpt>
      <trkpt lat="68.46237" lon="20.20802">
        <time>2026-04-03T17:58:00Z</time>
      </trkpt>
      <trkpt lat="68.46822" lon="20.21808">
        <time>2026-04-03T18:08:00Z</time>
      </trkpt>
      <trkpt lat="68.47386" lon="20.2287">
        <time>2026-04-03T18:18:00Z</time>
      </trkpt>
      <trkpt lat="68.47805" lon="20.23286">
        <time>2026-04-03T18:28:00Z</time>
      </trkpt>
      <trkpt lat="68.48229" lon="20.24209">
        <time>2026-04-03T18:38:00Z</time>
      </trkpt>
      <trkpt lat="68.4828" lon="20.24192">
        <time>2026-04-03T18:48:00Z</time>
      </trkpt>
      <trkpt lat="68.48288" lon="20.24177">
        <time>2026-04-03T19:40:00Z</time>
      </trkpt>
      <trkpt lat="68.51589" lon="20.29486">
        <time>2026-04-04T09:33:00Z</time>
      </trkpt>
      <trkpt lat="68.53709" lon="20.29252">
        <time>2026-04-04T10:03:00Z</time>
      </trkpt>
      <trkpt lat="68.55066" lon="20.3117">
        <time>2026-04-04T10:33:00Z</time>
      </trkpt>
      <trkpt lat="68.55892" lon="20.32792">
        <time>2026-04-04T11:03:00Z</time>
      </trkpt>
      <trkpt lat="68.5741" lon="20.36071">
        <time>2026-04-04T11:33:00Z</time>
      </trkpt>
      <trkpt lat="68.57945" lon="20.38045">
        <time>2026-04-04T12:03:00Z</time>
      </trkpt>
      <trkpt lat="68.58904" lon="20.40332">
        <time>2026-04-04T12:33:00Z</time>
      </trkpt>
      <trkpt lat="68.60456" lon="20.41339">
        <time>2026-04-04T13:03:00Z</time>
      </trkpt>
      <trkpt lat="68.60782" lon="20.41236">
        <time>2026-04-04T13:33:00Z</time>
      </trkpt>
      <trkpt lat="68.60787" lon="20.41216">
        <time>2026-04-04T14:03:00Z</time>
      </trkpt>
      <trkpt lat="68.62002" lon="20.42165">
        <time>2026-04-04T14:33:00Z</time>
      </trkpt>
      <trkpt lat="68.64255" lon="20.43459">
        <time>2026-04-04T15:03:00Z</time>
      </trkpt>
      <trkpt lat="68.65087" lon="20.44424">
        <time>2026-04-04T15:33:00Z</time>
      </trkpt>
      <trkpt lat="68.66993" lon="20.46645">
        <time>2026-04-04T16:03:00Z</time>
      </trkpt>
      <trkpt lat="68.692" lon="20.49624">
        <time>2026-04-04T16:33:00Z</time>
      </trkpt>
      <trkpt lat="68.69637" lon="20.501">
        <time>2026-04-04T17:03:00Z</time>
      </trkpt>
      <trkpt lat="68.71203" lon="20.51563">
        <time>2026-04-04T17:33:00Z</time>
      </trkpt>
      <trkpt lat="68.73288" lon="20.51046">
        <time>2026-04-04T18:03:00Z</time>
      </trkpt>
      <trkpt lat="68.73464" lon="20.51003">
        <time>2026-04-04T18:33:00Z</time>
      </trkpt>
      <trkpt lat="68.73454" lon="20.51018">
        <time>2026-04-04T19:03:00Z</time>
      </trkpt>
      <trkpt lat="68.73455" lon="20.5102">
        <time>2026-04-04T19:14:00Z</time>
      </trkpt>
      <trkpt lat="68.73485" lon="20.51027">
        <time>2026-04-05T08:07:00Z</time>
      </trkpt>
      <trkpt lat="68.7556" lon="20.51214">
        <time>2026-04-05T08:37:00Z</time>
      </trkpt>
      <trkpt lat="68.7751" lon="20.5178">
        <time>2026-04-05T09:07:00Z</time>
      </trkpt>
      <trkpt lat="68.78227" lon="20.51619">
        <time>2026-04-05T09:37:00Z</time>
      </trkpt>
      <trkpt lat="68.79751" lon="20.5089">
        <time>2026-04-05T10:07:00Z</time>
      </trkpt>
      <trkpt lat="68.80647" lon="20.49729">
        <time>2026-04-05T10:37:00Z</time>
      </trkpt>
      <trkpt lat="68.82237" lon="20.49319">
        <time>2026-04-05T11:07:00Z</time>
      </trkpt>
      <trkpt lat="68.84274" lon="20.50332">
        <time>2026-04-05T11:37:00Z</time>
      </trkpt>
      <trkpt lat="68.8535" lon="20.50439">
        <time>2026-04-05T12:07:00Z</time>
      </trkpt>
      <trkpt lat="68.87508" lon="20.49164">
        <time>2026-04-05T12:37:00Z</time>
      </trkpt>
      <trkpt lat="68.88645" lon="20.47154">
        <time>2026-04-05T13:07:00Z</time>
      </trkpt>
      <trkpt lat="68.89062" lon="20.46497">
        <time>2026-04-05T13:37:00Z</time>
      </trkpt>
      <trkpt lat="68.906" lon="20.42319">
        <time>2026-04-05T14:07:00Z</time>
      </trkpt>
      <trkpt lat="68.92157" lon="20.39358">
        <time>2026-04-05T14:37:00Z</time>
      </trkpt>
      <trkpt lat="68.93116" lon="20.38019">
        <time>2026-04-05T15:07:00Z</time>
      </trkpt>
      <trkpt lat="68.94727" lon="20.35878">
        <time>2026-04-05T15:37:00Z</time>
      </trkpt>
      <trkpt lat="68.97058" lon="20.35195">
        <time>2026-04-05T16:07:00Z</time>
      </trkpt>
      <trkpt lat="68.97413" lon="20.36846">
        <time>2026-04-05T16:37:00Z</time>
      </trkpt>
      <trkpt lat="68.97411" lon="20.36848">
        <time>2026-04-05T17:07:00Z</time>
      </trkpt>
      <trkpt lat="68.98011" lon="20.38294">
        <time>2026-04-05T18:07:00Z</time>
      </trkpt>
      <trkpt lat="68.98183" lon="20.41397">
        <time>2026-04-05T18:37:00Z</time>
      </trkpt>
      <trkpt lat="68.9859" lon="20.43212">
        <time>2026-04-05T19:07:00Z</time>
      </trkpt>
      <trkpt lat="68.98585" lon="20.43251">
        <time>2026-04-05T19:37:00Z</time>
      </trkpt>
      <trkpt lat="68.98561" lon="20.43268">
        <time>2026-04-05T20:46:00Z</time>
      </trkpt>
      <trkpt lat="68.98584" lon="20.43227">
        <time>2026-04-06T07:54:00Z</time>
      </trkpt>
      <trkpt lat="68.98916" lon="20.44216">
        <time>2026-04-06T08:04:00Z</time>
      </trkpt>
      <trkpt lat="68.99221" lon="20.44776">
        <time>2026-04-06T08:14:00Z</time>
      </trkpt>
      <trkpt lat="68.9944" lon="20.45534">
        <time>2026-04-06T08:24:00Z</time>
      </trkpt>
      <trkpt lat="68.99699" lon="20.46469">
        <time>2026-04-06T08:34:00Z</time>
      </trkpt>
      <trkpt lat="69.00127" lon="20.47049">
        <time>2026-04-06T08:44:00Z</time>
      </trkpt>
      <trkpt lat="69.00357" lon="20.478">
        <time>2026-04-06T08:54:00Z</time>
      </trkpt>
      <trkpt lat="69.00431" lon="20.47907">
        <time>2026-04-06T09:04:00Z</time>
      </trkpt>
      <trkpt lat="69.00634" lon="20.47963">
        <time>2026-04-06T09:14:00Z</time>
      </trkpt>
      <trkpt lat="69.01189" lon="20.47789">
        <time>2026-04-06T09:24:00Z</time>
      </trkpt>
      <trkpt lat="69.0183" lon="20.48521">
        <time>2026-04-06T09:34:00Z</time>
      </trkpt>
      <trkpt lat="69.02604" lon="20.49574">
        <time>2026-04-06T09:44:00Z</time>
      </trkpt>
      <trkpt lat="69.03427" lon="20.50791">
        <time>2026-04-06T09:54:00Z</time>
      </trkpt>
      <trkpt lat="69.03893" lon="20.5149">
        <time>2026-04-06T10:04:00Z</time>
      </trkpt>
      <trkpt lat="69.04539" lon="20.51718">
        <time>2026-04-06T10:14:00Z</time>
      </trkpt>
      <trkpt lat="69.04965" lon="20.52072">
        <time>2026-04-06T10:24:00Z</time>
      </trkpt>
      <trkpt lat="69.05238" lon="20.52643">
        <time>2026-04-06T10:34:00Z</time>
      </trkpt>
      <trkpt lat="69.0552" lon="20.5316">
        <time>2026-04-06T10:44:00Z</time>
      </trkpt>
      <trkpt lat="69.05905" lon="20.54733">
        <time>2026-04-06T10:54:00Z</time>
      </trkpt>
      <trkpt lat="69.0599" lon="20.54872">
        <time>2026-04-06T11:04:00Z</time>
      </trkpt>
      <trkpt lat="69.05988" lon="20.54868">
        <time>2026-04-06T11:14:00Z</time>
      </trkpt>
      <trkpt lat="69.0581" lon="20.55548">
        <time>2026-04-06T11:54:00Z</time>
      </trkpt>
      <trkpt lat="69.05453" lon="20.57677">
        <time>2026-04-06T12:04:00Z</time>
      </trkpt>
      <trkpt lat="69.05151" lon="20.60005">
        <time>2026-04-06T12:14:00Z</time>
      </trkpt>
      <trkpt lat="69.04874" lon="20.61803">
        <time>2026-04-06T12:24:00Z</time>
      </trkpt>
      <trkpt lat="69.04694" lon="20.63569">
        <time>2026-04-06T12:34:00Z</time>
      </trkpt>
      <trkpt lat="69.04556" lon="20.65225">
        <time>2026-04-06T12:44:00Z</time>
      </trkpt>
      <trkpt lat="69.04556" lon="20.66421">
        <time>2026-04-06T12:54:00Z</time>
      </trkpt>
      <trkpt lat="69.0453" lon="20.68457">
        <time>2026-04-06T13:04:00Z</time>
      </trkpt>
      <trkpt lat="69.04509" lon="20.70789">
        <time>2026-04-06T13:14:00Z</time>
      </trkpt>
      <trkpt lat="69.04478" lon="20.72901">
        <time>2026-04-06T13:24:00Z</time>
      </trkpt>
      <trkpt lat="69.04477" lon="20.75186">
        <time>2026-04-06T13:34:00Z</time>
      </trkpt>
      <trkpt lat="69.04594" lon="20.77488">
        <time>2026-04-06T13:44:00Z</time>
      </trkpt>
      <trkpt lat="69.04798" lon="20.79411">
        <time>2026-04-06T13:54:00Z</time>
      </trkpt>
      <trkpt lat="69.04794" lon="20.79845">
        <time>2026-04-06T14:04:00Z</time>
      </trkpt>
      <trkpt lat="69.04775" lon="20.79866">
        <time>2026-04-06T14:14:00Z</time>
      </trkpt>
      <trkpt lat="69.04697" lon="20.80076">
        <time>2026-04-06T15:12:00Z</time>
      </trkpt>
    </trkseg>
  </trk>
</gpx>
