<?xml version="1.0" encoding="UTF-8"?>
<gpx xmlns="http://www.topografix.com/GPX/1/1" version="1.1" creator="VitaBandet">
  <metadata>
    <name>Jonas Peterson's Band</name>
  </metadata>
  <trk>
    <name>Jonas Peterson's Band</name>
    <trkseg>
      <trkpt lat="62.09885" lon="12.31185">
        <time>2019-03-10T06:46:00Z</time>
      </trkpt>
      <trkpt lat="62.09885" lon="12.31185">
        <time>2019-03-10T06:46:00Z</time>
      </trkpt>
      <trkpt lat="62.09871" lon="12.31246">
        <time>2019-03-10T08:36:00Z</time>
      </trkpt>
      <trkpt lat="62.09871" lon="12.31246">
        <time>2019-03-10T08:36:00Z</time>
      </trkpt>
      <trkpt lat="62.12441" lon="12.35492">
        <time>2019-03-10T10:37:00Z</time>
      </trkpt>
      <trkpt lat="62.12441" lon="12.35492">
        <time>2019-03-10T10:37:00Z</time>
      </trkpt>
      <trkpt lat="62.18811" lon="12.38979">
        <time>2019-03-10T12:37:00Z</time>
      </trkpt>
      <trkpt lat="62.18811" lon="12.38979">
        <time>2019-03-10T12:37:00Z</time>
      </trkpt>
      <trkpt lat="62.2599" lon="12.35801">
        <time>2019-03-10T14:37:00Z</time>
      </trkpt>
      <trkpt lat="62.2599" lon="12.35801">
        <time>2019-03-10T14:37:00Z</time>
      </trkpt>
      <trkpt lat="62.30441" lon="12.43534">
        <time>2019-03-10T16:37:00Z</time>
      </trkpt>
      <trkpt lat="62.30441" lon="12.43534">
        <time>2019-03-10T16:37:00Z</time>
      </trkpt>
      <trkpt lat="62.31678" lon="12.45028">
        <time>2019-03-10T18:39:00Z</time>
      </trkpt>
      <trkpt lat="62.31678" lon="12.45028">
        <time>2019-03-10T18:39:00Z</time>
      </trkpt>
      <trkpt lat="62.31685" lon="12.45056">
        <time>2019-03-11T02:32:00Z</time>
      </trkpt>
      <trkpt lat="62.31685" lon="12.45056">
        <time>2019-03-11T02:32:00Z</time>
      </trkpt>
      <trkpt lat="62.31686" lon="12.45071">
        <time>2019-03-11T06:42:00Z</time>
      </trkpt>
      <trkpt lat="62.31686" lon="12.45071">
        <time>2019-03-11T06:42:00Z</time>
      </trkpt>
      <trkpt lat="62.35328" lon="12.34938">
        <time>2019-03-11T08:42:00Z</time>
      </trkpt>
      <trkpt lat="62.35328" lon="12.34938">
        <time>2019-03-11T08:42:00Z</time>
      </trkpt>
      <trkpt lat="62.39653" lon="12.28057">
        <time>2019-03-11T10:42:00Z</time>
      </trkpt>
      <trkpt lat="62.39653" lon="12.28057">
        <time>2019-03-11T10:42:00Z</time>
      </trkpt>
      <trkpt lat="62.42097" lon="12.28694">
        <time>2019-03-11T12:42:00Z</time>
      </trkpt>
      <trkpt lat="62.42097" lon="12.28694">
        <time>2019-03-11T12:42:00Z</time>
      </trkpt>
      <trkpt lat="62.45277" lon="12.28098">
        <time>2019-03-11T14:43:00Z</time>
      </trkpt>
      <trkpt lat="62.45277" lon="12.28098">
        <time>2019-03-11T14:43:00Z</time>
      </trkpt>
      <trkpt lat="62.46755" lon="12.28432">
        <time>2019-03-11T16:43:00Z</time>
      </trkpt>
      <trkpt lat="62.46755" lon="12.28432">
        <time>2019-03-11T16:43:00Z</time>
      </trkpt>
      <trkpt lat="62.4676" lon="12.28435">
        <time>2019-03-11T18:43:00Z</time>
      </trkpt>
      <trkpt lat="62.4676" lon="12.28435">
        <time>2019-03-11T18:43:00Z</time>
      </trkpt>
      <trkpt lat="62.46755" lon="12.28439">
        <time>2019-03-11T20:44:00Z</time>
      </trkpt>
      <trkpt lat="62.46755" lon="12.28439">
        <time>2019-03-11T20:44:00Z</time>
      </trkpt>
      <trkpt lat="62.46761" lon="12.28441">
        <time>2019-03-11T22:44:00Z</time>
      </trkpt>
      <trkpt lat="62.46761" lon="12.28441">
        <time>2019-03-11T22:44:00Z</time>
      </trkpt>
      <trkpt lat="62.46758" lon="12.28439">
        <time>2019-03-12T00:44:00Z</time>
      </trkpt>
      <trkpt lat="62.46758" lon="12.28439">
        <time>2019-03-12T00:44:00Z</time>
      </trkpt>
      <trkpt lat="62.46763" lon="12.28428">
        <time>2019-03-12T02:44:00Z</time>
      </trkpt>
      <trkpt lat="62.46763" lon="12.28428">
        <time>2019-03-12T02:44:00Z</time>
      </trkpt>
      <trkpt lat="62.46756" lon="12.28437">
        <time>2019-03-12T04:45:00Z</time>
      </trkpt>
      <trkpt lat="62.46756" lon="12.28437">
        <time>2019-03-12T04:45:00Z</time>
      </trkpt>
      <trkpt lat="62.46756" lon="12.28439">
        <time>2019-03-12T06:45:00Z</time>
      </trkpt>
      <trkpt lat="62.46756" lon="12.28439">
        <time>2019-03-12T06:45:00Z</time>
      </trkpt>
      <trkpt lat="62.51817" lon="12.28553">
        <time>2019-03-12T08:46:00Z</time>
      </trkpt>
      <trkpt lat="62.51817" lon="12.28553">
        <time>2019-03-12T08:46:00Z</time>
      </trkpt>
      <trkpt lat="62.53973" lon="12.30615">
        <time>2019-03-12T10:54:00Z</time>
      </trkpt>
      <trkpt lat="62.53973" lon="12.30615">
        <time>2019-03-12T10:54:00Z</time>
      </trkpt>
      <trkpt lat="62.54016" lon="12.30671">
        <time>2019-03-12T11:24:00Z</time>
      </trkpt>
      <trkpt lat="62.54016" lon="12.30671">
        <time>2019-03-12T11:24:00Z</time>
      </trkpt>
      <trkpt lat="62.53328" lon="12.37921">
        <time>2019-03-12T12:54:00Z</time>
      </trkpt>
      <trkpt lat="62.53328" lon="12.37921">
        <time>2019-03-12T12:54:00Z</time>
      </trkpt>
      <trkpt lat="62.57506" lon="12.44388">
        <time>2019-03-12T14:54:00Z</time>
      </trkpt>
      <trkpt lat="62.57506" lon="12.44388">
        <time>2019-03-12T14:54:00Z</time>
      </trkpt>
      <trkpt lat="62.63963" lon="12.41805">
        <time>2019-03-12T17:04:00Z</time>
      </trkpt>
      <trkpt lat="62.63963" lon="12.41805">
        <time>2019-03-12T17:04:00Z</time>
      </trkpt>
      <trkpt lat="62.63974" lon="12.41764">
        <time>2019-03-12T19:04:00Z</time>
      </trkpt>
      <trkpt lat="62.63974" lon="12.41764">
        <time>2019-03-12T19:04:00Z</time>
      </trkpt>
      <trkpt lat="62.63972" lon="12.41766">
        <time>2019-03-12T20:23:00Z</time>
      </trkpt>
      <trkpt lat="62.63972" lon="12.41766">
        <time>2019-03-12T20:23:00Z</time>
      </trkpt>
      <trkpt lat="62.63976" lon="12.41786">
        <time>2019-03-12T21:04:00Z</time>
      </trkpt>
      <trkpt lat="62.63976" lon="12.41786">
        <time>2019-03-12T21:04:00Z</time>
      </trkpt>
      <trkpt lat="62.63949" lon="12.4171">
        <time>2019-03-13T07:02:00Z</time>
      </trkpt>
      <trkpt lat="62.63949" lon="12.4171">
        <time>2019-03-13T07:02:00Z</time>
      </trkpt>
      <trkpt lat="62.67854" lon="12.41642">
        <time>2019-03-13T09:02:00Z</time>
      </trkpt>
      <trkpt lat="62.67854" lon="12.41642">
        <time>2019-03-13T09:02:00Z</time>
      </trkpt>
      <trkpt lat="62.71532" lon="12.36975">
        <time>2019-03-13T11:02:00Z</time>
      </trkpt>
      <trkpt lat="62.71532" lon="12.36975">
        <time>2019-03-13T11:02:00Z</time>
      </trkpt>
      <trkpt lat="62.73044" lon="12.31155">
        <time>2019-03-13T13:02:00Z</time>
      </trkpt>
      <trkpt lat="62.73044" lon="12.31155">
        <time>2019-03-13T13:02:00Z</time>
      </trkpt>
      <trkpt lat="62.76655" lon="12.35177">
        <time>2019-03-13T15:06:00Z</time>
      </trkpt>
      <trkpt lat="62.76655" lon="12.35177">
        <time>2019-03-13T15:06:00Z</time>
      </trkpt>
      <trkpt lat="62.76657" lon="12.35168">
        <time>2019-03-13T17:11:00Z</time>
      </trkpt>
      <trkpt lat="62.76657" lon="12.35168">
        <time>2019-03-13T17:11:00Z</time>
      </trkpt>
      <trkpt lat="62.76661" lon="12.35168">
        <time>2019-03-13T21:49:00Z</time>
      </trkpt>
      <trkpt lat="62.76661" lon="12.35168">
        <time>2019-03-13T21:49:00Z</time>
      </trkpt>
      <trkpt lat="62.76652" lon="12.35166">
        <time>2019-03-14T02:01:00Z</time>
      </trkpt>
      <trkpt lat="62.76652" lon="12.35166">
        <time>2019-03-14T02:01:00Z</time>
      </trkpt>
      <trkpt lat="62.76653" lon="12.35179">
        <time>2019-03-14T05:30:00Z</time>
      </trkpt>
      <trkpt lat="62.76653" lon="12.35179">
        <time>2019-03-14T05:30:00Z</time>
      </trkpt>
      <trkpt lat="62.79255" lon="12.39309">
        <time>2019-03-14T07:30:00Z</time>
      </trkpt>
      <trkpt lat="62.79255" lon="12.39309">
        <time>2019-03-14T07:30:00Z</time>
      </trkpt>
      <trkpt lat="62.82511" lon="12.45236">
        <time>2019-03-14T09:30:00Z</time>
      </trkpt>
      <trkpt lat="62.82511" lon="12.45236">
        <time>2019-03-14T09:30:00Z</time>
      </trkpt>
      <trkpt lat="62.88194" lon="12.50575">
        <time>2019-03-14T11:30:00Z</time>
      </trkpt>
      <trkpt lat="62.88194" lon="12.50575">
        <time>2019-03-14T11:30:00Z</time>
      </trkpt>
      <trkpt lat="62.91694" lon="12.50592">
        <time>2019-03-14T13:45:00Z</time>
      </trkpt>
      <trkpt lat="62.91694" lon="12.50592">
        <time>2019-03-14T13:45:00Z</time>
      </trkpt>
      <trkpt lat="62.95999" lon="12.40168">
        <time>2019-03-14T15:45:00Z</time>
      </trkpt>
      <trkpt lat="62.95999" lon="12.40168">
        <time>2019-03-14T15:45:00Z</time>
      </trkpt>
      <trkpt lat="62.99037" lon="12.35711">
        <time>2019-03-15T04:44:00Z</time>
      </trkpt>
      <trkpt lat="62.99037" lon="12.35711">
        <time>2019-03-15T04:44:00Z</time>
      </trkpt>
      <trkpt lat="62.99034" lon="12.35709">
        <time>2019-03-15T06:44:00Z</time>
      </trkpt>
      <trkpt lat="62.99034" lon="12.35709">
        <time>2019-03-15T06:44:00Z</time>
      </trkpt>
      <trkpt lat="63.02538" lon="12.2937">
        <time>2019-03-15T08:44:00Z</time>
      </trkpt>
      <trkpt lat="63.02538" lon="12.2937">
        <time>2019-03-15T08:44:00Z</time>
      </trkpt>
      <trkpt lat="63.06092" lon="12.27679">
        <time>2019-03-15T10:44:00Z</time>
      </trkpt>
      <trkpt lat="63.06092" lon="12.27679">
        <time>2019-03-15T10:44:00Z</time>
      </trkpt>
      <trkpt lat="63.12223" lon="12.23062">
        <time>2019-03-15T12:44:00Z</time>
      </trkpt>
      <trkpt lat="63.12223" lon="12.23062">
        <time>2019-03-15T12:44:00Z</time>
      </trkpt>
      <trkpt lat="63.17272" lon="12.18725">
        <time>2019-03-15T14:44:00Z</time>
      </trkpt>
      <trkpt lat="63.17272" lon="12.18725">
        <time>2019-03-15T14:44:00Z</time>
      </trkpt>
      <trkpt lat="63.18413" lon="12.17081">
        <time>2019-03-15T18:50:00Z</time>
      </trkpt>
      <trkpt lat="63.18413" lon="12.17081">
        <time>2019-03-15T18:50:00Z</time>
      </trkpt>
      <trkpt lat="63.18556" lon="12.17414">
        <time>2019-03-15T21:02:00Z</time>
      </trkpt>
      <trkpt lat="63.18556" lon="12.17414">
        <time>2019-03-15T21:02:00Z</time>
      </trkpt>
      <trkpt lat="63.18559" lon="12.17408">
        <time>2019-03-16T03:32:00Z</time>
      </trkpt>
      <trkpt lat="63.18559" lon="12.17408">
        <time>2019-03-16T03:32:00Z</time>
      </trkpt>
      <trkpt lat="63.18556" lon="12.17373">
        <time>2019-03-16T05:52:00Z</time>
      </trkpt>
      <trkpt lat="63.18556" lon="12.17373">
        <time>2019-03-16T05:52:00Z</time>
      </trkpt>
      <trkpt lat="63.20701" lon="12.16405">
        <time>2019-03-16T07:52:00Z</time>
      </trkpt>
      <trkpt lat="63.20701" lon="12.16405">
        <time>2019-03-16T07:52:00Z</time>
      </trkpt>
      <trkpt lat="63.2865" lon="12.12294">
        <time>2019-03-16T09:52:00Z</time>
      </trkpt>
      <trkpt lat="63.2865" lon="12.12294">
        <time>2019-03-16T09:52:00Z</time>
      </trkpt>
      <trkpt lat="63.31419" lon="12.10964">
        <time>2019-03-16T11:52:00Z</time>
      </trkpt>
      <trkpt lat="63.31419" lon="12.10964">
        <time>2019-03-16T11:52:00Z</time>
      </trkpt>
      <trkpt lat="63.33203" lon="12.12992">
        <time>2019-03-16T13:52:00Z</time>
      </trkpt>
      <trkpt lat="63.33203" lon="12.12992">
        <time>2019-03-16T13:52:00Z</time>
      </trkpt>
      <trkpt lat="63.35503" lon="12.27134">
        <time>2019-03-16T15:52:00Z</time>
      </trkpt>
      <trkpt lat="63.35503" lon="12.27134">
        <time>2019-03-16T15:52:00Z</time>
      </trkpt>
      <trkpt lat="63.36342" lon="12.27396">
        <time>2019-03-16T17:52:00Z</time>
      </trkpt>
      <trkpt lat="63.36342" lon="12.27396">
        <time>2019-03-16T17:52:00Z</time>
      </trkpt>
      <trkpt lat="63.36341" lon="12.27392">
        <time>2019-03-16T18:26:00Z</time>
      </trkpt>
      <trkpt lat="63.36341" lon="12.27392">
        <time>2019-03-16T18:26:00Z</time>
      </trkpt>
      <trkpt lat="63.36336" lon="12.2739">
        <time>2019-03-18T08:15:00Z</time>
      </trkpt>
      <trkpt lat="63.36336" lon="12.2739">
        <time>2019-03-18T08:15:00Z</time>
      </trkpt>
      <trkpt lat="63.41392" lon="12.22989">
        <time>2019-03-18T10:15:00Z</time>
      </trkpt>
      <trkpt lat="63.41392" lon="12.22989">
        <time>2019-03-18T10:15:00Z</time>
      </trkpt>
      <trkpt lat="63.47241" lon="12.24592">
        <time>2019-03-18T12:15:00Z</time>
      </trkpt>
      <trkpt lat="63.47241" lon="12.24592">
        <time>2019-03-18T12:15:00Z</time>
      </trkpt>
      <trkpt lat="63.528" lon="12.24656">
        <time>2019-03-18T14:15:00Z</time>
      </trkpt>
      <trkpt lat="63.528" lon="12.24656">
        <time>2019-03-18T14:15:00Z</time>
      </trkpt>
      <trkpt lat="63.5752" lon="12.27621">
        <time>2019-03-18T16:15:00Z</time>
      </trkpt>
      <trkpt lat="63.5752" lon="12.27621">
        <time>2019-03-18T16:15:00Z</time>
      </trkpt>
      <trkpt lat="63.5752" lon="12.27608">
        <time>2019-03-19T08:16:00Z</time>
      </trkpt>
      <trkpt lat="63.5752" lon="12.27608">
        <time>2019-03-19T08:16:00Z</time>
      </trkpt>
      <trkpt lat="63.6057" lon="12.37685">
        <time>2019-03-19T10:16:00Z</time>
      </trkpt>
      <trkpt lat="63.6057" lon="12.37685">
        <time>2019-03-19T10:16:00Z</time>
      </trkpt>
      <trkpt lat="63.63053" lon="12.49637">
        <time>2019-03-19T12:16:00Z</time>
      </trkpt>
      <trkpt lat="63.63053" lon="12.49637">
        <time>2019-03-19T12:16:00Z</time>
      </trkpt>
      <trkpt lat="63.6633" lon="12.52967">
        <time>2019-03-19T14:16:00Z</time>
      </trkpt>
      <trkpt lat="63.6633" lon="12.52967">
        <time>2019-03-19T14:16:00Z</time>
      </trkpt>
      <trkpt lat="63.70111" lon="12.60027">
        <time>2019-03-19T16:16:00Z</time>
      </trkpt>
      <trkpt lat="63.70111" lon="12.60027">
        <time>2019-03-19T16:16:00Z</time>
      </trkpt>
      <trkpt lat="63.71037" lon="12.6334">
        <time>2019-03-20T06:38:00Z</time>
      </trkpt>
      <trkpt lat="63.71037" lon="12.6334">
        <time>2019-03-20T06:38:00Z</time>
      </trkpt>
      <trkpt lat="63.69848" lon="12.70507">
        <time>2019-03-20T08:38:00Z</time>
      </trkpt>
      <trkpt lat="63.69848" lon="12.70507">
        <time>2019-03-20T08:38:00Z</time>
      </trkpt>
      <trkpt lat="63.70524" lon="12.79169">
        <time>2019-03-20T10:38:00Z</time>
      </trkpt>
      <trkpt lat="63.70524" lon="12.79169">
        <time>2019-03-20T10:38:00Z</time>
      </trkpt>
      <trkpt lat="63.72761" lon="12.87909">
        <time>2019-03-20T12:38:00Z</time>
      </trkpt>
      <trkpt lat="63.72761" lon="12.87909">
        <time>2019-03-20T12:38:00Z</time>
      </trkpt>
      <trkpt lat="63.74799" lon="12.96481">
        <time>2019-03-20T14:38:00Z</time>
      </trkpt>
      <trkpt lat="63.74799" lon="12.96481">
        <time>2019-03-20T14:38:00Z</time>
      </trkpt>
      <trkpt lat="63.74818" lon="12.96503">
        <time>2019-03-20T15:06:00Z</time>
      </trkpt>
      <trkpt lat="63.74818" lon="12.96503">
        <time>2019-03-20T15:06:00Z</time>
      </trkpt>
      <trkpt lat="63.7479" lon="12.96496">
        <time>2019-03-21T07:31:00Z</time>
      </trkpt>
      <trkpt lat="63.7479" lon="12.96496">
        <time>2019-03-21T07:31:00Z</time>
      </trkpt>
      <trkpt lat="63.74291" lon="13.09122">
        <time>2019-03-21T09:31:00Z</time>
      </trkpt>
      <trkpt lat="63.74291" lon="13.09122">
        <time>2019-03-21T09:31:00Z</time>
      </trkpt>
      <trkpt lat="63.72536" lon="13.27041">
        <time>2019-03-21T11:31:00Z</time>
      </trkpt>
      <trkpt lat="63.72536" lon="13.27041">
        <time>2019-03-21T11:31:00Z</time>
      </trkpt>
      <trkpt lat="63.72099" lon="13.40184">
        <time>2019-03-21T13:31:00Z</time>
      </trkpt>
      <trkpt lat="63.72099" lon="13.40184">
        <time>2019-03-21T13:31:00Z</time>
      </trkpt>
      <trkpt lat="63.70869" lon="13.607">
        <time>2019-03-21T15:31:00Z</time>
      </trkpt>
      <trkpt lat="63.70869" lon="13.607">
        <time>2019-03-21T15:31:00Z</time>
      </trkpt>
      <trkpt lat="63.74611" lon="13.63133">
        <time>2019-03-22T07:02:00Z</time>
      </trkpt>
      <trkpt lat="63.74611" lon="13.63133">
        <time>2019-03-22T07:02:00Z</time>
      </trkpt>
      <trkpt lat="63.76441" lon="13.79748">
        <time>2019-03-22T09:02:00Z</time>
      </trkpt>
      <trkpt lat="63.76441" lon="13.79748">
        <time>2019-03-22T09:02:00Z</time>
      </trkpt>
      <trkpt lat="63.80042" lon="13.83548">
        <time>2019-03-22T11:02:00Z</time>
      </trkpt>
      <trkpt lat="63.80042" lon="13.83548">
        <time>2019-03-22T11:02:00Z</time>
      </trkpt>
      <trkpt lat="63.82922" lon="13.86949">
        <time>2019-03-22T13:02:00Z</time>
      </trkpt>
      <trkpt lat="63.82922" lon="13.86949">
        <time>2019-03-22T13:02:00Z</time>
      </trkpt>
      <trkpt lat="63.91004" lon="13.86657">
        <time>2019-03-22T15:02:00Z</time>
      </trkpt>
      <trkpt lat="63.91004" lon="13.86657">
        <time>2019-03-22T15:02:00Z</time>
      </trkpt>
      <trkpt lat="63.95442" lon="13.98742">
        <time>2019-03-22T17:02:00Z</time>
      </trkpt>
      <trkpt lat="63.95442" lon="13.98742">
        <time>2019-03-22T17:02:00Z</time>
      </trkpt>
      <trkpt lat="63.96411" lon="14.06175">
        <time>2019-03-23T07:28:00Z</time>
      </trkpt>
      <trkpt lat="63.96411" lon="14.06175">
        <time>2019-03-23T07:28:00Z</time>
      </trkpt>
      <trkpt lat="64.0226" lon="14.03579">
        <time>2019-03-23T09:28:00Z</time>
      </trkpt>
      <trkpt lat="64.0226" lon="14.03579">
        <time>2019-03-23T09:28:00Z</time>
      </trkpt>
      <trkpt lat="64.06904" lon="14.10934">
        <time>2019-03-23T11:28:00Z</time>
      </trkpt>
      <trkpt lat="64.06904" lon="14.10934">
        <time>2019-03-23T11:28:00Z</time>
      </trkpt>
      <trkpt lat="64.0685" lon="14.11645">
        <time>2019-03-23T13:28:00Z</time>
      </trkpt>
      <trkpt lat="64.0685" lon="14.11645">
        <time>2019-03-23T13:28:00Z</time>
      </trkpt>
      <trkpt lat="64.11524" lon="14.15305">
        <time>2019-03-23T15:28:00Z</time>
      </trkpt>
      <trkpt lat="64.11524" lon="14.15305">
        <time>2019-03-23T15:28:00Z</time>
      </trkpt>
      <trkpt lat="64.132" lon="14.18247">
        <time>2019-03-23T17:28:00Z</time>
      </trkpt>
      <trkpt lat="64.132" lon="14.18247">
        <time>2019-03-23T17:28:00Z</time>
      </trkpt>
      <trkpt lat="64.13203" lon="14.18253">
        <time>2019-03-23T19:00:00Z</time>
      </trkpt>
      <trkpt lat="64.13203" lon="14.18253">
        <time>2019-03-23T19:00:00Z</time>
      </trkpt>
      <trkpt lat="64.13198" lon="14.18249">
        <time>2019-03-24T07:37:00Z</time>
      </trkpt>
      <trkpt lat="64.13198" lon="14.18249">
        <time>2019-03-24T07:37:00Z</time>
      </trkpt>
      <trkpt lat="64.15512" lon="14.21494">
        <time>2019-03-24T09:37:00Z</time>
      </trkpt>
      <trkpt lat="64.15512" lon="14.21494">
        <time>2019-03-24T09:37:00Z</time>
      </trkpt>
      <trkpt lat="64.21021" lon="14.23541">
        <time>2019-03-24T11:37:00Z</time>
      </trkpt>
      <trkpt lat="64.21021" lon="14.23541">
        <time>2019-03-24T11:37:00Z</time>
      </trkpt>
      <trkpt lat="64.26521" lon="14.21858">
        <time>2019-03-24T13:37:00Z</time>
      </trkpt>
      <trkpt lat="64.26521" lon="14.21858">
        <time>2019-03-24T13:37:00Z</time>
      </trkpt>
      <trkpt lat="64.29901" lon="14.24993">
        <time>2019-03-24T15:37:00Z</time>
      </trkpt>
      <trkpt lat="64.29901" lon="14.24993">
        <time>2019-03-24T15:37:00Z</time>
      </trkpt>
      <trkpt lat="64.3314" lon="14.28731">
        <time>2019-03-24T17:37:00Z</time>
      </trkpt>
      <trkpt lat="64.3314" lon="14.28731">
        <time>2019-03-24T17:37:00Z</time>
      </trkpt>
      <trkpt lat="64.33137" lon="14.28742">
        <time>2019-03-24T18:23:00Z</time>
      </trkpt>
      <trkpt lat="64.33137" lon="14.28742">
        <time>2019-03-24T18:23:00Z</time>
      </trkpt>
      <trkpt lat="64.33138" lon="14.28742">
        <time>2019-03-25T06:21:00Z</time>
      </trkpt>
      <trkpt lat="64.33138" lon="14.28742">
        <time>2019-03-25T06:21:00Z</time>
      </trkpt>
      <trkpt lat="64.35674" lon="14.29437">
        <time>2019-03-25T08:21:00Z</time>
      </trkpt>
      <trkpt lat="64.35674" lon="14.29437">
        <time>2019-03-25T08:21:00Z</time>
      </trkpt>
      <trkpt lat="64.3769" lon="14.30753">
        <time>2019-03-25T10:21:00Z</time>
      </trkpt>
      <trkpt lat="64.3769" lon="14.30753">
        <time>2019-03-25T10:21:00Z</time>
      </trkpt>
      <trkpt lat="64.41365" lon="14.28744">
        <time>2019-03-25T12:21:00Z</time>
      </trkpt>
      <trkpt lat="64.41365" lon="14.28744">
        <time>2019-03-25T12:21:00Z</time>
      </trkpt>
      <trkpt lat="64.45461" lon="14.14601">
        <time>2019-03-25T14:21:00Z</time>
      </trkpt>
      <trkpt lat="64.45461" lon="14.14601">
        <time>2019-03-25T14:21:00Z</time>
      </trkpt>
      <trkpt lat="64.48248" lon="14.12814">
        <time>2019-03-25T15:53:00Z</time>
      </trkpt>
      <trkpt lat="64.48248" lon="14.12814">
        <time>2019-03-25T15:53:00Z</time>
      </trkpt>
      <trkpt lat="64.48235" lon="14.12775">
        <time>2019-03-26T06:26:00Z</time>
      </trkpt>
      <trkpt lat="64.48235" lon="14.12775">
        <time>2019-03-26T06:26:00Z</time>
      </trkpt>
      <trkpt lat="64.50034" lon="14.14322">
        <time>2019-03-26T08:26:00Z</time>
      </trkpt>
      <trkpt lat="64.50034" lon="14.14322">
        <time>2019-03-26T08:26:00Z</time>
      </trkpt>
      <trkpt lat="64.50487" lon="14.1493">
        <time>2019-03-26T10:26:00Z</time>
      </trkpt>
      <trkpt lat="64.50487" lon="14.1493">
        <time>2019-03-26T10:26:00Z</time>
      </trkpt>
      <trkpt lat="64.51206" lon="14.15586">
        <time>2019-03-26T12:26:00Z</time>
      </trkpt>
      <trkpt lat="64.51206" lon="14.15586">
        <time>2019-03-26T12:26:00Z</time>
      </trkpt>
      <trkpt lat="64.55378" lon="14.14213">
        <time>2019-03-26T14:26:00Z</time>
      </trkpt>
      <trkpt lat="64.55378" lon="14.14213">
        <time>2019-03-26T14:26:00Z</time>
      </trkpt>
      <trkpt lat="64.62925" lon="14.12998">
        <time>2019-03-26T16:26:00Z</time>
      </trkpt>
      <trkpt lat="64.62925" lon="14.12998">
        <time>2019-03-26T16:26:00Z</time>
      </trkpt>
      <trkpt lat="64.67471" lon="14.2011">
        <time>2019-03-26T18:26:00Z</time>
      </trkpt>
      <trkpt lat="64.67471" lon="14.2011">
        <time>2019-03-26T18:26:00Z</time>
      </trkpt>
      <trkpt lat="64.67845" lon="14.20676">
        <time>2019-03-27T06:18:00Z</time>
      </trkpt>
      <trkpt lat="64.67845" lon="14.20676">
        <time>2019-03-27T06:18:00Z</time>
      </trkpt>
      <trkpt lat="64.7257" lon="14.16442">
        <time>2019-03-27T08:18:00Z</time>
      </trkpt>
      <trkpt lat="64.7257" lon="14.16442">
        <time>2019-03-27T08:18:00Z</time>
      </trkpt>
      <trkpt lat="64.76504" lon="14.19876">
        <time>2019-03-27T10:18:00Z</time>
      </trkpt>
      <trkpt lat="64.76504" lon="14.19876">
        <time>2019-03-27T10:18:00Z</time>
      </trkpt>
      <trkpt lat="64.81449" lon="14.23142">
        <time>2019-03-27T12:18:00Z</time>
      </trkpt>
      <trkpt lat="64.81449" lon="14.23142">
        <time>2019-03-27T12:18:00Z</time>
      </trkpt>
      <trkpt lat="64.83079" lon="14.25609">
        <time>2019-03-27T14:18:00Z</time>
      </trkpt>
      <trkpt lat="64.83079" lon="14.25609">
        <time>2019-03-27T14:18:00Z</time>
      </trkpt>
      <trkpt lat="64.8596" lon="14.35329">
        <time>2019-03-27T16:18:00Z</time>
      </trkpt>
      <trkpt lat="64.8596" lon="14.35329">
        <time>2019-03-27T16:18:00Z</time>
      </trkpt>
      <trkpt lat="64.88278" lon="14.39881">
        <time>2019-03-28T06:59:00Z</time>
      </trkpt>
      <trkpt lat="64.88278" lon="14.39881">
        <time>2019-03-28T06:59:00Z</time>
      </trkpt>
      <trkpt lat="64.89156" lon="14.49974">
        <time>2019-03-28T08:59:00Z</time>
      </trkpt>
      <trkpt lat="64.89156" lon="14.49974">
        <time>2019-03-28T08:59:00Z</time>
      </trkpt>
      <trkpt lat="64.92114" lon="14.55244">
        <time>2019-03-29T08:25:00Z</time>
      </trkpt>
      <trkpt lat="64.92114" lon="14.55244">
        <time>2019-03-29T08:25:00Z</time>
      </trkpt>
      <trkpt lat="64.94451" lon="14.61761">
        <time>2019-03-29T10:25:00Z</time>
      </trkpt>
      <trkpt lat="64.94451" lon="14.61761">
        <time>2019-03-29T10:25:00Z</time>
      </trkpt>
      <trkpt lat="64.98394" lon="14.71795">
        <time>2019-03-29T12:30:00Z</time>
      </trkpt>
      <trkpt lat="64.98394" lon="14.71795">
        <time>2019-03-29T12:30:00Z</time>
      </trkpt>
      <trkpt lat="65.04367" lon="14.7273">
        <time>2019-03-29T14:30:00Z</time>
      </trkpt>
      <trkpt lat="65.04367" lon="14.7273">
        <time>2019-03-29T14:30:00Z</time>
      </trkpt>
      <trkpt lat="65.06342" lon="14.80938">
        <time>2019-03-29T16:30:00Z</time>
      </trkpt>
      <trkpt lat="65.06342" lon="14.80938">
        <time>2019-03-29T16:30:00Z</time>
      </trkpt>
      <trkpt lat="65.06312" lon="14.80895">
        <time>2019-03-29T16:48:00Z</time>
      </trkpt>
      <trkpt lat="65.06312" lon="14.80895">
        <time>2019-03-29T16:48:00Z</time>
      </trkpt>
      <trkpt lat="65.06311" lon="14.80893">
        <time>2019-03-30T06:11:00Z</time>
      </trkpt>
      <trkpt lat="65.06311" lon="14.80893">
        <time>2019-03-30T06:11:00Z</time>
      </trkpt>
      <trkpt lat="65.10311" lon="14.74936">
        <time>2019-03-30T08:11:00Z</time>
      </trkpt>
      <trkpt lat="65.10311" lon="14.74936">
        <time>2019-03-30T08:11:00Z</time>
      </trkpt>
      <trkpt lat="65.14326" lon="14.77914">
        <time>2019-03-30T10:11:00Z</time>
      </trkpt>
      <trkpt lat="65.14326" lon="14.77914">
        <time>2019-03-30T10:11:00Z</time>
      </trkpt>
      <trkpt lat="65.20593" lon="14.85729">
        <time>2019-03-30T12:11:00Z</time>
      </trkpt>
      <trkpt lat="65.20593" lon="14.85729">
        <time>2019-03-30T12:11:00Z</time>
      </trkpt>
      <trkpt lat="65.2403" lon="14.883">
        <time>2019-03-30T14:11:00Z</time>
      </trkpt>
      <trkpt lat="65.2403" lon="14.883">
        <time>2019-03-30T14:11:00Z</time>
      </trkpt>
      <trkpt lat="65.2533" lon="14.93177">
        <time>2019-03-30T15:56:00Z</time>
      </trkpt>
      <trkpt lat="65.2533" lon="14.93177">
        <time>2019-03-30T15:56:00Z</time>
      </trkpt>
      <trkpt lat="65.2533" lon="14.93186">
        <time>2019-03-31T05:03:00Z</time>
      </trkpt>
      <trkpt lat="65.2533" lon="14.93186">
        <time>2019-03-31T05:03:00Z</time>
      </trkpt>
      <trkpt lat="65.28835" lon="15.00816">
        <time>2019-03-31T07:03:00Z</time>
      </trkpt>
      <trkpt lat="65.28835" lon="15.00816">
        <time>2019-03-31T07:03:00Z</time>
      </trkpt>
      <trkpt lat="65.33981" lon="15.10318">
        <time>2019-03-31T09:03:00Z</time>
      </trkpt>
      <trkpt lat="65.33981" lon="15.10318">
        <time>2019-03-31T09:03:00Z</time>
      </trkpt>
      <trkpt lat="65.34742" lon="15.2243">
        <time>2019-03-31T11:03:00Z</time>
      </trkpt>
      <trkpt lat="65.34742" lon="15.2243">
        <time>2019-03-31T11:03:00Z</time>
      </trkpt>
      <trkpt lat="65.35098" lon="15.30486">
        <time>2019-03-31T13:03:00Z</time>
      </trkpt>
      <trkpt lat="65.35098" lon="15.30486">
        <time>2019-03-31T13:03:00Z</time>
      </trkpt>
      <trkpt lat="65.41755" lon="15.25816">
        <time>2019-03-31T15:03:00Z</time>
      </trkpt>
      <trkpt lat="65.41755" lon="15.25816">
        <time>2019-03-31T15:03:00Z</time>
      </trkpt>
      <trkpt lat="65.4512" lon="15.25005">
        <time>2019-03-31T17:03:00Z</time>
      </trkpt>
      <trkpt lat="65.4512" lon="15.25005">
        <time>2019-03-31T17:03:00Z</time>
      </trkpt>
      <trkpt lat="65.45107" lon="15.24999">
        <time>2019-03-31T17:42:00Z</time>
      </trkpt>
      <trkpt lat="65.45107" lon="15.24999">
        <time>2019-03-31T17:42:00Z</time>
      </trkpt>
      <trkpt lat="65.45118" lon="15.2501">
        <time>2019-04-01T05:10:00Z</time>
      </trkpt>
      <trkpt lat="65.45118" lon="15.2501">
        <time>2019-04-01T05:10:00Z</time>
      </trkpt>
      <trkpt lat="65.50525" lon="15.34584">
        <time>2019-04-01T07:10:00Z</time>
      </trkpt>
      <trkpt lat="65.50525" lon="15.34584">
        <time>2019-04-01T07:10:00Z</time>
      </trkpt>
      <trkpt lat="65.55589" lon="15.34668">
        <time>2019-04-01T09:10:00Z</time>
      </trkpt>
      <trkpt lat="65.55589" lon="15.34668">
        <time>2019-04-01T09:10:00Z</time>
      </trkpt>
      <trkpt lat="65.57954" lon="15.3603">
        <time>2019-04-01T11:10:00Z</time>
      </trkpt>
      <trkpt lat="65.57954" lon="15.3603">
        <time>2019-04-01T11:10:00Z</time>
      </trkpt>
      <trkpt lat="65.61316" lon="15.36118">
        <time>2019-04-01T13:10:00Z</time>
      </trkpt>
      <trkpt lat="65.61316" lon="15.36118">
        <time>2019-04-01T13:10:00Z</time>
      </trkpt>
      <trkpt lat="65.65471" lon="15.29323">
        <time>2019-04-01T15:10:00Z</time>
      </trkpt>
      <trkpt lat="65.65471" lon="15.29323">
        <time>2019-04-01T15:10:00Z</time>
      </trkpt>
      <trkpt lat="65.68928" lon="15.19014">
        <time>2019-04-01T17:10:00Z</time>
      </trkpt>
      <trkpt lat="65.68928" lon="15.19014">
        <time>2019-04-01T17:10:00Z</time>
      </trkpt>
      <trkpt lat="65.71012" lon="15.24336">
        <time>2019-04-01T19:11:00Z</time>
      </trkpt>
      <trkpt lat="65.71012" lon="15.24336">
        <time>2019-04-01T19:11:00Z</time>
      </trkpt>
      <trkpt lat="65.71407" lon="15.29376">
        <time>2019-04-03T04:51:00Z</time>
      </trkpt>
      <trkpt lat="65.71407" lon="15.29376">
        <time>2019-04-03T04:51:00Z</time>
      </trkpt>
      <trkpt lat="65.76203" lon="15.32224">
        <time>2019-04-03T06:51:00Z</time>
      </trkpt>
      <trkpt lat="65.76203" lon="15.32224">
        <time>2019-04-03T06:51:00Z</time>
      </trkpt>
      <trkpt lat="65.80565" lon="15.35732">
        <time>2019-04-03T08:51:00Z</time>
      </trkpt>
      <trkpt lat="65.80565" lon="15.35732">
        <time>2019-04-03T08:51:00Z</time>
      </trkpt>
      <trkpt lat="65.86487" lon="15.32423">
        <time>2019-04-03T10:51:00Z</time>
      </trkpt>
      <trkpt lat="65.86487" lon="15.32423">
        <time>2019-04-03T10:51:00Z</time>
      </trkpt>
      <trkpt lat="65.8928" lon="15.3967">
        <time>2019-04-03T12:51:00Z</time>
      </trkpt>
      <trkpt lat="65.8928" lon="15.3967">
        <time>2019-04-03T12:51:00Z</time>
      </trkpt>
      <trkpt lat="65.93361" lon="15.46903">
        <time>2019-04-03T14:51:00Z</time>
      </trkpt>
      <trkpt lat="65.93361" lon="15.46903">
        <time>2019-04-03T14:51:00Z</time>
      </trkpt>
      <trkpt lat="65.98752" lon="15.49238">
        <time>2019-04-03T16:51:00Z</time>
      </trkpt>
      <trkpt lat="65.98752" lon="15.49238">
        <time>2019-04-03T16:51:00Z</time>
      </trkpt>
      <trkpt lat="65.98889" lon="15.49574">
        <time>2019-04-03T17:10:00Z</time>
      </trkpt>
      <trkpt lat="65.98889" lon="15.49574">
        <time>2019-04-03T17:10:00Z</time>
      </trkpt>
      <trkpt lat="65.98885" lon="15.4954">
        <time>2019-04-04T04:37:00Z</time>
      </trkpt>
      <trkpt lat="65.98885" lon="15.4954">
        <time>2019-04-04T04:37:00Z</time>
      </trkpt>
      <trkpt lat="66.01019" lon="15.54091">
        <time>2019-04-04T06:37:00Z</time>
      </trkpt>
      <trkpt lat="66.01019" lon="15.54091">
        <time>2019-04-04T06:37:00Z</time>
      </trkpt>
      <trkpt lat="66.05182" lon="15.54653">
        <time>2019-04-04T08:37:00Z</time>
      </trkpt>
      <trkpt lat="66.05182" lon="15.54653">
        <time>2019-04-04T08:37:00Z</time>
      </trkpt>
      <trkpt lat="66.08413" lon="15.53997">
        <time>2019-04-04T10:37:00Z</time>
      </trkpt>
      <trkpt lat="66.08413" lon="15.53997">
        <time>2019-04-04T10:37:00Z</time>
      </trkpt>
      <trkpt lat="66.12583" lon="15.56804">
        <time>2019-04-04T12:37:00Z</time>
      </trkpt>
      <trkpt lat="66.12583" lon="15.56804">
        <time>2019-04-04T12:37:00Z</time>
      </trkpt>
      <trkpt lat="66.18617" lon="15.65054">
        <time>2019-04-04T14:37:00Z</time>
      </trkpt>
      <trkpt lat="66.18617" lon="15.65054">
        <time>2019-04-04T14:37:00Z</time>
      </trkpt>
      <trkpt lat="66.24166" lon="15.60842">
        <time>2019-04-04T16:37:00Z</time>
      </trkpt>
      <trkpt lat="66.24166" lon="15.60842">
        <time>2019-04-04T16:37:00Z</time>
      </trkpt>
      <trkpt lat="66.27336" lon="15.55267">
        <time>2019-04-04T18:11:00Z</time>
      </trkpt>
      <trkpt lat="66.27336" lon="15.55267">
        <time>2019-04-04T18:11:00Z</time>
      </trkpt>
      <trkpt lat="66.27338" lon="15.55263">
        <time>2019-04-04T18:37:00Z</time>
      </trkpt>
      <trkpt lat="66.27338" lon="15.55263">
        <time>2019-04-04T18:37:00Z</time>
      </trkpt>
      <trkpt lat="66.27331" lon="15.55252">
        <time>2019-04-04T20:37:00Z</time>
      </trkpt>
      <trkpt lat="66.27331" lon="15.55252">
        <time>2019-04-04T20:37:00Z</time>
      </trkpt>
      <trkpt lat="66.27335" lon="15.55267">
        <time>2019-04-04T22:37:00Z</time>
      </trkpt>
      <trkpt lat="66.27335" lon="15.55267">
        <time>2019-04-04T22:37:00Z</time>
      </trkpt>
      <trkpt lat="66.27336" lon="15.55265">
        <time>2019-04-05T00:37:00Z</time>
      </trkpt>
      <trkpt lat="66.27336" lon="15.55265">
        <time>2019-04-05T00:37:00Z</time>
      </trkpt>
      <trkpt lat="66.27334" lon="15.55269">
        <time>2019-04-05T02:38:00Z</time>
      </trkpt>
      <trkpt lat="66.27334" lon="15.55269">
        <time>2019-04-05T02:38:00Z</time>
      </trkpt>
      <trkpt lat="66.27337" lon="15.55239">
        <time>2019-04-05T04:38:00Z</time>
      </trkpt>
      <trkpt lat="66.27337" lon="15.55239">
        <time>2019-04-05T04:38:00Z</time>
      </trkpt>
      <trkpt lat="66.28428" lon="15.61374">
        <time>2019-04-05T06:38:00Z</time>
      </trkpt>
      <trkpt lat="66.28428" lon="15.61374">
        <time>2019-04-05T06:38:00Z</time>
      </trkpt>
      <trkpt lat="66.31249" lon="15.65492">
        <time>2019-04-05T08:38:00Z</time>
      </trkpt>
      <trkpt lat="66.31249" lon="15.65492">
        <time>2019-04-05T08:38:00Z</time>
      </trkpt>
      <trkpt lat="66.34917" lon="15.71292">
        <time>2019-04-05T10:38:00Z</time>
      </trkpt>
      <trkpt lat="66.34917" lon="15.71292">
        <time>2019-04-05T10:38:00Z</time>
      </trkpt>
      <trkpt lat="66.37288" lon="15.74532">
        <time>2019-04-05T12:38:00Z</time>
      </trkpt>
      <trkpt lat="66.37288" lon="15.74532">
        <time>2019-04-05T12:38:00Z</time>
      </trkpt>
      <trkpt lat="66.39639" lon="15.8392">
        <time>2019-04-05T14:38:00Z</time>
      </trkpt>
      <trkpt lat="66.39639" lon="15.8392">
        <time>2019-04-05T14:38:00Z</time>
      </trkpt>
      <trkpt lat="66.41486" lon="15.98453">
        <time>2019-04-05T16:38:00Z</time>
      </trkpt>
      <trkpt lat="66.41486" lon="15.98453">
        <time>2019-04-05T16:38:00Z</time>
      </trkpt>
      <trkpt lat="66.42774" lon="16.03086">
        <time>2019-04-05T18:15:00Z</time>
      </trkpt>
      <trkpt lat="66.42774" lon="16.03086">
        <time>2019-04-05T18:15:00Z</time>
      </trkpt>
      <trkpt lat="66.42776" lon="16.03086">
        <time>2019-04-06T04:58:00Z</time>
      </trkpt>
      <trkpt lat="66.42776" lon="16.03086">
        <time>2019-04-06T04:58:00Z</time>
      </trkpt>
      <trkpt lat="66.42775" lon="16.03086">
        <time>2019-04-06T05:14:00Z</time>
      </trkpt>
      <trkpt lat="66.42775" lon="16.03086">
        <time>2019-04-06T05:14:00Z</time>
      </trkpt>
      <trkpt lat="66.46537" lon="16.08227">
        <time>2019-04-06T07:14:00Z</time>
      </trkpt>
      <trkpt lat="66.46537" lon="16.08227">
        <time>2019-04-06T07:14:00Z</time>
      </trkpt>
      <trkpt lat="66.51653" lon="16.17565">
        <time>2019-04-06T09:14:00Z</time>
      </trkpt>
      <trkpt lat="66.51653" lon="16.17565">
        <time>2019-04-06T09:14:00Z</time>
      </trkpt>
      <trkpt lat="66.54731" lon="16.33352">
        <time>2019-04-06T13:34:00Z</time>
      </trkpt>
      <trkpt lat="66.54731" lon="16.33352">
        <time>2019-04-06T13:34:00Z</time>
      </trkpt>
      <trkpt lat="66.59509" lon="16.30702">
        <time>2019-04-06T15:34:00Z</time>
      </trkpt>
      <trkpt lat="66.59509" lon="16.30702">
        <time>2019-04-06T15:34:00Z</time>
      </trkpt>
      <trkpt lat="66.63908" lon="16.28949">
        <time>2019-04-06T17:15:00Z</time>
      </trkpt>
      <trkpt lat="66.63908" lon="16.28949">
        <time>2019-04-06T17:15:00Z</time>
      </trkpt>
      <trkpt lat="66.63907" lon="16.28942">
        <time>2019-04-07T05:23:00Z</time>
      </trkpt>
      <trkpt lat="66.63907" lon="16.28942">
        <time>2019-04-07T05:23:00Z</time>
      </trkpt>
      <trkpt lat="66.67921" lon="16.25202">
        <time>2019-04-07T07:23:00Z</time>
      </trkpt>
      <trkpt lat="66.67921" lon="16.25202">
        <time>2019-04-07T07:23:00Z</time>
      </trkpt>
      <trkpt lat="66.71239" lon="16.20086">
        <time>2019-04-07T09:23:00Z</time>
      </trkpt>
      <trkpt lat="66.71239" lon="16.20086">
        <time>2019-04-07T09:23:00Z</time>
      </trkpt>
      <trkpt lat="66.74869" lon="16.13003">
        <time>2019-04-07T11:23:00Z</time>
      </trkpt>
      <trkpt lat="66.74869" lon="16.13003">
        <time>2019-04-07T11:23:00Z</time>
      </trkpt>
      <trkpt lat="66.77432" lon="16.08778">
        <time>2019-04-07T13:23:00Z</time>
      </trkpt>
      <trkpt lat="66.77432" lon="16.08778">
        <time>2019-04-07T13:23:00Z</time>
      </trkpt>
      <trkpt lat="66.81181" lon="16.0966">
        <time>2019-04-07T15:23:00Z</time>
      </trkpt>
      <trkpt lat="66.81181" lon="16.0966">
        <time>2019-04-07T15:23:00Z</time>
      </trkpt>
      <trkpt lat="66.84769" lon="16.27026">
        <time>2019-04-07T17:23:00Z</time>
      </trkpt>
      <trkpt lat="66.84769" lon="16.27026">
        <time>2019-04-07T17:23:00Z</time>
      </trkpt>
      <trkpt lat="66.89428" lon="16.37708">
        <time>2019-04-07T19:23:00Z</time>
      </trkpt>
      <trkpt lat="66.89428" lon="16.37708">
        <time>2019-04-07T19:23:00Z</time>
      </trkpt>
      <trkpt lat="66.90447" lon="16.37701">
        <time>2019-04-07T20:19:00Z</time>
      </trkpt>
      <trkpt lat="66.90447" lon="16.37701">
        <time>2019-04-07T20:19:00Z</time>
      </trkpt>
      <trkpt lat="66.90449" lon="16.37708">
        <time>2019-04-08T05:29:00Z</time>
      </trkpt>
      <trkpt lat="66.90449" lon="16.37708">
        <time>2019-04-08T05:29:00Z</time>
      </trkpt>
      <trkpt lat="66.94356" lon="16.41424">
        <time>2019-04-08T07:29:00Z</time>
      </trkpt>
      <trkpt lat="66.94356" lon="16.41424">
        <time>2019-04-08T07:29:00Z</time>
      </trkpt>
      <trkpt lat="66.99311" lon="16.44625">
        <time>2019-04-08T09:29:00Z</time>
      </trkpt>
      <trkpt lat="66.99311" lon="16.44625">
        <time>2019-04-08T09:29:00Z</time>
      </trkpt>
      <trkpt lat="67.03159" lon="16.52977">
        <time>2019-04-08T11:29:00Z</time>
      </trkpt>
      <trkpt lat="67.03159" lon="16.52977">
        <time>2019-04-08T11:29:00Z</time>
      </trkpt>
      <trkpt lat="67.0447" lon="16.53505">
        <time>2019-04-08T13:29:00Z</time>
      </trkpt>
      <trkpt lat="67.0447" lon="16.53505">
        <time>2019-04-08T13:29:00Z</time>
      </trkpt>
      <trkpt lat="67.0735" lon="16.60684">
        <time>2019-04-08T15:29:00Z</time>
      </trkpt>
      <trkpt lat="67.0735" lon="16.60684">
        <time>2019-04-08T15:29:00Z</time>
      </trkpt>
      <trkpt lat="67.10098" lon="16.67057">
        <time>2019-04-08T17:29:00Z</time>
      </trkpt>
      <trkpt lat="67.10098" lon="16.67057">
        <time>2019-04-08T17:29:00Z</time>
      </trkpt>
      <trkpt lat="67.10091" lon="16.67044">
        <time>2019-04-08T17:53:00Z</time>
      </trkpt>
      <trkpt lat="67.10091" lon="16.67044">
        <time>2019-04-08T17:53:00Z</time>
      </trkpt>
      <trkpt lat="67.10094" lon="16.67051">
        <time>2019-04-09T04:58:00Z</time>
      </trkpt>
      <trkpt lat="67.10094" lon="16.67051">
        <time>2019-04-09T04:58:00Z</time>
      </trkpt>
      <trkpt lat="67.1381" lon="16.65006">
        <time>2019-04-09T06:58:00Z</time>
      </trkpt>
      <trkpt lat="67.1381" lon="16.65006">
        <time>2019-04-09T06:58:00Z</time>
      </trkpt>
      <trkpt lat="67.18335" lon="16.6241">
        <time>2019-04-09T08:58:00Z</time>
      </trkpt>
      <trkpt lat="67.18335" lon="16.6241">
        <time>2019-04-09T08:58:00Z</time>
      </trkpt>
      <trkpt lat="67.24032" lon="16.59122">
        <time>2019-04-09T10:58:00Z</time>
      </trkpt>
      <trkpt lat="67.24032" lon="16.59122">
        <time>2019-04-09T10:58:00Z</time>
      </trkpt>
      <trkpt lat="67.24999" lon="16.6198">
        <time>2019-04-09T12:58:00Z</time>
      </trkpt>
      <trkpt lat="67.24999" lon="16.6198">
        <time>2019-04-09T12:58:00Z</time>
      </trkpt>
      <trkpt lat="67.2982" lon="16.68371">
        <time>2019-04-09T14:58:00Z</time>
      </trkpt>
      <trkpt lat="67.2982" lon="16.68371">
        <time>2019-04-09T14:58:00Z</time>
      </trkpt>
      <trkpt lat="67.33819" lon="16.67538">
        <time>2019-04-09T16:58:00Z</time>
      </trkpt>
      <trkpt lat="67.33819" lon="16.67538">
        <time>2019-04-09T16:58:00Z</time>
      </trkpt>
      <trkpt lat="67.38206" lon="16.64751">
        <time>2019-04-09T18:58:00Z</time>
      </trkpt>
      <trkpt lat="67.38206" lon="16.64751">
        <time>2019-04-09T18:58:00Z</time>
      </trkpt>
      <trkpt lat="67.38895" lon="16.77372">
        <time>2019-04-09T20:58:00Z</time>
      </trkpt>
      <trkpt lat="67.38895" lon="16.77372">
        <time>2019-04-09T20:58:00Z</time>
      </trkpt>
      <trkpt lat="67.38778" lon="16.77449">
        <time>2019-04-09T22:58:00Z</time>
      </trkpt>
      <trkpt lat="67.38778" lon="16.77449">
        <time>2019-04-09T22:58:00Z</time>
      </trkpt>
      <trkpt lat="67.38782" lon="16.77454">
        <time>2019-04-10T00:58:00Z</time>
      </trkpt>
      <trkpt lat="67.38782" lon="16.77454">
        <time>2019-04-10T00:58:00Z</time>
      </trkpt>
      <trkpt lat="67.38778" lon="16.77445">
        <time>2019-04-10T02:58:00Z</time>
      </trkpt>
      <trkpt lat="67.38778" lon="16.77445">
        <time>2019-04-10T02:58:00Z</time>
      </trkpt>
      <trkpt lat="67.37348" lon="16.80046">
        <time>2019-04-10T06:52:00Z</time>
      </trkpt>
      <trkpt lat="67.37348" lon="16.80046">
        <time>2019-04-10T06:52:00Z</time>
      </trkpt>
      <trkpt lat="67.4022" lon="16.81097">
        <time>2019-04-10T08:52:00Z</time>
      </trkpt>
      <trkpt lat="67.4022" lon="16.81097">
        <time>2019-04-10T08:52:00Z</time>
      </trkpt>
      <trkpt lat="67.43273" lon="16.87346">
        <time>2019-04-10T10:52:00Z</time>
      </trkpt>
      <trkpt lat="67.43273" lon="16.87346">
        <time>2019-04-10T10:52:00Z</time>
      </trkpt>
      <trkpt lat="67.47736" lon="16.82816">
        <time>2019-04-10T12:52:00Z</time>
      </trkpt>
      <trkpt lat="67.47736" lon="16.82816">
        <time>2019-04-10T12:52:00Z</time>
      </trkpt>
      <trkpt lat="67.4959" lon="16.82183">
        <time>2019-04-10T14:52:00Z</time>
      </trkpt>
      <trkpt lat="67.4959" lon="16.82183">
        <time>2019-04-10T14:52:00Z</time>
      </trkpt>
      <trkpt lat="67.53673" lon="16.88288">
        <time>2019-04-10T16:52:00Z</time>
      </trkpt>
      <trkpt lat="67.53673" lon="16.88288">
        <time>2019-04-10T16:52:00Z</time>
      </trkpt>
      <trkpt lat="67.53934" lon="16.89036">
        <time>2019-04-10T17:05:00Z</time>
      </trkpt>
      <trkpt lat="67.53934" lon="16.89036">
        <time>2019-04-10T17:05:00Z</time>
      </trkpt>
      <trkpt lat="67.54139" lon="16.89888">
        <time>2019-04-11T05:36:00Z</time>
      </trkpt>
      <trkpt lat="67.54139" lon="16.89888">
        <time>2019-04-11T05:36:00Z</time>
      </trkpt>
      <trkpt lat="67.56122" lon="17.0139">
        <time>2019-04-11T07:36:00Z</time>
      </trkpt>
      <trkpt lat="67.56122" lon="17.0139">
        <time>2019-04-11T07:36:00Z</time>
      </trkpt>
      <trkpt lat="67.57975" lon="17.1568">
        <time>2019-04-11T09:36:00Z</time>
      </trkpt>
      <trkpt lat="67.57975" lon="17.1568">
        <time>2019-04-11T09:36:00Z</time>
      </trkpt>
      <trkpt lat="67.61496" lon="17.294">
        <time>2019-04-11T11:36:00Z</time>
      </trkpt>
      <trkpt lat="67.61496" lon="17.294">
        <time>2019-04-11T11:36:00Z</time>
      </trkpt>
      <trkpt lat="67.63468" lon="17.36078">
        <time>2019-04-11T13:37:00Z</time>
      </trkpt>
      <trkpt lat="67.63468" lon="17.36078">
        <time>2019-04-11T13:37:00Z</time>
      </trkpt>
      <trkpt lat="67.67945" lon="17.4084">
        <time>2019-04-11T15:37:00Z</time>
      </trkpt>
      <trkpt lat="67.67945" lon="17.4084">
        <time>2019-04-11T15:37:00Z</time>
      </trkpt>
      <trkpt lat="67.72155" lon="17.46661">
        <time>2019-04-11T17:37:00Z</time>
      </trkpt>
      <trkpt lat="67.72155" lon="17.46661">
        <time>2019-04-11T17:37:00Z</time>
      </trkpt>
      <trkpt lat="67.72307" lon="17.46547">
        <time>2019-04-12T07:40:00Z</time>
      </trkpt>
      <trkpt lat="67.72307" lon="17.46547">
        <time>2019-04-12T07:40:00Z</time>
      </trkpt>
      <trkpt lat="67.75589" lon="17.53409">
        <time>2019-04-12T09:40:00Z</time>
      </trkpt>
      <trkpt lat="67.75589" lon="17.53409">
        <time>2019-04-12T09:40:00Z</time>
      </trkpt>
      <trkpt lat="67.80607" lon="17.63151">
        <time>2019-04-12T11:40:00Z</time>
      </trkpt>
      <trkpt lat="67.80607" lon="17.63151">
        <time>2019-04-12T11:40:00Z</time>
      </trkpt>
      <trkpt lat="67.85781" lon="17.62475">
        <time>2019-04-12T13:50:00Z</time>
      </trkpt>
      <trkpt lat="67.85781" lon="17.62475">
        <time>2019-04-12T13:50:00Z</time>
      </trkpt>
      <trkpt lat="67.88154" lon="17.65355">
        <time>2019-04-12T15:50:00Z</time>
      </trkpt>
      <trkpt lat="67.88154" lon="17.65355">
        <time>2019-04-12T15:50:00Z</time>
      </trkpt>
      <trkpt lat="67.88155" lon="17.74653">
        <time>2019-04-12T17:25:00Z</time>
      </trkpt>
      <trkpt lat="67.88155" lon="17.74653">
        <time>2019-04-12T17:25:00Z</time>
      </trkpt>
      <trkpt lat="67.88159" lon="17.7467">
        <time>2019-04-12T17:50:00Z</time>
      </trkpt>
      <trkpt lat="67.88159" lon="17.7467">
        <time>2019-04-12T17:50:00Z</time>
      </trkpt>
      <trkpt lat="67.88156" lon="17.74657">
        <time>2019-04-13T04:57:00Z</time>
      </trkpt>
      <trkpt lat="67.88156" lon="17.74657">
        <time>2019-04-13T04:57:00Z</time>
      </trkpt>
      <trkpt lat="67.89963" lon="17.89443">
        <time>2019-04-13T06:57:00Z</time>
      </trkpt>
      <trkpt lat="67.89963" lon="17.89443">
        <time>2019-04-13T06:57:00Z</time>
      </trkpt>
      <trkpt lat="67.93567" lon="17.96765">
        <time>2019-04-13T08:57:00Z</time>
      </trkpt>
      <trkpt lat="67.93567" lon="17.96765">
        <time>2019-04-13T08:57:00Z</time>
      </trkpt>
      <trkpt lat="67.94534" lon="18.0297">
        <time>2019-04-13T10:57:00Z</time>
      </trkpt>
      <trkpt lat="67.94534" lon="18.0297">
        <time>2019-04-13T10:57:00Z</time>
      </trkpt>
      <trkpt lat="67.91044" lon="18.14145">
        <time>2019-04-13T12:57:00Z</time>
      </trkpt>
      <trkpt lat="67.91044" lon="18.14145">
        <time>2019-04-13T12:57:00Z</time>
      </trkpt>
      <trkpt lat="67.90882" lon="18.26507">
        <time>2019-04-13T14:57:00Z</time>
      </trkpt>
      <trkpt lat="67.90882" lon="18.26507">
        <time>2019-04-13T14:57:00Z</time>
      </trkpt>
      <trkpt lat="67.94612" lon="18.27327">
        <time>2019-04-13T16:57:00Z</time>
      </trkpt>
      <trkpt lat="67.94612" lon="18.27327">
        <time>2019-04-13T16:57:00Z</time>
      </trkpt>
      <trkpt lat="67.94617" lon="18.28252">
        <time>2019-04-13T18:57:00Z</time>
      </trkpt>
      <trkpt lat="67.94617" lon="18.28252">
        <time>2019-04-13T18:57:00Z</time>
      </trkpt>
      <trkpt lat="67.94614" lon="18.2828">
        <time>2019-04-13T19:23:00Z</time>
      </trkpt>
      <trkpt lat="67.94614" lon="18.2828">
        <time>2019-04-13T19:23:00Z</time>
      </trkpt>
      <trkpt lat="67.94681" lon="18.28217">
        <time>2019-04-14T05:45:00Z</time>
      </trkpt>
      <trkpt lat="67.94681" lon="18.28217">
        <time>2019-04-14T05:45:00Z</time>
      </trkpt>
      <trkpt lat="68.00246" lon="18.25245">
        <time>2019-04-14T07:59:00Z</time>
      </trkpt>
      <trkpt lat="68.00246" lon="18.25245">
        <time>2019-04-14T07:59:00Z</time>
      </trkpt>
      <trkpt lat="68.0513" lon="18.242">
        <time>2019-04-14T09:59:00Z</time>
      </trkpt>
      <trkpt lat="68.0513" lon="18.242">
        <time>2019-04-14T09:59:00Z</time>
      </trkpt>
      <trkpt lat="68.09189" lon="18.29224">
        <time>2019-04-14T11:59:00Z</time>
      </trkpt>
      <trkpt lat="68.09189" lon="18.29224">
        <time>2019-04-14T11:59:00Z</time>
      </trkpt>
      <trkpt lat="68.17237" lon="18.46476">
        <time>2019-04-14T13:59:00Z</time>
      </trkpt>
      <trkpt lat="68.17237" lon="18.46476">
        <time>2019-04-14T13:59:00Z</time>
      </trkpt>
      <trkpt lat="68.27341" lon="18.57093">
        <time>2019-04-14T15:59:00Z</time>
      </trkpt>
      <trkpt lat="68.27341" lon="18.57093">
        <time>2019-04-14T15:59:00Z</time>
      </trkpt>
      <trkpt lat="68.28669" lon="18.58981">
        <time>2019-04-15T05:58:00Z</time>
      </trkpt>
      <trkpt lat="68.28669" lon="18.58981">
        <time>2019-04-15T05:58:00Z</time>
      </trkpt>
      <trkpt lat="68.32148" lon="18.74332">
        <time>2019-04-15T07:58:00Z</time>
      </trkpt>
      <trkpt lat="68.32148" lon="18.74332">
        <time>2019-04-15T07:58:00Z</time>
      </trkpt>
      <trkpt lat="68.35822" lon="18.78366">
        <time>2019-04-15T11:51:00Z</time>
      </trkpt>
      <trkpt lat="68.35822" lon="18.78366">
        <time>2019-04-15T11:51:00Z</time>
      </trkpt>
      <trkpt lat="68.36688" lon="18.90657">
        <time>2019-04-15T13:51:00Z</time>
      </trkpt>
      <trkpt lat="68.36688" lon="18.90657">
        <time>2019-04-15T13:51:00Z</time>
      </trkpt>
      <trkpt lat="68.37035" lon="19.03506">
        <time>2019-04-15T15:51:00Z</time>
      </trkpt>
      <trkpt lat="68.37035" lon="19.03506">
        <time>2019-04-15T15:51:00Z</time>
      </trkpt>
      <trkpt lat="68.36484" lon="19.09364">
        <time>2019-04-15T17:01:00Z</time>
      </trkpt>
      <trkpt lat="68.36484" lon="19.09364">
        <time>2019-04-15T17:01:00Z</time>
      </trkpt>
      <trkpt lat="68.36482" lon="19.0936">
        <time>2019-04-16T04:48:00Z</time>
      </trkpt>
      <trkpt lat="68.36482" lon="19.0936">
        <time>2019-04-16T04:48:00Z</time>
      </trkpt>
      <trkpt lat="68.31702" lon="19.27661">
        <time>2019-04-16T06:48:00Z</time>
      </trkpt>
      <trkpt lat="68.31702" lon="19.27661">
        <time>2019-04-16T06:48:00Z</time>
      </trkpt>
      <trkpt lat="68.29569" lon="19.4855">
        <time>2019-04-16T08:48:00Z</time>
      </trkpt>
      <trkpt lat="68.29569" lon="19.4855">
        <time>2019-04-16T08:48:00Z</time>
      </trkpt>
      <trkpt lat="68.31575" lon="19.84298">
        <time>2019-04-16T10:48:00Z</time>
      </trkpt>
      <trkpt lat="68.31575" lon="19.84298">
        <time>2019-04-16T10:48:00Z</time>
      </trkpt>
      <trkpt lat="68.32194" lon="19.94551">
        <time>2019-04-16T12:48:00Z</time>
      </trkpt>
      <trkpt lat="68.32194" lon="19.94551">
        <time>2019-04-16T12:48:00Z</time>
      </trkpt>
      <trkpt lat="68.34654" lon="19.9696">
        <time>2019-04-16T14:48:00Z</time>
      </trkpt>
      <trkpt lat="68.34654" lon="19.9696">
        <time>2019-04-16T14:48:00Z</time>
      </trkpt>
      <trkpt lat="68.40059" lon="20.06702">
        <time>2019-04-16T16:48:00Z</time>
      </trkpt>
      <trkpt lat="68.40059" lon="20.06702">
        <time>2019-04-16T16:48:00Z</time>
      </trkpt>
      <trkpt lat="68.40461" lon="20.07013">
        <time>2019-04-16T16:58:00Z</time>
      </trkpt>
      <trkpt lat="68.40461" lon="20.07013">
        <time>2019-04-16T16:58:00Z</time>
      </trkpt>
      <trkpt lat="68.40448" lon="20.07028">
        <time>2019-04-17T04:49:00Z</time>
      </trkpt>
      <trkpt lat="68.40448" lon="20.07028">
        <time>2019-04-17T04:49:00Z</time>
      </trkpt>
      <trkpt lat="68.44703" lon="20.19648">
        <time>2019-04-17T06:49:00Z</time>
      </trkpt>
      <trkpt lat="68.44703" lon="20.19648">
        <time>2019-04-17T06:49:00Z</time>
      </trkpt>
      <trkpt lat="68.51002" lon="20.29108">
        <time>2019-04-17T08:49:00Z</time>
      </trkpt>
      <trkpt lat="68.51002" lon="20.29108">
        <time>2019-04-17T08:49:00Z</time>
      </trkpt>
      <trkpt lat="68.5814" lon="20.38854">
        <time>2019-04-17T10:49:00Z</time>
      </trkpt>
      <trkpt lat="68.5814" lon="20.38854">
        <time>2019-04-17T10:49:00Z</time>
      </trkpt>
      <trkpt lat="68.60819" lon="20.41221">
        <time>2019-04-17T12:49:00Z</time>
      </trkpt>
      <trkpt lat="68.60819" lon="20.41221">
        <time>2019-04-17T12:49:00Z</time>
      </trkpt>
      <trkpt lat="68.698" lon="20.50278">
        <time>2019-04-17T14:49:00Z</time>
      </trkpt>
      <trkpt lat="68.698" lon="20.50278">
        <time>2019-04-17T14:49:00Z</time>
      </trkpt>
      <trkpt lat="68.73807" lon="20.55703">
        <time>2019-04-17T15:57:00Z</time>
      </trkpt>
      <trkpt lat="68.73807" lon="20.55703">
        <time>2019-04-17T15:57:00Z</time>
      </trkpt>
      <trkpt lat="68.73775" lon="20.55832">
        <time>2019-04-18T05:46:00Z</time>
      </trkpt>
      <trkpt lat="68.73775" lon="20.55832">
        <time>2019-04-18T05:46:00Z</time>
      </trkpt>
      <trkpt lat="68.78918" lon="20.5681">
        <time>2019-04-18T07:46:00Z</time>
      </trkpt>
      <trkpt lat="68.78918" lon="20.5681">
        <time>2019-04-18T07:46:00Z</time>
      </trkpt>
      <trkpt lat="68.8374" lon="20.49551">
        <time>2019-04-18T09:46:00Z</time>
      </trkpt>
      <trkpt lat="68.8374" lon="20.49551">
        <time>2019-04-18T09:46:00Z</time>
      </trkpt>
      <trkpt lat="68.88698" lon="20.47049">
        <time>2019-04-18T11:46:00Z</time>
      </trkpt>
      <trkpt lat="68.88698" lon="20.47049">
        <time>2019-04-18T11:46:00Z</time>
      </trkpt>
      <trkpt lat="68.94058" lon="20.37297">
        <time>2019-04-18T13:46:00Z</time>
      </trkpt>
      <trkpt lat="68.94058" lon="20.37297">
        <time>2019-04-18T13:46:00Z</time>
      </trkpt>
      <trkpt lat="68.97329" lon="20.36822">
        <time>2019-04-18T15:11:00Z</time>
      </trkpt>
      <trkpt lat="68.97329" lon="20.36822">
        <time>2019-04-18T15:11:00Z</time>
      </trkpt>
      <trkpt lat="68.97329" lon="20.36844">
        <time>2019-04-19T04:57:00Z</time>
      </trkpt>
      <trkpt lat="68.97329" lon="20.36844">
        <time>2019-04-19T04:57:00Z</time>
      </trkpt>
      <trkpt lat="68.99427" lon="20.45435">
        <time>2019-04-19T06:57:00Z</time>
      </trkpt>
      <trkpt lat="68.99427" lon="20.45435">
        <time>2019-04-19T06:57:00Z</time>
      </trkpt>
      <trkpt lat="69.05147" lon="20.52637">
        <time>2019-04-19T08:57:00Z</time>
      </trkpt>
      <trkpt lat="69.05147" lon="20.52637">
        <time>2019-04-19T08:57:00Z</time>
      </trkpt>
      <trkpt lat="69.06278" lon="20.52787">
        <time>2019-04-19T10:57:00Z</time>
      </trkpt>
      <trkpt lat="69.06278" lon="20.52787">
        <time>2019-04-19T10:57:00Z</time>
      </trkpt>
      <trkpt lat="69.0839" lon="20.51594">
        <time>2019-04-19T12:57:00Z</time>
      </trkpt>
      <trkpt lat="69.0839" lon="20.51594">
        <time>2019-04-19T12:57:00Z</time>
      </trkpt>
      <trkpt lat="69.09998" lon="20.60398">
        <time>2019-04-19T14:57:00Z</time>
      </trkpt>
      <trkpt lat="69.09998" lon="20.60398">
        <time>2019-04-19T14:57:00Z</time>
      </trkpt>
      <trkpt lat="69.12296" lon="20.72865">
        <time>2019-04-19T16:57:00Z</time>
      </trkpt>
      <trkpt lat="69.12296" lon="20.72865">
        <time>2019-04-19T16:57:00Z</time>
      </trkpt>
      <trkpt lat="69.11863" lon="20.74478">
        <time>2019-04-19T17:14:00Z</time>
      </trkpt>
      <trkpt lat="69.11863" lon="20.74478">
        <time>2019-04-19T17:14:00Z</time>
      </trkpt>
      <trkpt lat="69.1186" lon="20.74483">
        <time>2019-04-19T18:57:00Z</time>
      </trkpt>
      <trkpt lat="69.1186" lon="20.74483">
        <time>2019-04-19T18:57:00Z</time>
      </trkpt>
      <trkpt lat="69.11864" lon="20.74481">
        <time>2019-04-19T20:57:00Z</time>
      </trkpt>
      <trkpt lat="69.11864" lon="20.74481">
        <time>2019-04-19T20:57:00Z</time>
      </trkpt>
      <trkpt lat="69.11861" lon="20.74476">
        <time>2019-04-19T22:57:00Z</time>
      </trkpt>
      <trkpt lat="69.11861" lon="20.74476">
        <time>2019-04-19T22:57:00Z</time>
      </trkpt>
      <trkpt lat="69.11861" lon="20.74474">
        <time>2019-04-20T00:57:00Z</time>
      </trkpt>
      <trkpt lat="69.11861" lon="20.74474">
        <time>2019-04-20T00:57:00Z</time>
      </trkpt>
      <trkpt lat="69.11861" lon="20.74474">
        <time>2019-04-20T02:57:00Z</time>
      </trkpt>
      <trkpt lat="69.11861" lon="20.74474">
        <time>2019-04-20T02:57:00Z</time>
      </trkpt>
      <trkpt lat="69.11863" lon="20.74474">
        <time>2019-04-20T04:57:00Z</time>
      </trkpt>
      <trkpt lat="69.11863" lon="20.74474">
        <time>2019-04-20T04:57:00Z</time>
      </trkpt>
      <trkpt lat="69.11861" lon="20.74476">
        <time>2019-04-20T06:57:00Z</time>
      </trkpt>
      <trkpt lat="69.11861" lon="20.74476">
        <time>2019-04-20T06:57:00Z</time>
      </trkpt>
      <trkpt lat="69.11861" lon="20.74468">
        <time>2019-04-20T08:57:00Z</time>
      </trkpt>
      <trkpt lat="69.11861" lon="20.74468">
        <time>2019-04-20T08:57:00Z</time>
      </trkpt>
      <trkpt lat="69.21511" lon="19.49857">
        <time>2019-04-20T10:57:00Z</time>
      </trkpt>
    </trkseg>
  </trk>
</gpx>
