<?xml version="1.0" encoding="UTF-8"?>
<gpx xmlns="http://www.topografix.com/GPX/1/1" version="1.1" creator="VitaBandet">
  <metadata>
    <name>Mette Fosvald's Band</name>
  </metadata>
  <trk>
    <name>Mette Fosvald's Band</name>
    <trkseg>
      <trkpt lat="62.09872" lon="12.3128">
        <time>2020-02-01T10:29:00Z</time>
      </trkpt>
      <trkpt lat="62.09872" lon="12.3128">
        <time>2020-02-01T10:29:00Z</time>
      </trkpt>
      <trkpt lat="62.09943" lon="12.32417">
        <time>2020-02-01T10:59:00Z</time>
      </trkpt>
      <trkpt lat="62.10858" lon="12.33559">
        <time>2020-02-01T11:29:00Z</time>
      </trkpt>
      <trkpt lat="62.11853" lon="12.35067">
        <time>2020-02-01T11:59:00Z</time>
      </trkpt>
      <trkpt lat="62.13784" lon="12.36226">
        <time>2020-02-01T12:29:00Z</time>
      </trkpt>
      <trkpt lat="62.15977" lon="12.37698">
        <time>2020-02-01T12:59:00Z</time>
      </trkpt>
      <trkpt lat="62.18648" lon="12.39037">
        <time>2020-02-01T13:29:00Z</time>
      </trkpt>
      <trkpt lat="62.18601" lon="12.39011">
        <time>2020-02-01T13:36:00Z</time>
      </trkpt>
      <trkpt lat="62.18615" lon="12.39039">
        <time>2020-02-01T13:39:00Z</time>
      </trkpt>
      <trkpt lat="62.18616" lon="12.39033">
        <time>2020-02-03T07:58:00Z</time>
      </trkpt>
      <trkpt lat="62.20446" lon="12.37932">
        <time>2020-02-03T08:28:00Z</time>
      </trkpt>
      <trkpt lat="62.2163" lon="12.35674">
        <time>2020-02-03T08:58:00Z</time>
      </trkpt>
      <trkpt lat="62.23152" lon="12.3522">
        <time>2020-02-03T09:28:00Z</time>
      </trkpt>
      <trkpt lat="62.2488" lon="12.34778">
        <time>2020-02-03T09:58:00Z</time>
      </trkpt>
      <trkpt lat="62.25915" lon="12.35936">
        <time>2020-02-03T10:28:00Z</time>
      </trkpt>
      <trkpt lat="62.26996" lon="12.38734">
        <time>2020-02-03T10:58:00Z</time>
      </trkpt>
      <trkpt lat="62.27992" lon="12.39535">
        <time>2020-02-03T11:28:00Z</time>
      </trkpt>
      <trkpt lat="62.2906" lon="12.40738">
        <time>2020-02-03T11:58:00Z</time>
      </trkpt>
      <trkpt lat="62.29911" lon="12.43519">
        <time>2020-02-03T12:28:00Z</time>
      </trkpt>
      <trkpt lat="62.3139" lon="12.44313">
        <time>2020-02-03T12:58:00Z</time>
      </trkpt>
      <trkpt lat="62.31687" lon="12.45028">
        <time>2020-02-04T08:39:00Z</time>
      </trkpt>
      <trkpt lat="62.31687" lon="12.45028">
        <time>2020-02-04T08:39:00Z</time>
      </trkpt>
      <trkpt lat="62.33128" lon="12.46283">
        <time>2020-02-04T09:09:00Z</time>
      </trkpt>
      <trkpt lat="62.34165" lon="12.48864">
        <time>2020-02-04T09:39:00Z</time>
      </trkpt>
      <trkpt lat="62.34302" lon="12.5251">
        <time>2020-02-04T10:09:00Z</time>
      </trkpt>
      <trkpt lat="62.3401" lon="12.56252">
        <time>2020-02-04T10:39:00Z</time>
      </trkpt>
      <trkpt lat="62.34856" lon="12.57669">
        <time>2020-02-04T11:09:00Z</time>
      </trkpt>
      <trkpt lat="62.35942" lon="12.59016">
        <time>2020-02-04T11:39:00Z</time>
      </trkpt>
      <trkpt lat="62.37096" lon="12.58973">
        <time>2020-02-04T12:09:00Z</time>
      </trkpt>
      <trkpt lat="62.38892" lon="12.58542">
        <time>2020-02-04T12:39:00Z</time>
      </trkpt>
      <trkpt lat="62.40335" lon="12.56918">
        <time>2020-02-04T13:09:00Z</time>
      </trkpt>
      <trkpt lat="62.41333" lon="12.57804">
        <time>2020-02-04T13:39:00Z</time>
      </trkpt>
      <trkpt lat="62.41701" lon="12.60853">
        <time>2020-02-04T14:09:00Z</time>
      </trkpt>
      <trkpt lat="62.43335" lon="12.6543">
        <time>2020-02-04T14:39:00Z</time>
      </trkpt>
      <trkpt lat="62.44119" lon="12.66917">
        <time>2020-02-04T15:09:00Z</time>
      </trkpt>
      <trkpt lat="62.44097" lon="12.66812">
        <time>2020-02-05T08:49:00Z</time>
      </trkpt>
      <trkpt lat="62.44818" lon="12.64507">
        <time>2020-02-05T09:19:00Z</time>
      </trkpt>
      <trkpt lat="62.45839" lon="12.62055">
        <time>2020-02-05T09:50:00Z</time>
      </trkpt>
      <trkpt lat="62.46911" lon="12.60533">
        <time>2020-02-05T10:20:00Z</time>
      </trkpt>
      <trkpt lat="62.47195" lon="12.58907">
        <time>2020-02-05T10:50:00Z</time>
      </trkpt>
      <trkpt lat="62.48213" lon="12.5516">
        <time>2020-02-05T11:20:00Z</time>
      </trkpt>
      <trkpt lat="62.49738" lon="12.53755">
        <time>2020-02-05T11:50:00Z</time>
      </trkpt>
      <trkpt lat="62.50258" lon="12.53165">
        <time>2020-02-05T12:20:00Z</time>
      </trkpt>
      <trkpt lat="62.51444" lon="12.49929">
        <time>2020-02-05T12:50:00Z</time>
      </trkpt>
      <trkpt lat="62.52491" lon="12.47579">
        <time>2020-02-05T13:20:00Z</time>
      </trkpt>
      <trkpt lat="62.53436" lon="12.44052">
        <time>2020-02-05T13:50:00Z</time>
      </trkpt>
      <trkpt lat="62.53835" lon="12.41324">
        <time>2020-02-05T14:20:00Z</time>
      </trkpt>
      <trkpt lat="62.53932" lon="12.40833">
        <time>2020-02-06T08:38:00Z</time>
      </trkpt>
      <trkpt lat="62.54193" lon="12.39882">
        <time>2020-02-06T09:08:00Z</time>
      </trkpt>
      <trkpt lat="62.552" lon="12.39">
        <time>2020-02-06T09:38:00Z</time>
      </trkpt>
      <trkpt lat="62.56382" lon="12.37093">
        <time>2020-02-06T10:08:00Z</time>
      </trkpt>
      <trkpt lat="62.57511" lon="12.38468">
        <time>2020-02-06T10:38:00Z</time>
      </trkpt>
      <trkpt lat="62.59152" lon="12.38923">
        <time>2020-02-06T11:08:00Z</time>
      </trkpt>
      <trkpt lat="62.60696" lon="12.38447">
        <time>2020-02-06T11:39:00Z</time>
      </trkpt>
      <trkpt lat="62.61851" lon="12.3737">
        <time>2020-02-06T12:09:00Z</time>
      </trkpt>
      <trkpt lat="62.62939" lon="12.38187">
        <time>2020-02-06T12:39:00Z</time>
      </trkpt>
      <trkpt lat="62.64154" lon="12.41719">
        <time>2020-02-06T13:10:00Z</time>
      </trkpt>
      <trkpt lat="62.64157" lon="12.41713">
        <time>2020-02-06T13:40:00Z</time>
      </trkpt>
      <trkpt lat="62.65124" lon="12.42131">
        <time>2020-02-06T14:10:00Z</time>
      </trkpt>
      <trkpt lat="62.66266" lon="12.42288">
        <time>2020-02-06T14:40:00Z</time>
      </trkpt>
      <trkpt lat="62.67846" lon="12.41642">
        <time>2020-02-06T15:10:00Z</time>
      </trkpt>
      <trkpt lat="62.69145" lon="12.40865">
        <time>2020-02-06T15:40:00Z</time>
      </trkpt>
      <trkpt lat="62.70167" lon="12.38891">
        <time>2020-02-07T09:42:00Z</time>
      </trkpt>
      <trkpt lat="62.71074" lon="12.38503">
        <time>2020-02-07T10:12:00Z</time>
      </trkpt>
      <trkpt lat="62.71592" lon="12.36112">
        <time>2020-02-07T10:42:00Z</time>
      </trkpt>
      <trkpt lat="62.72275" lon="12.32484">
        <time>2020-02-07T11:12:00Z</time>
      </trkpt>
      <trkpt lat="62.72965" lon="12.32042">
        <time>2020-02-07T11:42:00Z</time>
      </trkpt>
      <trkpt lat="62.73534" lon="12.3225">
        <time>2020-02-07T12:12:00Z</time>
      </trkpt>
      <trkpt lat="62.74892" lon="12.33042">
        <time>2020-02-07T12:42:00Z</time>
      </trkpt>
      <trkpt lat="62.76305" lon="12.34625">
        <time>2020-02-07T13:12:00Z</time>
      </trkpt>
      <trkpt lat="62.76936" lon="12.35591">
        <time>2020-02-07T13:42:00Z</time>
      </trkpt>
      <trkpt lat="62.79329" lon="12.39475">
        <time>2020-02-07T14:12:00Z</time>
      </trkpt>
      <trkpt lat="62.80117" lon="12.41286">
        <time>2020-02-07T14:42:00Z</time>
      </trkpt>
      <trkpt lat="62.81434" lon="12.4359">
        <time>2020-02-07T15:12:00Z</time>
      </trkpt>
      <trkpt lat="62.81826" lon="12.44588">
        <time>2020-02-08T09:28:00Z</time>
      </trkpt>
      <trkpt lat="62.83033" lon="12.45818">
        <time>2020-02-08T09:58:00Z</time>
      </trkpt>
      <trkpt lat="62.85612" lon="12.48425">
        <time>2020-02-08T10:28:00Z</time>
      </trkpt>
      <trkpt lat="62.87776" lon="12.50354">
        <time>2020-02-08T10:58:00Z</time>
      </trkpt>
      <trkpt lat="62.89091" lon="12.51015">
        <time>2020-02-08T11:28:00Z</time>
      </trkpt>
      <trkpt lat="62.90975" lon="12.52611">
        <time>2020-02-08T11:58:00Z</time>
      </trkpt>
      <trkpt lat="62.91684" lon="12.50609">
        <time>2020-02-11T07:50:00Z</time>
      </trkpt>
      <trkpt lat="62.91156" lon="12.54124">
        <time>2020-02-11T08:20:00Z</time>
      </trkpt>
      <trkpt lat="62.91574" lon="12.59636">
        <time>2020-02-11T08:50:00Z</time>
      </trkpt>
      <trkpt lat="62.92679" lon="12.62984">
        <time>2020-02-11T09:20:00Z</time>
      </trkpt>
      <trkpt lat="62.94547" lon="12.64145">
        <time>2020-02-11T09:50:00Z</time>
      </trkpt>
      <trkpt lat="62.96333" lon="12.6508">
        <time>2020-02-11T10:20:00Z</time>
      </trkpt>
      <trkpt lat="62.97578" lon="12.65683">
        <time>2020-02-11T10:50:00Z</time>
      </trkpt>
      <trkpt lat="62.98251" lon="12.67352">
        <time>2020-02-11T11:20:00Z</time>
      </trkpt>
      <trkpt lat="62.99099" lon="12.69721">
        <time>2020-02-11T11:50:00Z</time>
      </trkpt>
      <trkpt lat="63.00016" lon="12.73903">
        <time>2020-02-11T12:20:00Z</time>
      </trkpt>
      <trkpt lat="63.01486" lon="12.75717">
        <time>2020-02-11T12:50:00Z</time>
      </trkpt>
      <trkpt lat="63.03193" lon="12.77686">
        <time>2020-02-11T13:20:00Z</time>
      </trkpt>
      <trkpt lat="63.04088" lon="12.79987">
        <time>2020-02-12T07:28:00Z</time>
      </trkpt>
      <trkpt lat="63.05685" lon="12.79663">
        <time>2020-02-12T07:58:00Z</time>
      </trkpt>
      <trkpt lat="63.07615" lon="12.81405">
        <time>2020-02-12T08:28:00Z</time>
      </trkpt>
      <trkpt lat="63.09331" lon="12.81255">
        <time>2020-02-12T08:58:00Z</time>
      </trkpt>
      <trkpt lat="63.11174" lon="12.82439">
        <time>2020-02-12T09:28:00Z</time>
      </trkpt>
      <trkpt lat="63.12306" lon="12.86388">
        <time>2020-02-12T09:58:00Z</time>
      </trkpt>
      <trkpt lat="63.13347" lon="12.88233">
        <time>2020-02-12T10:28:00Z</time>
      </trkpt>
      <trkpt lat="63.14078" lon="12.90917">
        <time>2020-02-12T10:58:00Z</time>
      </trkpt>
      <trkpt lat="63.14555" lon="12.94623">
        <time>2020-02-12T11:28:00Z</time>
      </trkpt>
      <trkpt lat="63.14876" lon="12.96771">
        <time>2020-02-13T09:14:00Z</time>
      </trkpt>
      <trkpt lat="63.15201" lon="12.99906">
        <time>2020-02-13T09:44:00Z</time>
      </trkpt>
      <trkpt lat="63.15923" lon="13.0418">
        <time>2020-02-13T10:14:00Z</time>
      </trkpt>
      <trkpt lat="63.17726" lon="13.06154">
        <time>2020-02-13T10:44:00Z</time>
      </trkpt>
      <trkpt lat="63.19853" lon="13.0512">
        <time>2020-02-13T11:14:00Z</time>
      </trkpt>
      <trkpt lat="63.21246" lon="13.04367">
        <time>2020-02-13T11:44:00Z</time>
      </trkpt>
      <trkpt lat="63.22085" lon="13.03182">
        <time>2020-02-13T12:14:00Z</time>
      </trkpt>
      <trkpt lat="63.22764" lon="13.01517">
        <time>2020-02-13T12:44:00Z</time>
      </trkpt>
      <trkpt lat="63.23809" lon="12.98232">
        <time>2020-02-13T13:14:00Z</time>
      </trkpt>
      <trkpt lat="63.24757" lon="12.96271">
        <time>2020-02-13T13:44:00Z</time>
      </trkpt>
      <trkpt lat="63.26112" lon="12.95303">
        <time>2020-02-13T14:15:00Z</time>
      </trkpt>
      <trkpt lat="63.27202" lon="12.98194">
        <time>2020-02-13T14:45:00Z</time>
      </trkpt>
      <trkpt lat="63.28365" lon="13.00442">
        <time>2020-02-13T15:15:00Z</time>
      </trkpt>
      <trkpt lat="63.30405" lon="13.05163">
        <time>2020-02-13T15:45:00Z</time>
      </trkpt>
      <trkpt lat="63.31203" lon="13.08515">
        <time>2020-02-13T16:15:00Z</time>
      </trkpt>
      <trkpt lat="63.31515" lon="13.08701">
        <time>2020-02-13T16:45:00Z</time>
      </trkpt>
      <trkpt lat="63.3144" lon="13.08377">
        <time>2020-02-13T16:52:00Z</time>
      </trkpt>
      <trkpt lat="63.31521" lon="13.08708">
        <time>2020-02-14T10:05:00Z</time>
      </trkpt>
      <trkpt lat="63.31748" lon="13.09787">
        <time>2020-02-14T10:35:00Z</time>
      </trkpt>
      <trkpt lat="63.33026" lon="13.1133">
        <time>2020-02-14T11:06:00Z</time>
      </trkpt>
      <trkpt lat="63.33364" lon="13.12132">
        <time>2020-02-14T11:36:00Z</time>
      </trkpt>
      <trkpt lat="63.33852" lon="13.15396">
        <time>2020-02-14T12:06:00Z</time>
      </trkpt>
      <trkpt lat="63.35071" lon="13.1695">
        <time>2020-02-14T12:36:00Z</time>
      </trkpt>
      <trkpt lat="63.36269" lon="13.15209">
        <time>2020-02-14T13:06:00Z</time>
      </trkpt>
      <trkpt lat="63.37694" lon="13.13057">
        <time>2020-02-14T13:36:00Z</time>
      </trkpt>
      <trkpt lat="63.38733" lon="13.09789">
        <time>2020-02-14T14:07:00Z</time>
      </trkpt>
      <trkpt lat="63.3948" lon="13.08738">
        <time>2020-02-14T14:37:00Z</time>
      </trkpt>
      <trkpt lat="63.39543" lon="13.08804">
        <time>2020-02-14T14:44:00Z</time>
      </trkpt>
      <trkpt lat="63.39442" lon="13.08463">
        <time>2020-02-15T10:00:00Z</time>
      </trkpt>
      <trkpt lat="63.38717" lon="13.10656">
        <time>2020-02-15T10:30:00Z</time>
      </trkpt>
      <trkpt lat="63.38334" lon="13.13317">
        <time>2020-02-15T11:00:00Z</time>
      </trkpt>
      <trkpt lat="63.38414" lon="13.13761">
        <time>2020-02-15T11:30:00Z</time>
      </trkpt>
      <trkpt lat="63.38573" lon="13.14283">
        <time>2020-02-15T12:00:00Z</time>
      </trkpt>
      <trkpt lat="63.39036" lon="13.14407">
        <time>2020-02-15T12:30:00Z</time>
      </trkpt>
      <trkpt lat="63.39018" lon="13.15315">
        <time>2020-02-15T13:00:00Z</time>
      </trkpt>
      <trkpt lat="63.39665" lon="13.1863">
        <time>2020-02-15T13:30:00Z</time>
      </trkpt>
      <trkpt lat="63.40375" lon="13.20947">
        <time>2020-02-15T14:00:00Z</time>
      </trkpt>
      <trkpt lat="63.40985" lon="13.22207">
        <time>2020-02-15T14:30:00Z</time>
      </trkpt>
      <trkpt lat="63.41864" lon="13.22385">
        <time>2020-02-15T15:00:00Z</time>
      </trkpt>
      <trkpt lat="63.44245" lon="13.22621">
        <time>2020-02-15T15:30:00Z</time>
      </trkpt>
      <trkpt lat="63.45387" lon="13.21494">
        <time>2020-02-15T16:00:00Z</time>
      </trkpt>
      <trkpt lat="63.4695" lon="13.23548">
        <time>2020-02-15T16:30:00Z</time>
      </trkpt>
      <trkpt lat="63.4744" lon="13.23396">
        <time>2020-02-15T17:00:00Z</time>
      </trkpt>
      <trkpt lat="63.47435" lon="13.23404">
        <time>2020-02-15T17:10:00Z</time>
      </trkpt>
      <trkpt lat="63.47478" lon="13.23314">
        <time>2020-02-16T22:42:00Z</time>
      </trkpt>
      <trkpt lat="63.47391" lon="13.23312">
        <time>2020-02-17T08:50:00Z</time>
      </trkpt>
      <trkpt lat="63.48115" lon="13.20767">
        <time>2020-02-17T09:20:00Z</time>
      </trkpt>
      <trkpt lat="63.49519" lon="13.21102">
        <time>2020-02-17T09:50:00Z</time>
      </trkpt>
      <trkpt lat="63.51346" lon="13.21816">
        <time>2020-02-17T10:20:00Z</time>
      </trkpt>
      <trkpt lat="63.52128" lon="13.21494">
        <time>2020-02-17T10:50:00Z</time>
      </trkpt>
      <trkpt lat="63.53264" lon="13.2017">
        <time>2020-02-17T11:20:00Z</time>
      </trkpt>
      <trkpt lat="63.53878" lon="13.19456">
        <time>2020-02-17T11:50:00Z</time>
      </trkpt>
      <trkpt lat="63.54436" lon="13.17658">
        <time>2020-02-17T12:20:00Z</time>
      </trkpt>
      <trkpt lat="63.55462" lon="13.15604">
        <time>2020-02-17T12:50:00Z</time>
      </trkpt>
      <trkpt lat="63.56092" lon="13.15744">
        <time>2020-02-17T13:20:00Z</time>
      </trkpt>
      <trkpt lat="63.56617" lon="13.1731">
        <time>2020-02-17T13:50:00Z</time>
      </trkpt>
      <trkpt lat="63.57376" lon="13.17235">
        <time>2020-02-17T14:20:00Z</time>
      </trkpt>
      <trkpt lat="63.58292" lon="13.19115">
        <time>2020-02-17T14:50:00Z</time>
      </trkpt>
      <trkpt lat="63.6017" lon="13.18287">
        <time>2020-02-17T15:20:00Z</time>
      </trkpt>
      <trkpt lat="63.61639" lon="13.21012">
        <time>2020-02-17T15:50:00Z</time>
      </trkpt>
      <trkpt lat="63.61634" lon="13.2102">
        <time>2020-02-18T08:01:00Z</time>
      </trkpt>
      <trkpt lat="63.61972" lon="13.20971">
        <time>2020-02-18T08:31:00Z</time>
      </trkpt>
      <trkpt lat="63.63101" lon="13.22316">
        <time>2020-02-18T09:01:00Z</time>
      </trkpt>
      <trkpt lat="63.64001" lon="13.25121">
        <time>2020-02-18T09:31:00Z</time>
      </trkpt>
      <trkpt lat="63.64043" lon="13.29676">
        <time>2020-02-18T10:01:00Z</time>
      </trkpt>
      <trkpt lat="63.65316" lon="13.31326">
        <time>2020-02-18T10:31:00Z</time>
      </trkpt>
      <trkpt lat="63.67389" lon="13.31586">
        <time>2020-02-18T11:01:00Z</time>
      </trkpt>
      <trkpt lat="63.67492" lon="13.36583">
        <time>2020-02-18T11:31:00Z</time>
      </trkpt>
      <trkpt lat="63.67595" lon="13.36744">
        <time>2020-02-18T12:01:00Z</time>
      </trkpt>
      <trkpt lat="63.67595" lon="13.36738">
        <time>2020-02-18T12:31:00Z</time>
      </trkpt>
      <trkpt lat="63.68106" lon="13.4101">
        <time>2020-02-18T13:01:00Z</time>
      </trkpt>
      <trkpt lat="63.68172" lon="13.41555">
        <time>2020-02-18T13:03:00Z</time>
      </trkpt>
      <trkpt lat="63.69" lon="13.44194">
        <time>2020-02-18T13:31:00Z</time>
      </trkpt>
      <trkpt lat="63.68993" lon="13.48797">
        <time>2020-02-18T14:01:00Z</time>
      </trkpt>
      <trkpt lat="63.68904" lon="13.51977">
        <time>2020-02-18T14:31:00Z</time>
      </trkpt>
      <trkpt lat="63.69241" lon="13.54722">
        <time>2020-02-18T15:01:00Z</time>
      </trkpt>
      <trkpt lat="63.69218" lon="13.59513">
        <time>2020-02-18T15:31:00Z</time>
      </trkpt>
      <trkpt lat="63.69634" lon="13.62594">
        <time>2020-02-18T15:52:00Z</time>
      </trkpt>
      <trkpt lat="63.69627" lon="13.62586">
        <time>2020-02-19T10:01:00Z</time>
      </trkpt>
      <trkpt lat="63.70623" lon="13.60702">
        <time>2020-02-19T10:31:00Z</time>
      </trkpt>
      <trkpt lat="63.71618" lon="13.61221">
        <time>2020-02-19T11:01:00Z</time>
      </trkpt>
      <trkpt lat="63.72378" lon="13.61805">
        <time>2020-02-19T11:31:00Z</time>
      </trkpt>
      <trkpt lat="63.73499" lon="13.62159">
        <time>2020-02-19T12:01:00Z</time>
      </trkpt>
      <trkpt lat="63.74531" lon="13.63021">
        <time>2020-02-19T12:31:00Z</time>
      </trkpt>
      <trkpt lat="63.74962" lon="13.64358">
        <time>2020-02-19T13:01:00Z</time>
      </trkpt>
      <trkpt lat="63.7541" lon="13.66184">
        <time>2020-02-19T13:31:00Z</time>
      </trkpt>
      <trkpt lat="63.7497" lon="13.6901">
        <time>2020-02-19T14:01:00Z</time>
      </trkpt>
      <trkpt lat="63.74496" lon="13.72038">
        <time>2020-02-19T14:31:00Z</time>
      </trkpt>
      <trkpt lat="63.74294" lon="13.73257">
        <time>2020-02-19T15:01:00Z</time>
      </trkpt>
      <trkpt lat="63.74298" lon="13.7324">
        <time>2020-02-19T15:16:00Z</time>
      </trkpt>
      <trkpt lat="63.74289" lon="13.73319">
        <time>2020-02-20T08:10:00Z</time>
      </trkpt>
      <trkpt lat="63.74953" lon="13.75641">
        <time>2020-02-20T08:40:00Z</time>
      </trkpt>
      <trkpt lat="63.75333" lon="13.77362">
        <time>2020-02-20T09:10:00Z</time>
      </trkpt>
      <trkpt lat="63.7606" lon="13.78404">
        <time>2020-02-20T09:40:00Z</time>
      </trkpt>
      <trkpt lat="63.76564" lon="13.79937">
        <time>2020-02-20T10:10:00Z</time>
      </trkpt>
      <trkpt lat="63.77031" lon="13.81445">
        <time>2020-02-20T10:40:00Z</time>
      </trkpt>
      <trkpt lat="63.76825" lon="13.82893">
        <time>2020-02-20T11:10:00Z</time>
      </trkpt>
      <trkpt lat="63.78012" lon="13.82172">
        <time>2020-02-20T11:40:00Z</time>
      </trkpt>
      <trkpt lat="63.78077" lon="13.82099">
        <time>2020-02-21T08:34:00Z</time>
      </trkpt>
      <trkpt lat="63.79313" lon="13.837">
        <time>2020-02-21T09:04:00Z</time>
      </trkpt>
      <trkpt lat="63.80696" lon="13.8332">
        <time>2020-02-21T09:34:00Z</time>
      </trkpt>
      <trkpt lat="63.81988" lon="13.83175">
        <time>2020-02-21T10:04:00Z</time>
      </trkpt>
      <trkpt lat="63.82614" lon="13.85863">
        <time>2020-02-21T10:35:00Z</time>
      </trkpt>
      <trkpt lat="63.83861" lon="13.87678">
        <time>2020-02-21T11:05:00Z</time>
      </trkpt>
      <trkpt lat="63.8512" lon="13.87786">
        <time>2020-02-21T11:35:00Z</time>
      </trkpt>
      <trkpt lat="63.86447" lon="13.87509">
        <time>2020-02-21T12:05:00Z</time>
      </trkpt>
      <trkpt lat="63.87937" lon="13.86217">
        <time>2020-02-21T12:35:00Z</time>
      </trkpt>
      <trkpt lat="63.89216" lon="13.86086">
        <time>2020-02-21T13:05:00Z</time>
      </trkpt>
      <trkpt lat="63.9054" lon="13.86496">
        <time>2020-02-21T13:35:00Z</time>
      </trkpt>
      <trkpt lat="63.91897" lon="13.87058">
        <time>2020-02-21T14:05:00Z</time>
      </trkpt>
      <trkpt lat="63.93438" lon="13.89417">
        <time>2020-02-21T14:35:00Z</time>
      </trkpt>
      <trkpt lat="63.95305" lon="13.92897">
        <time>2020-02-21T15:05:00Z</time>
      </trkpt>
      <trkpt lat="63.95769" lon="13.95463">
        <time>2020-02-21T15:35:00Z</time>
      </trkpt>
      <trkpt lat="63.95469" lon="13.98729">
        <time>2020-02-21T16:05:00Z</time>
      </trkpt>
      <trkpt lat="63.95586" lon="14.03246">
        <time>2020-02-21T16:35:00Z</time>
      </trkpt>
      <trkpt lat="63.95388" lon="14.05885">
        <time>2020-02-21T17:05:00Z</time>
      </trkpt>
      <trkpt lat="63.963" lon="14.06684">
        <time>2020-02-21T17:35:00Z</time>
      </trkpt>
      <trkpt lat="63.96428" lon="14.06265">
        <time>2020-02-21T17:51:00Z</time>
      </trkpt>
      <trkpt lat="63.96363" lon="14.06366">
        <time>2020-02-23T07:48:00Z</time>
      </trkpt>
      <trkpt lat="63.96593" lon="14.11711">
        <time>2020-02-23T08:18:00Z</time>
      </trkpt>
      <trkpt lat="63.97232" lon="14.14245">
        <time>2020-02-23T08:48:00Z</time>
      </trkpt>
      <trkpt lat="63.97831" lon="14.1225">
        <time>2020-02-23T09:18:00Z</time>
      </trkpt>
      <trkpt lat="63.99241" lon="14.11213">
        <time>2020-02-23T09:48:00Z</time>
      </trkpt>
      <trkpt lat="64.00504" lon="14.10887">
        <time>2020-02-23T10:18:00Z</time>
      </trkpt>
      <trkpt lat="64.02078" lon="14.10121">
        <time>2020-02-23T10:48:00Z</time>
      </trkpt>
      <trkpt lat="64.02423" lon="14.10089">
        <time>2020-02-23T11:18:00Z</time>
      </trkpt>
      <trkpt lat="64.02689" lon="14.09037">
        <time>2020-02-23T11:48:00Z</time>
      </trkpt>
      <trkpt lat="64.04098" lon="14.09117">
        <time>2020-02-23T12:18:00Z</time>
      </trkpt>
      <trkpt lat="64.04921" lon="14.10029">
        <time>2020-02-23T12:48:00Z</time>
      </trkpt>
      <trkpt lat="64.05786" lon="14.09149">
        <time>2020-02-23T13:18:00Z</time>
      </trkpt>
      <trkpt lat="64.0694" lon="14.11003">
        <time>2020-02-23T13:48:00Z</time>
      </trkpt>
      <trkpt lat="64.0688" lon="14.13434">
        <time>2020-02-23T14:18:00Z</time>
      </trkpt>
      <trkpt lat="64.0695" lon="14.13822">
        <time>2020-02-23T14:43:00Z</time>
      </trkpt>
      <trkpt lat="64.0674" lon="14.14059">
        <time>2020-02-24T09:57:00Z</time>
      </trkpt>
      <trkpt lat="64.06794" lon="14.13986">
        <time>2020-02-24T09:58:00Z</time>
      </trkpt>
      <trkpt lat="64.07117" lon="14.10486">
        <time>2020-02-24T10:27:00Z</time>
      </trkpt>
      <trkpt lat="64.08224" lon="14.071">
        <time>2020-02-24T10:57:00Z</time>
      </trkpt>
      <trkpt lat="64.09525" lon="14.04018">
        <time>2020-02-24T11:27:00Z</time>
      </trkpt>
      <trkpt lat="64.1035" lon="13.99791">
        <time>2020-02-24T11:57:00Z</time>
      </trkpt>
      <trkpt lat="64.11776" lon="13.95822">
        <time>2020-02-24T12:27:00Z</time>
      </trkpt>
      <trkpt lat="64.12994" lon="13.92399">
        <time>2020-02-24T12:57:00Z</time>
      </trkpt>
      <trkpt lat="64.1353" lon="13.91446">
        <time>2020-02-24T13:27:00Z</time>
      </trkpt>
      <trkpt lat="64.14085" lon="13.90494">
        <time>2020-02-24T13:57:00Z</time>
      </trkpt>
      <trkpt lat="64.16131" lon="13.87732">
        <time>2020-02-24T14:27:00Z</time>
      </trkpt>
      <trkpt lat="64.17211" lon="13.84496">
        <time>2020-02-24T14:57:00Z</time>
      </trkpt>
      <trkpt lat="64.17346" lon="13.84518">
        <time>2020-02-24T15:27:00Z</time>
      </trkpt>
      <trkpt lat="64.17182" lon="13.84518">
        <time>2020-02-24T15:31:00Z</time>
      </trkpt>
      <trkpt lat="64.17348" lon="13.84513">
        <time>2020-02-25T08:42:00Z</time>
      </trkpt>
      <trkpt lat="64.19095" lon="13.83318">
        <time>2020-02-25T09:12:00Z</time>
      </trkpt>
      <trkpt lat="64.20847" lon="13.82917">
        <time>2020-02-25T09:42:00Z</time>
      </trkpt>
      <trkpt lat="64.22267" lon="13.8117">
        <time>2020-02-25T10:12:00Z</time>
      </trkpt>
      <trkpt lat="64.23251" lon="13.78531">
        <time>2020-02-25T10:42:00Z</time>
      </trkpt>
      <trkpt lat="64.23987" lon="13.7719">
        <time>2020-02-25T11:12:00Z</time>
      </trkpt>
      <trkpt lat="64.24914" lon="13.74523">
        <time>2020-02-25T11:42:00Z</time>
      </trkpt>
      <trkpt lat="64.26275" lon="13.70302">
        <time>2020-02-25T12:12:00Z</time>
      </trkpt>
      <trkpt lat="64.2721" lon="13.68272">
        <time>2020-02-25T12:42:00Z</time>
      </trkpt>
      <trkpt lat="64.28316" lon="13.66199">
        <time>2020-02-25T13:12:00Z</time>
      </trkpt>
      <trkpt lat="64.2916" lon="13.64242">
        <time>2020-02-25T13:42:00Z</time>
      </trkpt>
      <trkpt lat="64.30164" lon="13.61629">
        <time>2020-02-25T14:12:00Z</time>
      </trkpt>
      <trkpt lat="64.32054" lon="13.60238">
        <time>2020-02-25T14:42:00Z</time>
      </trkpt>
      <trkpt lat="64.33619" lon="13.60573">
        <time>2020-02-25T15:12:00Z</time>
      </trkpt>
      <trkpt lat="64.33595" lon="13.60567">
        <time>2020-02-25T15:36:00Z</time>
      </trkpt>
      <trkpt lat="64.33628" lon="13.60552">
        <time>2020-02-26T08:38:00Z</time>
      </trkpt>
      <trkpt lat="64.35398" lon="13.61974">
        <time>2020-02-26T09:08:00Z</time>
      </trkpt>
      <trkpt lat="64.3665" lon="13.62408">
        <time>2020-02-26T09:38:00Z</time>
      </trkpt>
      <trkpt lat="64.38218" lon="13.62929">
        <time>2020-02-26T10:09:00Z</time>
      </trkpt>
      <trkpt lat="64.39436" lon="13.64987">
        <time>2020-02-26T10:39:00Z</time>
      </trkpt>
      <trkpt lat="64.41815" lon="13.63646">
        <time>2020-02-26T11:09:00Z</time>
      </trkpt>
      <trkpt lat="64.44314" lon="13.64099">
        <time>2020-02-26T11:39:00Z</time>
      </trkpt>
      <trkpt lat="64.44608" lon="13.69817">
        <time>2020-02-26T12:09:00Z</time>
      </trkpt>
      <trkpt lat="64.4455" lon="13.71787">
        <time>2020-02-26T12:31:00Z</time>
      </trkpt>
      <trkpt lat="64.44555" lon="13.71776">
        <time>2020-02-27T07:49:00Z</time>
      </trkpt>
      <trkpt lat="64.43863" lon="13.759">
        <time>2020-02-27T08:19:00Z</time>
      </trkpt>
      <trkpt lat="64.443" lon="13.80471">
        <time>2020-02-27T08:49:00Z</time>
      </trkpt>
      <trkpt lat="64.45821" lon="13.84526">
        <time>2020-02-27T09:19:00Z</time>
      </trkpt>
      <trkpt lat="64.47435" lon="13.895">
        <time>2020-02-27T09:49:00Z</time>
      </trkpt>
      <trkpt lat="64.48194" lon="13.93135">
        <time>2020-02-27T10:19:00Z</time>
      </trkpt>
      <trkpt lat="64.49453" lon="13.9638">
        <time>2020-02-27T10:49:00Z</time>
      </trkpt>
      <trkpt lat="64.49341" lon="13.98139">
        <time>2020-02-27T11:19:00Z</time>
      </trkpt>
      <trkpt lat="64.48306" lon="14.03102">
        <time>2020-02-27T11:49:00Z</time>
      </trkpt>
      <trkpt lat="64.47783" lon="14.08527">
        <time>2020-02-27T12:19:00Z</time>
      </trkpt>
      <trkpt lat="64.48293" lon="14.13134">
        <time>2020-02-27T12:49:00Z</time>
      </trkpt>
      <trkpt lat="64.50201" lon="14.14486">
        <time>2020-02-27T13:19:00Z</time>
      </trkpt>
      <trkpt lat="64.50494" lon="14.14934">
        <time>2020-02-28T08:12:00Z</time>
      </trkpt>
      <trkpt lat="64.50714" lon="14.15726">
        <time>2020-02-28T08:42:00Z</time>
      </trkpt>
      <trkpt lat="64.52624" lon="14.16069">
        <time>2020-02-28T09:12:00Z</time>
      </trkpt>
      <trkpt lat="64.54927" lon="14.13975">
        <time>2020-02-28T09:42:00Z</time>
      </trkpt>
      <trkpt lat="64.57497" lon="14.13267">
        <time>2020-02-28T10:12:00Z</time>
      </trkpt>
      <trkpt lat="64.59989" lon="14.12061">
        <time>2020-02-28T10:42:00Z</time>
      </trkpt>
      <trkpt lat="64.62504" lon="14.1223">
        <time>2020-02-28T11:12:00Z</time>
      </trkpt>
      <trkpt lat="64.62967" lon="14.13159">
        <time>2020-02-28T11:42:00Z</time>
      </trkpt>
      <trkpt lat="64.65125" lon="14.13565">
        <time>2020-02-28T12:12:00Z</time>
      </trkpt>
      <trkpt lat="64.66841" lon="14.10276">
        <time>2020-02-28T12:42:00Z</time>
      </trkpt>
      <trkpt lat="64.6863" lon="14.08089">
        <time>2020-02-28T13:12:00Z</time>
      </trkpt>
      <trkpt lat="64.70451" lon="14.05769">
        <time>2020-02-28T13:42:00Z</time>
      </trkpt>
      <trkpt lat="64.71076" lon="14.0631">
        <time>2020-02-28T14:12:00Z</time>
      </trkpt>
      <trkpt lat="64.71077" lon="14.06336">
        <time>2020-02-29T08:12:00Z</time>
      </trkpt>
      <trkpt lat="64.71211" lon="14.08278">
        <time>2020-02-29T08:42:00Z</time>
      </trkpt>
      <trkpt lat="64.71852" lon="14.11063">
        <time>2020-02-29T09:12:00Z</time>
      </trkpt>
      <trkpt lat="64.73212" lon="14.10537">
        <time>2020-02-29T09:42:00Z</time>
      </trkpt>
      <trkpt lat="64.74298" lon="14.0843">
        <time>2020-02-29T10:12:00Z</time>
      </trkpt>
      <trkpt lat="64.75146" lon="14.0754">
        <time>2020-02-29T10:42:00Z</time>
      </trkpt>
      <trkpt lat="64.77027" lon="14.06814">
        <time>2020-02-29T11:12:00Z</time>
      </trkpt>
      <trkpt lat="64.78836" lon="14.08915">
        <time>2020-02-29T11:42:00Z</time>
      </trkpt>
      <trkpt lat="64.80785" lon="14.08915">
        <time>2020-02-29T12:12:00Z</time>
      </trkpt>
      <trkpt lat="64.82875" lon="14.08673">
        <time>2020-02-29T12:42:00Z</time>
      </trkpt>
      <trkpt lat="64.8363" lon="14.0837">
        <time>2020-02-29T13:12:00Z</time>
      </trkpt>
      <trkpt lat="64.83656" lon="14.08467">
        <time>2020-02-29T13:42:00Z</time>
      </trkpt>
      <trkpt lat="64.82738" lon="14.12518">
        <time>2020-02-29T14:12:00Z</time>
      </trkpt>
      <trkpt lat="64.81177" lon="14.16782">
        <time>2020-02-29T14:42:00Z</time>
      </trkpt>
      <trkpt lat="64.81581" lon="14.20667">
        <time>2020-02-29T15:12:00Z</time>
      </trkpt>
      <trkpt lat="64.8181" lon="14.23779">
        <time>2020-03-01T08:02:00Z</time>
      </trkpt>
      <trkpt lat="64.82442" lon="14.25423">
        <time>2020-03-01T08:32:00Z</time>
      </trkpt>
      <trkpt lat="64.82765" lon="14.25759">
        <time>2020-03-01T09:02:00Z</time>
      </trkpt>
      <trkpt lat="64.83781" lon="14.27562">
        <time>2020-03-01T09:32:00Z</time>
      </trkpt>
      <trkpt lat="64.84747" lon="14.30105">
        <time>2020-03-01T10:03:00Z</time>
      </trkpt>
      <trkpt lat="64.84971" lon="14.33332">
        <time>2020-03-01T10:33:00Z</time>
      </trkpt>
      <trkpt lat="64.85072" lon="14.37293">
        <time>2020-03-01T11:03:00Z</time>
      </trkpt>
      <trkpt lat="64.85454" lon="14.40703">
        <time>2020-03-01T11:33:00Z</time>
      </trkpt>
      <trkpt lat="64.85859" lon="14.43335">
        <time>2020-03-01T12:03:00Z</time>
      </trkpt>
      <trkpt lat="64.86159" lon="14.42475">
        <time>2020-03-01T12:33:00Z</time>
      </trkpt>
      <trkpt lat="64.86622" lon="14.45494">
        <time>2020-03-01T13:03:00Z</time>
      </trkpt>
      <trkpt lat="64.87115" lon="14.49584">
        <time>2020-03-01T13:33:00Z</time>
      </trkpt>
      <trkpt lat="64.88411" lon="14.52755">
        <time>2020-03-01T14:03:00Z</time>
      </trkpt>
      <trkpt lat="64.89206" lon="14.57985">
        <time>2020-03-01T14:33:00Z</time>
      </trkpt>
      <trkpt lat="64.90839" lon="14.56349">
        <time>2020-03-01T15:03:00Z</time>
      </trkpt>
      <trkpt lat="64.92071" lon="14.55272">
        <time>2020-03-01T15:33:00Z</time>
      </trkpt>
      <trkpt lat="64.92025" lon="14.55279">
        <time>2020-03-01T15:50:00Z</time>
      </trkpt>
      <trkpt lat="64.92022" lon="14.55289">
        <time>2020-03-02T11:15:00Z</time>
      </trkpt>
      <trkpt lat="64.92507" lon="14.56684">
        <time>2020-03-02T11:45:00Z</time>
      </trkpt>
      <trkpt lat="64.93345" lon="14.583">
        <time>2020-03-02T12:15:00Z</time>
      </trkpt>
      <trkpt lat="64.94289" lon="14.60909">
        <time>2020-03-02T12:45:00Z</time>
      </trkpt>
      <trkpt lat="64.9472" lon="14.62943">
        <time>2020-03-02T13:15:00Z</time>
      </trkpt>
      <trkpt lat="64.94729" lon="14.6298">
        <time>2020-03-02T13:17:00Z</time>
      </trkpt>
      <trkpt lat="64.95236" lon="14.64589">
        <time>2020-03-02T13:45:00Z</time>
      </trkpt>
      <trkpt lat="64.94792" lon="14.63169">
        <time>2020-03-02T14:15:00Z</time>
      </trkpt>
      <trkpt lat="64.93684" lon="14.5916">
        <time>2020-03-02T14:45:00Z</time>
      </trkpt>
      <trkpt lat="64.92119" lon="14.55631">
        <time>2020-03-02T15:16:00Z</time>
      </trkpt>
      <trkpt lat="64.92031" lon="14.55304">
        <time>2020-03-02T15:46:00Z</time>
      </trkpt>
      <trkpt lat="64.9201" lon="14.55251">
        <time>2020-03-02T16:17:00Z</time>
      </trkpt>
      <trkpt lat="64.92021" lon="14.55298">
        <time>2020-03-02T20:17:00Z</time>
      </trkpt>
      <trkpt lat="64.92028" lon="14.55298">
        <time>2020-03-03T00:19:00Z</time>
      </trkpt>
      <trkpt lat="64.92143" lon="14.55169">
        <time>2020-03-03T01:10:00Z</time>
      </trkpt>
      <trkpt lat="64.92026" lon="14.55287">
        <time>2020-03-03T01:40:00Z</time>
      </trkpt>
      <trkpt lat="64.92022" lon="14.55292">
        <time>2020-03-03T02:10:00Z</time>
      </trkpt>
      <trkpt lat="64.92002" lon="14.5503">
        <time>2020-03-03T04:10:00Z</time>
      </trkpt>
      <trkpt lat="64.92017" lon="14.5533">
        <time>2020-03-03T04:41:00Z</time>
      </trkpt>
      <trkpt lat="64.92027" lon="14.55281">
        <time>2020-03-03T05:11:00Z</time>
      </trkpt>
      <trkpt lat="64.92033" lon="14.553">
        <time>2020-03-03T08:14:00Z</time>
      </trkpt>
      <trkpt lat="64.92577" lon="14.56897">
        <time>2020-03-03T08:44:00Z</time>
      </trkpt>
      <trkpt lat="64.93449" lon="14.58532">
        <time>2020-03-03T09:14:00Z</time>
      </trkpt>
      <trkpt lat="64.94394" lon="14.61547">
        <time>2020-03-03T09:44:00Z</time>
      </trkpt>
      <trkpt lat="64.95103" lon="14.64053">
        <time>2020-03-03T10:14:00Z</time>
      </trkpt>
      <trkpt lat="64.95787" lon="14.67145">
        <time>2020-03-03T10:45:00Z</time>
      </trkpt>
      <trkpt lat="64.97238" lon="14.69563">
        <time>2020-03-03T11:15:00Z</time>
      </trkpt>
      <trkpt lat="64.98415" lon="14.71816">
        <time>2020-03-03T11:45:00Z</time>
      </trkpt>
      <trkpt lat="64.98846" lon="14.72142">
        <time>2020-03-03T12:15:00Z</time>
      </trkpt>
      <trkpt lat="65.00813" lon="14.727">
        <time>2020-03-03T12:45:00Z</time>
      </trkpt>
      <trkpt lat="65.02729" lon="14.73378">
        <time>2020-03-03T13:15:00Z</time>
      </trkpt>
      <trkpt lat="65.04869" lon="14.74395">
        <time>2020-03-03T13:45:00Z</time>
      </trkpt>
      <trkpt lat="65.05352" lon="14.7903">
        <time>2020-03-03T14:15:00Z</time>
      </trkpt>
      <trkpt lat="65.0603" lon="14.79854">
        <time>2020-03-03T14:46:00Z</time>
      </trkpt>
      <trkpt lat="65.06033" lon="14.79758">
        <time>2020-03-03T14:48:00Z</time>
      </trkpt>
      <trkpt lat="65.06032" lon="14.79854">
        <time>2020-03-04T08:33:00Z</time>
      </trkpt>
      <trkpt lat="65.05052" lon="14.74876">
        <time>2020-03-04T09:03:00Z</time>
      </trkpt>
      <trkpt lat="65.06372" lon="14.69574">
        <time>2020-03-04T09:33:00Z</time>
      </trkpt>
      <trkpt lat="65.07104" lon="14.65364">
        <time>2020-03-04T10:03:00Z</time>
      </trkpt>
      <trkpt lat="65.08381" lon="14.6269">
        <time>2020-03-04T10:33:00Z</time>
      </trkpt>
      <trkpt lat="65.09899" lon="14.60589">
        <time>2020-03-04T11:03:00Z</time>
      </trkpt>
      <trkpt lat="65.10593" lon="14.57532">
        <time>2020-03-04T11:33:00Z</time>
      </trkpt>
      <trkpt lat="65.10643" lon="14.54141">
        <time>2020-03-04T12:03:00Z</time>
      </trkpt>
      <trkpt lat="65.12229" lon="14.52584">
        <time>2020-03-04T12:34:00Z</time>
      </trkpt>
      <trkpt lat="65.13343" lon="14.53324">
        <time>2020-03-04T13:04:00Z</time>
      </trkpt>
      <trkpt lat="65.14651" lon="14.56296">
        <time>2020-03-04T13:34:00Z</time>
      </trkpt>
      <trkpt lat="65.16682" lon="14.57598">
        <time>2020-03-04T14:04:00Z</time>
      </trkpt>
      <trkpt lat="65.17968" lon="14.57012">
        <time>2020-03-04T14:34:00Z</time>
      </trkpt>
      <trkpt lat="65.18249" lon="14.56701">
        <time>2020-03-05T07:29:00Z</time>
      </trkpt>
      <trkpt lat="65.18758" lon="14.57369">
        <time>2020-03-05T07:59:00Z</time>
      </trkpt>
      <trkpt lat="65.19169" lon="14.60002">
        <time>2020-03-05T08:29:00Z</time>
      </trkpt>
      <trkpt lat="65.19231" lon="14.6098">
        <time>2020-03-05T08:59:00Z</time>
      </trkpt>
      <trkpt lat="65.19263" lon="14.62939">
        <time>2020-03-05T09:29:00Z</time>
      </trkpt>
      <trkpt lat="65.19359" lon="14.64701">
        <time>2020-03-05T09:59:00Z</time>
      </trkpt>
      <trkpt lat="65.19337" lon="14.66675">
        <time>2020-03-05T10:29:00Z</time>
      </trkpt>
      <trkpt lat="65.20009" lon="14.68797">
        <time>2020-03-05T10:59:00Z</time>
      </trkpt>
      <trkpt lat="65.20827" lon="14.70713">
        <time>2020-03-05T11:29:00Z</time>
      </trkpt>
      <trkpt lat="65.21126" lon="14.72185">
        <time>2020-03-05T11:59:00Z</time>
      </trkpt>
      <trkpt lat="65.21558" lon="14.74093">
        <time>2020-03-05T12:29:00Z</time>
      </trkpt>
      <trkpt lat="65.21781" lon="14.75303">
        <time>2020-03-05T12:59:00Z</time>
      </trkpt>
      <trkpt lat="65.22258" lon="14.76874">
        <time>2020-03-05T13:29:00Z</time>
      </trkpt>
      <trkpt lat="65.22654" lon="14.78556">
        <time>2020-03-05T13:59:00Z</time>
      </trkpt>
      <trkpt lat="65.22832" lon="14.80873">
        <time>2020-03-05T14:29:00Z</time>
      </trkpt>
      <trkpt lat="65.23009" lon="14.81963">
        <time>2020-03-05T14:59:00Z</time>
      </trkpt>
      <trkpt lat="65.23326" lon="14.83558">
        <time>2020-03-05T15:29:00Z</time>
      </trkpt>
      <trkpt lat="65.23719" lon="14.84358">
        <time>2020-03-05T15:59:00Z</time>
      </trkpt>
      <trkpt lat="65.23718" lon="14.84356">
        <time>2020-03-05T16:20:00Z</time>
      </trkpt>
      <trkpt lat="65.23717" lon="14.84365">
        <time>2020-03-06T07:55:00Z</time>
      </trkpt>
      <trkpt lat="65.23717" lon="14.84365">
        <time>2020-03-06T07:55:00Z</time>
      </trkpt>
      <trkpt lat="65.2373" lon="14.8471">
        <time>2020-03-06T08:25:00Z</time>
      </trkpt>
      <trkpt lat="65.23721" lon="14.85914">
        <time>2020-03-06T08:55:00Z</time>
      </trkpt>
      <trkpt lat="65.23946" lon="14.87879">
        <time>2020-03-06T09:25:00Z</time>
      </trkpt>
      <trkpt lat="65.24048" lon="14.88283">
        <time>2020-03-06T09:55:00Z</time>
      </trkpt>
      <trkpt lat="65.24339" lon="14.8927">
        <time>2020-03-06T10:25:00Z</time>
      </trkpt>
      <trkpt lat="65.24372" lon="14.91443">
        <time>2020-03-06T10:55:00Z</time>
      </trkpt>
      <trkpt lat="65.25144" lon="14.93218">
        <time>2020-03-06T11:25:00Z</time>
      </trkpt>
      <trkpt lat="65.25332" lon="14.93188">
        <time>2020-03-06T11:55:00Z</time>
      </trkpt>
      <trkpt lat="65.25333" lon="14.93184">
        <time>2020-03-06T12:05:00Z</time>
      </trkpt>
      <trkpt lat="65.25334" lon="14.93192">
        <time>2020-03-07T06:44:00Z</time>
      </trkpt>
      <trkpt lat="65.25654" lon="14.97005">
        <time>2020-03-07T07:14:00Z</time>
      </trkpt>
      <trkpt lat="65.25627" lon="15.00754">
        <time>2020-03-07T07:44:00Z</time>
      </trkpt>
      <trkpt lat="65.26908" lon="15.02052">
        <time>2020-03-07T08:14:00Z</time>
      </trkpt>
      <trkpt lat="65.28706" lon="15.01743">
        <time>2020-03-07T08:44:00Z</time>
      </trkpt>
      <trkpt lat="65.29879" lon="15.02554">
        <time>2020-03-07T09:14:00Z</time>
      </trkpt>
      <trkpt lat="65.31389" lon="15.02983">
        <time>2020-03-07T09:44:00Z</time>
      </trkpt>
      <trkpt lat="65.32301" lon="15.0602">
        <time>2020-03-07T10:14:00Z</time>
      </trkpt>
      <trkpt lat="65.32795" lon="15.0661">
        <time>2020-03-07T10:44:00Z</time>
      </trkpt>
      <trkpt lat="65.33609" lon="15.09693">
        <time>2020-03-07T11:14:00Z</time>
      </trkpt>
      <trkpt lat="65.33621" lon="15.12219">
        <time>2020-03-07T11:44:00Z</time>
      </trkpt>
      <trkpt lat="65.33354" lon="15.1389">
        <time>2020-03-07T12:14:00Z</time>
      </trkpt>
      <trkpt lat="65.32958" lon="15.19216">
        <time>2020-03-07T12:45:00Z</time>
      </trkpt>
      <trkpt lat="65.32524" lon="15.25121">
        <time>2020-03-07T13:15:00Z</time>
      </trkpt>
      <trkpt lat="65.32161" lon="15.28228">
        <time>2020-03-07T13:45:00Z</time>
      </trkpt>
      <trkpt lat="65.32381" lon="15.28428">
        <time>2020-03-07T14:15:00Z</time>
      </trkpt>
      <trkpt lat="65.33128" lon="15.29218">
        <time>2020-03-07T14:45:00Z</time>
      </trkpt>
      <trkpt lat="65.34921" lon="15.30634">
        <time>2020-03-07T15:15:00Z</time>
      </trkpt>
      <trkpt lat="65.36516" lon="15.29582">
        <time>2020-03-07T15:45:00Z</time>
      </trkpt>
      <trkpt lat="65.39215" lon="15.30009">
        <time>2020-03-07T16:15:00Z</time>
      </trkpt>
      <trkpt lat="65.41011" lon="15.27533">
        <time>2020-03-07T16:45:00Z</time>
      </trkpt>
      <trkpt lat="65.42691" lon="15.23761">
        <time>2020-03-07T17:15:00Z</time>
      </trkpt>
      <trkpt lat="65.43261" lon="15.22984">
        <time>2020-03-07T17:45:00Z</time>
      </trkpt>
      <trkpt lat="65.43266" lon="15.22982">
        <time>2020-03-07T18:15:00Z</time>
      </trkpt>
      <trkpt lat="65.43259" lon="15.22973">
        <time>2020-03-08T09:01:00Z</time>
      </trkpt>
      <trkpt lat="65.43259" lon="15.22973">
        <time>2020-03-08T09:01:00Z</time>
      </trkpt>
      <trkpt lat="65.44689" lon="15.23958">
        <time>2020-03-08T09:31:00Z</time>
      </trkpt>
      <trkpt lat="65.44713" lon="15.24059">
        <time>2020-03-08T09:32:00Z</time>
      </trkpt>
      <trkpt lat="65.46527" lon="15.2751">
        <time>2020-03-08T10:01:00Z</time>
      </trkpt>
      <trkpt lat="65.48645" lon="15.33951">
        <time>2020-03-08T10:32:00Z</time>
      </trkpt>
      <trkpt lat="65.50389" lon="15.342">
        <time>2020-03-08T11:02:00Z</time>
      </trkpt>
      <trkpt lat="65.52599" lon="15.31945">
        <time>2020-03-08T11:32:00Z</time>
      </trkpt>
      <trkpt lat="65.54524" lon="15.31014">
        <time>2020-03-08T12:02:00Z</time>
      </trkpt>
      <trkpt lat="65.57067" lon="15.30074">
        <time>2020-03-08T12:33:00Z</time>
      </trkpt>
      <trkpt lat="65.5908" lon="15.28673">
        <time>2020-03-08T13:03:00Z</time>
      </trkpt>
      <trkpt lat="65.61539" lon="15.25291">
        <time>2020-03-08T13:33:00Z</time>
      </trkpt>
      <trkpt lat="65.63293" lon="15.22257">
        <time>2020-03-08T14:03:00Z</time>
      </trkpt>
      <trkpt lat="65.65296" lon="15.16678">
        <time>2020-03-08T14:33:00Z</time>
      </trkpt>
      <trkpt lat="65.6608" lon="15.12933">
        <time>2020-03-08T15:03:00Z</time>
      </trkpt>
      <trkpt lat="65.68058" lon="15.12236">
        <time>2020-03-08T15:33:00Z</time>
      </trkpt>
      <trkpt lat="65.70253" lon="15.10521">
        <time>2020-03-08T16:03:00Z</time>
      </trkpt>
      <trkpt lat="65.72157" lon="15.09341">
        <time>2020-03-08T16:33:00Z</time>
      </trkpt>
      <trkpt lat="65.74343" lon="15.0894">
        <time>2020-03-08T17:03:00Z</time>
      </trkpt>
      <trkpt lat="65.76011" lon="15.11605">
        <time>2020-03-08T17:33:00Z</time>
      </trkpt>
      <trkpt lat="65.78775" lon="15.1053">
        <time>2020-03-08T18:04:00Z</time>
      </trkpt>
      <trkpt lat="65.80717" lon="15.0885">
        <time>2020-03-08T18:34:00Z</time>
      </trkpt>
      <trkpt lat="65.81847" lon="15.09011">
        <time>2020-03-08T19:04:00Z</time>
      </trkpt>
      <trkpt lat="65.81753" lon="15.0909">
        <time>2020-03-10T08:53:00Z</time>
      </trkpt>
      <trkpt lat="65.81534" lon="15.11811">
        <time>2020-03-10T09:26:00Z</time>
      </trkpt>
      <trkpt lat="65.82514" lon="15.10678">
        <time>2020-03-10T09:56:00Z</time>
      </trkpt>
      <trkpt lat="65.83499" lon="15.10047">
        <time>2020-03-10T10:26:00Z</time>
      </trkpt>
      <trkpt lat="65.844" lon="15.09234">
        <time>2020-03-10T10:56:00Z</time>
      </trkpt>
      <trkpt lat="65.85708" lon="15.09279">
        <time>2020-03-10T11:26:00Z</time>
      </trkpt>
      <trkpt lat="65.86753" lon="15.11421">
        <time>2020-03-10T11:57:00Z</time>
      </trkpt>
      <trkpt lat="65.88112" lon="15.14665">
        <time>2020-03-10T12:27:00Z</time>
      </trkpt>
      <trkpt lat="65.88506" lon="15.15824">
        <time>2020-03-10T12:57:00Z</time>
      </trkpt>
      <trkpt lat="65.88498" lon="15.15811">
        <time>2020-03-10T13:27:00Z</time>
      </trkpt>
      <trkpt lat="65.8854" lon="15.20167">
        <time>2020-03-10T13:57:00Z</time>
      </trkpt>
      <trkpt lat="65.87822" lon="15.25235">
        <time>2020-03-10T14:27:00Z</time>
      </trkpt>
      <trkpt lat="65.87127" lon="15.29803">
        <time>2020-03-10T14:57:00Z</time>
      </trkpt>
      <trkpt lat="65.87054" lon="15.33415">
        <time>2020-03-10T15:27:00Z</time>
      </trkpt>
      <trkpt lat="65.87725" lon="15.35026">
        <time>2020-03-10T15:57:00Z</time>
      </trkpt>
      <trkpt lat="65.89271" lon="15.39644">
        <time>2020-03-10T16:27:00Z</time>
      </trkpt>
      <trkpt lat="65.8923" lon="15.39788">
        <time>2020-03-11T10:10:00Z</time>
      </trkpt>
      <trkpt lat="65.90258" lon="15.44918">
        <time>2020-03-11T10:40:00Z</time>
      </trkpt>
      <trkpt lat="65.92416" lon="15.45989">
        <time>2020-03-11T11:10:00Z</time>
      </trkpt>
      <trkpt lat="65.9414" lon="15.47349">
        <time>2020-03-11T11:40:00Z</time>
      </trkpt>
      <trkpt lat="65.95839" lon="15.48216">
        <time>2020-03-11T12:10:00Z</time>
      </trkpt>
      <trkpt lat="65.9788" lon="15.48287">
        <time>2020-03-11T12:40:00Z</time>
      </trkpt>
      <trkpt lat="65.98879" lon="15.49714">
        <time>2020-03-11T13:10:00Z</time>
      </trkpt>
      <trkpt lat="65.98883" lon="15.49701">
        <time>2020-03-12T07:19:00Z</time>
      </trkpt>
      <trkpt lat="65.99698" lon="15.5119">
        <time>2020-03-12T07:49:00Z</time>
      </trkpt>
      <trkpt lat="66.00411" lon="15.53611">
        <time>2020-03-12T08:19:00Z</time>
      </trkpt>
      <trkpt lat="66.00056" lon="15.56651">
        <time>2020-03-12T08:49:00Z</time>
      </trkpt>
      <trkpt lat="65.98656" lon="15.57881">
        <time>2020-03-12T09:19:00Z</time>
      </trkpt>
      <trkpt lat="65.973" lon="15.5923">
        <time>2020-03-12T09:49:00Z</time>
      </trkpt>
      <trkpt lat="65.96787" lon="15.62528">
        <time>2020-03-12T10:19:00Z</time>
      </trkpt>
      <trkpt lat="65.97155" lon="15.67899">
        <time>2020-03-12T10:49:00Z</time>
      </trkpt>
      <trkpt lat="65.96493" lon="15.70648">
        <time>2020-03-12T11:19:00Z</time>
      </trkpt>
      <trkpt lat="65.96864" lon="15.74558">
        <time>2020-03-12T11:49:00Z</time>
      </trkpt>
      <trkpt lat="65.97221" lon="15.76416">
        <time>2020-03-12T12:19:00Z</time>
      </trkpt>
      <trkpt lat="65.96724" lon="15.78169">
        <time>2020-03-12T12:49:00Z</time>
      </trkpt>
      <trkpt lat="65.97547" lon="15.83909">
        <time>2020-03-12T13:19:00Z</time>
      </trkpt>
      <trkpt lat="65.96737" lon="15.89233">
        <time>2020-03-12T13:50:00Z</time>
      </trkpt>
      <trkpt lat="65.96215" lon="15.94412">
        <time>2020-03-12T14:20:00Z</time>
      </trkpt>
      <trkpt lat="65.96367" lon="15.99515">
        <time>2020-03-12T14:50:00Z</time>
      </trkpt>
      <trkpt lat="65.96441" lon="16.04607">
        <time>2020-03-12T15:20:00Z</time>
      </trkpt>
      <trkpt lat="65.96976" lon="16.09411">
        <time>2020-03-12T15:50:00Z</time>
      </trkpt>
      <trkpt lat="65.95881" lon="16.16344">
        <time>2020-03-12T16:20:00Z</time>
      </trkpt>
      <trkpt lat="65.95793" lon="16.21194">
        <time>2020-03-12T16:50:00Z</time>
      </trkpt>
      <trkpt lat="65.96108" lon="16.21468">
        <time>2020-03-13T08:23:00Z</time>
      </trkpt>
      <trkpt lat="65.97648" lon="16.21044">
        <time>2020-03-13T08:53:00Z</time>
      </trkpt>
      <trkpt lat="65.99668" lon="16.19576">
        <time>2020-03-13T09:23:00Z</time>
      </trkpt>
      <trkpt lat="66.0191" lon="16.19632">
        <time>2020-03-13T09:53:00Z</time>
      </trkpt>
      <trkpt lat="66.03733" lon="16.18992">
        <time>2020-03-13T10:23:00Z</time>
      </trkpt>
      <trkpt lat="66.03735" lon="16.18973">
        <time>2020-03-13T10:54:00Z</time>
      </trkpt>
      <trkpt lat="66.03448" lon="16.18999">
        <time>2020-03-13T11:28:00Z</time>
      </trkpt>
      <trkpt lat="66.01878" lon="16.19623">
        <time>2020-03-13T11:58:00Z</time>
      </trkpt>
      <trkpt lat="66.0109" lon="16.19696">
        <time>2020-03-13T12:28:00Z</time>
      </trkpt>
      <trkpt lat="65.99834" lon="16.19557">
        <time>2020-03-13T12:58:00Z</time>
      </trkpt>
      <trkpt lat="65.97364" lon="16.20936">
        <time>2020-03-13T13:28:00Z</time>
      </trkpt>
      <trkpt lat="65.96026" lon="16.21237">
        <time>2020-03-13T13:59:00Z</time>
      </trkpt>
      <trkpt lat="65.96042" lon="16.21232">
        <time>2020-03-14T06:00:00Z</time>
      </trkpt>
      <trkpt lat="65.97617" lon="16.21086">
        <time>2020-03-14T06:30:00Z</time>
      </trkpt>
      <trkpt lat="65.9956" lon="16.19561">
        <time>2020-03-14T07:00:00Z</time>
      </trkpt>
      <trkpt lat="66.01649" lon="16.19563">
        <time>2020-03-14T07:30:00Z</time>
      </trkpt>
      <trkpt lat="66.03739" lon="16.18954">
        <time>2020-03-14T08:00:00Z</time>
      </trkpt>
      <trkpt lat="66.03893" lon="16.21861">
        <time>2020-03-14T08:30:00Z</time>
      </trkpt>
      <trkpt lat="66.03835" lon="16.24689">
        <time>2020-03-14T09:04:00Z</time>
      </trkpt>
      <trkpt lat="66.04462" lon="16.26371">
        <time>2020-03-14T09:34:00Z</time>
      </trkpt>
      <trkpt lat="66.0531" lon="16.26835">
        <time>2020-03-14T10:04:00Z</time>
      </trkpt>
      <trkpt lat="66.06677" lon="16.26998">
        <time>2020-03-14T10:34:00Z</time>
      </trkpt>
      <trkpt lat="66.08172" lon="16.28373">
        <time>2020-03-14T11:04:00Z</time>
      </trkpt>
      <trkpt lat="66.09849" lon="16.3097">
        <time>2020-03-14T11:34:00Z</time>
      </trkpt>
      <trkpt lat="66.11433" lon="16.3406">
        <time>2020-03-14T12:04:00Z</time>
      </trkpt>
      <trkpt lat="66.12856" lon="16.35854">
        <time>2020-03-14T12:34:00Z</time>
      </trkpt>
      <trkpt lat="66.14311" lon="16.35671">
        <time>2020-03-14T13:04:00Z</time>
      </trkpt>
      <trkpt lat="66.16709" lon="16.35706">
        <time>2020-03-14T13:34:00Z</time>
      </trkpt>
      <trkpt lat="66.19063" lon="16.37806">
        <time>2020-03-14T14:04:00Z</time>
      </trkpt>
      <trkpt lat="66.20805" lon="16.37922">
        <time>2020-03-14T14:34:00Z</time>
      </trkpt>
      <trkpt lat="66.20998" lon="16.37708">
        <time>2020-03-14T15:04:00Z</time>
      </trkpt>
      <trkpt lat="66.20998" lon="16.37708">
        <time>2020-03-14T15:04:00Z</time>
      </trkpt>
      <trkpt lat="66.21002" lon="16.37703">
        <time>2020-03-15T08:44:00Z</time>
      </trkpt>
      <trkpt lat="66.22768" lon="16.38815">
        <time>2020-03-15T09:14:00Z</time>
      </trkpt>
      <trkpt lat="66.24792" lon="16.38059">
        <time>2020-03-15T09:44:00Z</time>
      </trkpt>
      <trkpt lat="66.26323" lon="16.39203">
        <time>2020-03-15T10:14:00Z</time>
      </trkpt>
      <trkpt lat="66.27534" lon="16.44282">
        <time>2020-03-15T10:44:00Z</time>
      </trkpt>
      <trkpt lat="66.28355" lon="16.49293">
        <time>2020-03-15T11:14:00Z</time>
      </trkpt>
      <trkpt lat="66.28391" lon="16.54803">
        <time>2020-03-15T11:44:00Z</time>
      </trkpt>
      <trkpt lat="66.28575" lon="16.55369">
        <time>2020-03-15T12:14:00Z</time>
      </trkpt>
      <trkpt lat="66.28587" lon="16.55367">
        <time>2020-03-15T12:44:00Z</time>
      </trkpt>
      <trkpt lat="66.28502" lon="16.55614">
        <time>2020-03-15T13:14:00Z</time>
      </trkpt>
      <trkpt lat="66.2856" lon="16.60614">
        <time>2020-03-15T13:44:00Z</time>
      </trkpt>
      <trkpt lat="66.27911" lon="16.65515">
        <time>2020-03-15T14:15:00Z</time>
      </trkpt>
      <trkpt lat="66.27829" lon="16.65444">
        <time>2020-03-15T14:45:00Z</time>
      </trkpt>
      <trkpt lat="66.27862" lon="16.65339">
        <time>2020-03-15T15:26:00Z</time>
      </trkpt>
      <trkpt lat="66.27842" lon="16.65482">
        <time>2020-03-16T06:16:00Z</time>
      </trkpt>
      <trkpt lat="66.28745" lon="16.66813">
        <time>2020-03-16T06:46:00Z</time>
      </trkpt>
      <trkpt lat="66.30345" lon="16.67971">
        <time>2020-03-16T07:16:00Z</time>
      </trkpt>
      <trkpt lat="66.31851" lon="16.70398">
        <time>2020-03-16T07:46:00Z</time>
      </trkpt>
      <trkpt lat="66.32594" lon="16.74975">
        <time>2020-03-16T08:16:00Z</time>
      </trkpt>
      <trkpt lat="66.33229" lon="16.77271">
        <time>2020-03-16T08:46:00Z</time>
      </trkpt>
      <trkpt lat="66.33812" lon="16.79166">
        <time>2020-03-16T09:16:00Z</time>
      </trkpt>
      <trkpt lat="66.34388" lon="16.80653">
        <time>2020-03-16T09:46:00Z</time>
      </trkpt>
      <trkpt lat="66.34976" lon="16.82758">
        <time>2020-03-16T10:16:00Z</time>
      </trkpt>
      <trkpt lat="66.34985" lon="16.82846">
        <time>2020-03-16T10:17:00Z</time>
      </trkpt>
      <trkpt lat="66.35184" lon="16.84397">
        <time>2020-03-16T10:46:00Z</time>
      </trkpt>
      <trkpt lat="66.35789" lon="16.88189">
        <time>2020-03-16T11:16:00Z</time>
      </trkpt>
      <trkpt lat="66.36857" lon="16.90721">
        <time>2020-03-16T11:46:00Z</time>
      </trkpt>
      <trkpt lat="66.38314" lon="16.95721">
        <time>2020-03-16T12:16:00Z</time>
      </trkpt>
      <trkpt lat="66.38751" lon="16.96579">
        <time>2020-03-16T12:46:00Z</time>
      </trkpt>
      <trkpt lat="66.38774" lon="16.96714">
        <time>2020-03-17T08:59:00Z</time>
      </trkpt>
      <trkpt lat="66.3903" lon="17.01896">
        <time>2020-03-17T09:29:00Z</time>
      </trkpt>
      <trkpt lat="66.3968" lon="17.07657">
        <time>2020-03-17T09:59:00Z</time>
      </trkpt>
      <trkpt lat="66.40322" lon="17.13033">
        <time>2020-03-17T10:29:00Z</time>
      </trkpt>
      <trkpt lat="66.40732" lon="17.16092">
        <time>2020-03-17T10:59:00Z</time>
      </trkpt>
      <trkpt lat="66.41151" lon="17.18811">
        <time>2020-03-17T11:29:00Z</time>
      </trkpt>
      <trkpt lat="66.42347" lon="17.18661">
        <time>2020-03-17T11:59:00Z</time>
      </trkpt>
      <trkpt lat="66.43218" lon="17.19635">
        <time>2020-03-17T12:29:00Z</time>
      </trkpt>
      <trkpt lat="66.44329" lon="17.24289">
        <time>2020-03-17T12:59:00Z</time>
      </trkpt>
      <trkpt lat="66.45906" lon="17.24343">
        <time>2020-03-17T13:29:00Z</time>
      </trkpt>
      <trkpt lat="66.47884" lon="17.23626">
        <time>2020-03-17T13:59:00Z</time>
      </trkpt>
      <trkpt lat="66.49131" lon="17.24302">
        <time>2020-03-17T14:29:00Z</time>
      </trkpt>
      <trkpt lat="66.49152" lon="17.24349">
        <time>2020-03-17T14:59:00Z</time>
      </trkpt>
      <trkpt lat="66.49177" lon="17.24171">
        <time>2020-03-18T06:26:00Z</time>
      </trkpt>
      <trkpt lat="66.50446" lon="17.23779">
        <time>2020-03-18T06:56:00Z</time>
      </trkpt>
      <trkpt lat="66.52183" lon="17.24122">
        <time>2020-03-18T07:26:00Z</time>
      </trkpt>
      <trkpt lat="66.53291" lon="17.24251">
        <time>2020-03-18T07:56:00Z</time>
      </trkpt>
      <trkpt lat="66.55244" lon="17.23105">
        <time>2020-03-18T08:26:00Z</time>
      </trkpt>
      <trkpt lat="66.56309" lon="17.24437">
        <time>2020-03-18T08:56:00Z</time>
      </trkpt>
      <trkpt lat="66.5626" lon="17.29109">
        <time>2020-03-18T09:26:00Z</time>
      </trkpt>
      <trkpt lat="66.55576" lon="17.33091">
        <time>2020-03-18T09:56:00Z</time>
      </trkpt>
      <trkpt lat="66.55463" lon="17.37383">
        <time>2020-03-18T10:26:00Z</time>
      </trkpt>
      <trkpt lat="66.56062" lon="17.39026">
        <time>2020-03-18T10:56:00Z</time>
      </trkpt>
      <trkpt lat="66.58031" lon="17.39762">
        <time>2020-03-18T11:26:00Z</time>
      </trkpt>
      <trkpt lat="66.60517" lon="17.38895">
        <time>2020-03-18T11:56:00Z</time>
      </trkpt>
      <trkpt lat="66.62269" lon="17.37546">
        <time>2020-03-18T12:26:00Z</time>
      </trkpt>
      <trkpt lat="66.64478" lon="17.3994">
        <time>2020-03-18T12:56:00Z</time>
      </trkpt>
      <trkpt lat="66.662" lon="17.41865">
        <time>2020-03-18T13:26:00Z</time>
      </trkpt>
      <trkpt lat="66.67647" lon="17.43541">
        <time>2020-03-18T13:56:00Z</time>
      </trkpt>
      <trkpt lat="66.69696" lon="17.40582">
        <time>2020-03-18T14:26:00Z</time>
      </trkpt>
      <trkpt lat="66.71167" lon="17.38915">
        <time>2020-03-18T14:58:00Z</time>
      </trkpt>
      <trkpt lat="66.71161" lon="17.38928">
        <time>2020-03-19T06:49:00Z</time>
      </trkpt>
      <trkpt lat="66.72756" lon="17.40726">
        <time>2020-03-19T07:19:00Z</time>
      </trkpt>
      <trkpt lat="66.74241" lon="17.40762">
        <time>2020-03-19T07:49:00Z</time>
      </trkpt>
      <trkpt lat="66.7503" lon="17.44464">
        <time>2020-03-19T08:19:00Z</time>
      </trkpt>
      <trkpt lat="66.7621" lon="17.48219">
        <time>2020-03-19T08:50:00Z</time>
      </trkpt>
      <trkpt lat="66.76966" lon="17.49785">
        <time>2020-03-19T09:20:00Z</time>
      </trkpt>
      <trkpt lat="66.77942" lon="17.54109">
        <time>2020-03-19T09:50:00Z</time>
      </trkpt>
      <trkpt lat="66.79073" lon="17.54083">
        <time>2020-03-19T10:20:00Z</time>
      </trkpt>
      <trkpt lat="66.79821" lon="17.53882">
        <time>2020-03-19T10:50:00Z</time>
      </trkpt>
      <trkpt lat="66.8048" lon="17.54098">
        <time>2020-03-19T11:20:00Z</time>
      </trkpt>
      <trkpt lat="66.81948" lon="17.56347">
        <time>2020-03-19T11:50:00Z</time>
      </trkpt>
      <trkpt lat="66.84296" lon="17.58806">
        <time>2020-03-19T12:20:00Z</time>
      </trkpt>
      <trkpt lat="66.84488" lon="17.58909">
        <time>2020-03-19T12:50:00Z</time>
      </trkpt>
      <trkpt lat="66.86108" lon="17.59761">
        <time>2020-03-19T13:20:00Z</time>
      </trkpt>
      <trkpt lat="66.87431" lon="17.62364">
        <time>2020-03-19T13:50:00Z</time>
      </trkpt>
      <trkpt lat="66.88341" lon="17.65344">
        <time>2020-03-19T14:20:00Z</time>
      </trkpt>
      <trkpt lat="66.89663" lon="17.66627">
        <time>2020-03-19T14:50:00Z</time>
      </trkpt>
      <trkpt lat="66.91269" lon="17.67052">
        <time>2020-03-19T15:20:00Z</time>
      </trkpt>
      <trkpt lat="66.92161" lon="17.68704">
        <time>2020-03-19T15:50:00Z</time>
      </trkpt>
      <trkpt lat="66.93516" lon="17.72633">
        <time>2020-03-19T16:20:00Z</time>
      </trkpt>
      <trkpt lat="66.95396" lon="17.71953">
        <time>2020-03-20T09:24:00Z</time>
      </trkpt>
      <trkpt lat="66.96385" lon="17.7344">
        <time>2020-03-20T09:54:00Z</time>
      </trkpt>
      <trkpt lat="66.97374" lon="17.75273">
        <time>2020-03-20T10:24:00Z</time>
      </trkpt>
      <trkpt lat="66.98542" lon="17.77996">
        <time>2020-03-20T10:54:00Z</time>
      </trkpt>
      <trkpt lat="67.00532" lon="17.78961">
        <time>2020-03-20T11:24:00Z</time>
      </trkpt>
      <trkpt lat="67.02249" lon="17.80946">
        <time>2020-03-20T11:54:00Z</time>
      </trkpt>
      <trkpt lat="67.02824" lon="17.86347">
        <time>2020-03-20T12:24:00Z</time>
      </trkpt>
      <trkpt lat="67.02981" lon="17.911">
        <time>2020-03-20T12:54:00Z</time>
      </trkpt>
      <trkpt lat="67.04231" lon="17.94323">
        <time>2020-03-20T13:24:00Z</time>
      </trkpt>
      <trkpt lat="67.04232" lon="17.94308">
        <time>2020-03-21T07:27:00Z</time>
      </trkpt>
      <trkpt lat="67.0433" lon="17.97387">
        <time>2020-03-21T07:57:00Z</time>
      </trkpt>
      <trkpt lat="67.04546" lon="18.02839">
        <time>2020-03-21T08:27:00Z</time>
      </trkpt>
      <trkpt lat="67.04953" lon="18.07532">
        <time>2020-03-21T08:57:00Z</time>
      </trkpt>
      <trkpt lat="67.0553" lon="18.12334">
        <time>2020-03-21T09:27:00Z</time>
      </trkpt>
      <trkpt lat="67.05745" lon="18.18162">
        <time>2020-03-21T09:57:00Z</time>
      </trkpt>
      <trkpt lat="67.06182" lon="18.21488">
        <time>2020-03-21T10:27:00Z</time>
      </trkpt>
      <trkpt lat="67.06876" lon="18.2631">
        <time>2020-03-21T10:57:00Z</time>
      </trkpt>
      <trkpt lat="67.08279" lon="18.28267">
        <time>2020-03-21T11:27:00Z</time>
      </trkpt>
      <trkpt lat="67.0882" lon="18.27812">
        <time>2020-03-21T11:57:00Z</time>
      </trkpt>
      <trkpt lat="67.09343" lon="18.27333">
        <time>2020-03-21T12:27:00Z</time>
      </trkpt>
      <trkpt lat="67.10547" lon="18.27348">
        <time>2020-03-21T12:57:00Z</time>
      </trkpt>
      <trkpt lat="67.12396" lon="18.29586">
        <time>2020-03-21T13:27:00Z</time>
      </trkpt>
      <trkpt lat="67.1327" lon="18.30691">
        <time>2020-03-21T13:57:00Z</time>
      </trkpt>
      <trkpt lat="67.14781" lon="18.30494">
        <time>2020-03-21T14:27:00Z</time>
      </trkpt>
      <trkpt lat="67.14872" lon="18.30597">
        <time>2020-03-21T14:58:00Z</time>
      </trkpt>
      <trkpt lat="67.14859" lon="18.3058">
        <time>2020-03-22T05:23:00Z</time>
      </trkpt>
      <trkpt lat="67.14837" lon="18.32342">
        <time>2020-03-22T05:53:00Z</time>
      </trkpt>
      <trkpt lat="67.15216" lon="18.33226">
        <time>2020-03-22T06:23:00Z</time>
      </trkpt>
      <trkpt lat="67.16183" lon="18.34436">
        <time>2020-03-22T06:53:00Z</time>
      </trkpt>
      <trkpt lat="67.16717" lon="18.38214">
        <time>2020-03-22T07:23:00Z</time>
      </trkpt>
      <trkpt lat="67.18462" lon="18.42907">
        <time>2020-03-22T07:53:00Z</time>
      </trkpt>
      <trkpt lat="67.20305" lon="18.4315">
        <time>2020-03-22T08:23:00Z</time>
      </trkpt>
      <trkpt lat="67.22646" lon="18.43075">
        <time>2020-03-22T08:53:00Z</time>
      </trkpt>
      <trkpt lat="67.23218" lon="18.44085">
        <time>2020-03-22T09:23:00Z</time>
      </trkpt>
      <trkpt lat="67.23187" lon="18.44143">
        <time>2020-03-23T06:07:00Z</time>
      </trkpt>
      <trkpt lat="67.24683" lon="18.46441">
        <time>2020-03-23T06:37:00Z</time>
      </trkpt>
      <trkpt lat="67.26942" lon="18.46652">
        <time>2020-03-23T07:07:00Z</time>
      </trkpt>
      <trkpt lat="67.2916" lon="18.47705">
        <time>2020-03-23T07:37:00Z</time>
      </trkpt>
      <trkpt lat="67.31786" lon="18.4954">
        <time>2020-03-23T08:07:00Z</time>
      </trkpt>
      <trkpt lat="67.34059" lon="18.50261">
        <time>2020-03-23T08:37:00Z</time>
      </trkpt>
      <trkpt lat="67.36348" lon="18.51143">
        <time>2020-03-23T09:07:00Z</time>
      </trkpt>
      <trkpt lat="67.39145" lon="18.52095">
        <time>2020-03-23T09:37:00Z</time>
      </trkpt>
      <trkpt lat="67.3941" lon="18.52061">
        <time>2020-03-23T10:07:00Z</time>
      </trkpt>
      <trkpt lat="67.39413" lon="18.52061">
        <time>2020-03-23T10:37:00Z</time>
      </trkpt>
      <trkpt lat="67.39559" lon="18.51611">
        <time>2020-03-23T12:22:00Z</time>
      </trkpt>
      <trkpt lat="67.4129" lon="18.46596">
        <time>2020-03-23T12:52:00Z</time>
      </trkpt>
      <trkpt lat="67.43171" lon="18.42536">
        <time>2020-03-23T13:22:00Z</time>
      </trkpt>
      <trkpt lat="67.45234" lon="18.38614">
        <time>2020-03-23T13:52:00Z</time>
      </trkpt>
      <trkpt lat="67.47005" lon="18.36552">
        <time>2020-03-23T14:22:00Z</time>
      </trkpt>
      <trkpt lat="67.48199" lon="18.35633">
        <time>2020-03-23T14:52:00Z</time>
      </trkpt>
      <trkpt lat="67.48218" lon="18.35667">
        <time>2020-03-24T07:39:00Z</time>
      </trkpt>
      <trkpt lat="67.49286" lon="18.36963">
        <time>2020-03-24T08:09:00Z</time>
      </trkpt>
      <trkpt lat="67.50718" lon="18.42738">
        <time>2020-03-24T08:39:00Z</time>
      </trkpt>
      <trkpt lat="67.51902" lon="18.45956">
        <time>2020-03-24T09:09:00Z</time>
      </trkpt>
      <trkpt lat="67.53311" lon="18.48664">
        <time>2020-03-24T09:39:00Z</time>
      </trkpt>
      <trkpt lat="67.53544" lon="18.48737">
        <time>2020-03-24T10:09:00Z</time>
      </trkpt>
      <trkpt lat="67.51945" lon="18.4595">
        <time>2020-03-24T10:39:00Z</time>
      </trkpt>
      <trkpt lat="67.50731" lon="18.44218">
        <time>2020-03-24T11:09:00Z</time>
      </trkpt>
      <trkpt lat="67.49834" lon="18.38481">
        <time>2020-03-24T11:39:00Z</time>
      </trkpt>
      <trkpt lat="67.48238" lon="18.3562">
        <time>2020-03-25T05:56:00Z</time>
      </trkpt>
      <trkpt lat="67.49745" lon="18.38144">
        <time>2020-03-25T06:26:00Z</time>
      </trkpt>
      <trkpt lat="67.5069" lon="18.4327">
        <time>2020-03-25T06:56:00Z</time>
      </trkpt>
      <trkpt lat="67.52094" lon="18.45991">
        <time>2020-03-25T07:26:00Z</time>
      </trkpt>
      <trkpt lat="67.53467" lon="18.48729">
        <time>2020-03-25T07:56:00Z</time>
      </trkpt>
      <trkpt lat="67.55115" lon="18.45898">
        <time>2020-03-25T08:27:00Z</time>
      </trkpt>
      <trkpt lat="67.5675" lon="18.42227">
        <time>2020-03-25T08:57:00Z</time>
      </trkpt>
      <trkpt lat="67.58268" lon="18.38343">
        <time>2020-03-25T09:27:00Z</time>
      </trkpt>
      <trkpt lat="67.60039" lon="18.37993">
        <time>2020-03-25T09:57:00Z</time>
      </trkpt>
      <trkpt lat="67.61389" lon="18.36438">
        <time>2020-03-25T10:27:00Z</time>
      </trkpt>
      <trkpt lat="67.6257" lon="18.35146">
        <time>2020-03-25T10:57:00Z</time>
      </trkpt>
      <trkpt lat="67.63401" lon="18.32715">
        <time>2020-03-25T11:27:00Z</time>
      </trkpt>
      <trkpt lat="67.64714" lon="18.30179">
        <time>2020-03-25T11:57:00Z</time>
      </trkpt>
      <trkpt lat="67.65824" lon="18.26275">
        <time>2020-03-25T12:27:00Z</time>
      </trkpt>
      <trkpt lat="67.66683" lon="18.22533">
        <time>2020-03-25T12:57:00Z</time>
      </trkpt>
      <trkpt lat="67.68144" lon="18.18707">
        <time>2020-03-25T13:27:00Z</time>
      </trkpt>
      <trkpt lat="67.6946" lon="18.15665">
        <time>2020-03-25T13:57:00Z</time>
      </trkpt>
      <trkpt lat="67.6947" lon="18.15542">
        <time>2020-03-25T14:27:00Z</time>
      </trkpt>
      <trkpt lat="67.69466" lon="18.15542">
        <time>2020-03-26T07:43:00Z</time>
      </trkpt>
      <trkpt lat="67.70731" lon="18.11272">
        <time>2020-03-26T08:13:00Z</time>
      </trkpt>
      <trkpt lat="67.70761" lon="18.12603">
        <time>2020-03-26T08:43:00Z</time>
      </trkpt>
      <trkpt lat="67.70609" lon="18.14499">
        <time>2020-03-26T09:13:00Z</time>
      </trkpt>
      <trkpt lat="67.70476" lon="18.18396">
        <time>2020-03-26T09:43:00Z</time>
      </trkpt>
      <trkpt lat="67.72591" lon="18.22853">
        <time>2020-03-26T10:13:00Z</time>
      </trkpt>
      <trkpt lat="67.74222" lon="18.28883">
        <time>2020-03-26T10:43:00Z</time>
      </trkpt>
      <trkpt lat="67.7466" lon="18.29503">
        <time>2020-03-26T11:13:00Z</time>
      </trkpt>
      <trkpt lat="67.74979" lon="18.30052">
        <time>2020-03-26T11:43:00Z</time>
      </trkpt>
      <trkpt lat="67.76221" lon="18.28567">
        <time>2020-03-26T12:13:00Z</time>
      </trkpt>
      <trkpt lat="67.78176" lon="18.28814">
        <time>2020-03-26T12:43:00Z</time>
      </trkpt>
      <trkpt lat="67.80187" lon="18.29638">
        <time>2020-03-26T13:13:00Z</time>
      </trkpt>
      <trkpt lat="67.825" lon="18.30923">
        <time>2020-03-26T13:43:00Z</time>
      </trkpt>
      <trkpt lat="67.84227" lon="18.31696">
        <time>2020-03-26T14:13:00Z</time>
      </trkpt>
      <trkpt lat="67.85121" lon="18.31535">
        <time>2020-03-26T14:43:00Z</time>
      </trkpt>
      <trkpt lat="67.85123" lon="18.31567">
        <time>2020-03-27T09:07:00Z</time>
      </trkpt>
      <trkpt lat="67.86732" lon="18.30857">
        <time>2020-03-27T09:37:00Z</time>
      </trkpt>
      <trkpt lat="67.88421" lon="18.32314">
        <time>2020-03-27T10:07:00Z</time>
      </trkpt>
      <trkpt lat="67.89397" lon="18.32157">
        <time>2020-03-27T10:37:00Z</time>
      </trkpt>
      <trkpt lat="67.91136" lon="18.30985">
        <time>2020-03-27T11:07:00Z</time>
      </trkpt>
      <trkpt lat="67.93026" lon="18.2964">
        <time>2020-03-27T11:37:00Z</time>
      </trkpt>
      <trkpt lat="67.9461" lon="18.28235">
        <time>2020-03-27T12:07:00Z</time>
      </trkpt>
      <trkpt lat="67.94619" lon="18.28232">
        <time>2020-03-27T12:37:00Z</time>
      </trkpt>
      <trkpt lat="67.94634" lon="18.28204">
        <time>2020-03-29T06:15:00Z</time>
      </trkpt>
      <trkpt lat="67.9586" lon="18.27634">
        <time>2020-03-29T06:45:00Z</time>
      </trkpt>
      <trkpt lat="67.9762" lon="18.26464">
        <time>2020-03-29T07:15:00Z</time>
      </trkpt>
      <trkpt lat="67.98954" lon="18.26005">
        <time>2020-03-29T07:45:00Z</time>
      </trkpt>
      <trkpt lat="68.00253" lon="18.2473">
        <time>2020-03-29T08:15:00Z</time>
      </trkpt>
      <trkpt lat="68.01286" lon="18.24022">
        <time>2020-03-29T08:45:00Z</time>
      </trkpt>
      <trkpt lat="68.01857" lon="18.24469">
        <time>2020-03-29T09:15:00Z</time>
      </trkpt>
      <trkpt lat="68.01963" lon="18.24724">
        <time>2020-03-29T09:45:00Z</time>
      </trkpt>
      <trkpt lat="68.03232" lon="18.24773">
        <time>2020-03-29T10:15:00Z</time>
      </trkpt>
      <trkpt lat="68.04652" lon="18.24512">
        <time>2020-03-29T10:45:00Z</time>
      </trkpt>
      <trkpt lat="68.0687" lon="18.26456">
        <time>2020-03-29T11:15:00Z</time>
      </trkpt>
      <trkpt lat="68.08164" lon="18.27936">
        <time>2020-03-29T11:45:00Z</time>
      </trkpt>
      <trkpt lat="68.09561" lon="18.30127">
        <time>2020-03-29T12:15:00Z</time>
      </trkpt>
      <trkpt lat="68.10678" lon="18.33245">
        <time>2020-03-29T12:45:00Z</time>
      </trkpt>
      <trkpt lat="68.11434" lon="18.36605">
        <time>2020-03-29T13:15:00Z</time>
      </trkpt>
      <trkpt lat="68.12699" lon="18.4044">
        <time>2020-03-29T13:45:00Z</time>
      </trkpt>
      <trkpt lat="68.13689" lon="18.41317">
        <time>2020-03-29T14:15:00Z</time>
      </trkpt>
      <trkpt lat="68.1365" lon="18.41437">
        <time>2020-03-29T14:45:00Z</time>
      </trkpt>
      <trkpt lat="68.13656" lon="18.41446">
        <time>2020-03-30T06:35:00Z</time>
      </trkpt>
      <trkpt lat="68.15175" lon="18.41942">
        <time>2020-03-30T07:05:00Z</time>
      </trkpt>
      <trkpt lat="68.16349" lon="18.4377">
        <time>2020-03-30T07:35:00Z</time>
      </trkpt>
      <trkpt lat="68.17471" lon="18.45549">
        <time>2020-03-30T08:05:00Z</time>
      </trkpt>
      <trkpt lat="68.18467" lon="18.47637">
        <time>2020-03-30T08:35:00Z</time>
      </trkpt>
      <trkpt lat="68.19393" lon="18.504">
        <time>2020-03-30T09:05:00Z</time>
      </trkpt>
      <trkpt lat="68.19769" lon="18.51606">
        <time>2020-03-30T09:35:00Z</time>
      </trkpt>
      <trkpt lat="68.20607" lon="18.54276">
        <time>2020-03-30T10:05:00Z</time>
      </trkpt>
      <trkpt lat="68.21622" lon="18.56269">
        <time>2020-03-30T10:35:00Z</time>
      </trkpt>
      <trkpt lat="68.2275" lon="18.58271">
        <time>2020-03-30T11:05:00Z</time>
      </trkpt>
      <trkpt lat="68.24137" lon="18.6041">
        <time>2020-03-30T11:35:00Z</time>
      </trkpt>
      <trkpt lat="68.25599" lon="18.59061">
        <time>2020-03-30T12:05:00Z</time>
      </trkpt>
      <trkpt lat="68.27822" lon="18.57172">
        <time>2020-03-30T12:35:00Z</time>
      </trkpt>
      <trkpt lat="68.28601" lon="18.59209">
        <time>2020-03-30T13:05:00Z</time>
      </trkpt>
      <trkpt lat="68.29454" lon="18.62644">
        <time>2020-03-30T13:35:00Z</time>
      </trkpt>
      <trkpt lat="68.30779" lon="18.66912">
        <time>2020-03-30T14:05:00Z</time>
      </trkpt>
      <trkpt lat="68.315" lon="18.72573">
        <time>2020-03-30T14:35:00Z</time>
      </trkpt>
      <trkpt lat="68.32594" lon="18.761">
        <time>2020-03-30T15:05:00Z</time>
      </trkpt>
      <trkpt lat="68.33947" lon="18.76559">
        <time>2020-03-30T15:35:00Z</time>
      </trkpt>
      <trkpt lat="68.35687" lon="18.77583">
        <time>2020-03-30T16:05:00Z</time>
      </trkpt>
      <trkpt lat="68.35878" lon="18.78476">
        <time>2020-04-01T06:13:00Z</time>
      </trkpt>
      <trkpt lat="68.35878" lon="18.78476">
        <time>2020-04-01T06:13:00Z</time>
      </trkpt>
      <trkpt lat="68.36677" lon="18.81793">
        <time>2020-04-01T06:43:00Z</time>
      </trkpt>
      <trkpt lat="68.3708" lon="18.87082">
        <time>2020-04-01T07:13:00Z</time>
      </trkpt>
      <trkpt lat="68.37052" lon="18.92932">
        <time>2020-04-01T07:43:00Z</time>
      </trkpt>
      <trkpt lat="68.36973" lon="18.98656">
        <time>2020-04-01T08:13:00Z</time>
      </trkpt>
      <trkpt lat="68.36971" lon="19.03877">
        <time>2020-04-01T08:43:00Z</time>
      </trkpt>
      <trkpt lat="68.36778" lon="19.09638">
        <time>2020-04-01T09:13:00Z</time>
      </trkpt>
      <trkpt lat="68.36146" lon="19.14602">
        <time>2020-04-01T09:43:00Z</time>
      </trkpt>
      <trkpt lat="68.35398" lon="19.20391">
        <time>2020-04-01T10:13:00Z</time>
      </trkpt>
      <trkpt lat="68.34671" lon="19.24657">
        <time>2020-04-01T10:43:00Z</time>
      </trkpt>
      <trkpt lat="68.34268" lon="19.29729">
        <time>2020-04-01T11:13:00Z</time>
      </trkpt>
      <trkpt lat="68.33744" lon="19.34733">
        <time>2020-04-01T11:43:00Z</time>
      </trkpt>
      <trkpt lat="68.33041" lon="19.39641">
        <time>2020-04-01T12:13:00Z</time>
      </trkpt>
      <trkpt lat="68.32286" lon="19.44649">
        <time>2020-04-01T12:43:00Z</time>
      </trkpt>
      <trkpt lat="68.31571" lon="19.48683">
        <time>2020-04-01T13:13:00Z</time>
      </trkpt>
      <trkpt lat="68.30506" lon="19.53642">
        <time>2020-04-01T13:43:00Z</time>
      </trkpt>
      <trkpt lat="68.30126" lon="19.5856">
        <time>2020-04-01T14:13:00Z</time>
      </trkpt>
      <trkpt lat="68.30446" lon="19.64044">
        <time>2020-04-01T14:43:00Z</time>
      </trkpt>
      <trkpt lat="68.30605" lon="19.68737">
        <time>2020-04-01T15:13:00Z</time>
      </trkpt>
      <trkpt lat="68.30553" lon="19.74014">
        <time>2020-04-01T15:43:00Z</time>
      </trkpt>
      <trkpt lat="68.31202" lon="19.78657">
        <time>2020-04-01T16:13:00Z</time>
      </trkpt>
      <trkpt lat="68.32024" lon="19.82148">
        <time>2020-04-01T16:43:00Z</time>
      </trkpt>
      <trkpt lat="68.32022" lon="19.82142">
        <time>2020-04-01T17:13:00Z</time>
      </trkpt>
      <trkpt lat="68.32033" lon="19.82144">
        <time>2020-04-02T06:05:00Z</time>
      </trkpt>
      <trkpt lat="68.31199" lon="19.85882">
        <time>2020-04-02T06:35:00Z</time>
      </trkpt>
      <trkpt lat="68.29546" lon="19.89094">
        <time>2020-04-02T07:05:00Z</time>
      </trkpt>
      <trkpt lat="68.30043" lon="19.91519">
        <time>2020-04-02T07:35:00Z</time>
      </trkpt>
      <trkpt lat="68.31786" lon="19.93787">
        <time>2020-04-02T08:05:00Z</time>
      </trkpt>
      <trkpt lat="68.32797" lon="19.95184">
        <time>2020-04-02T08:35:00Z</time>
      </trkpt>
      <trkpt lat="68.3413" lon="19.96319">
        <time>2020-04-02T09:05:00Z</time>
      </trkpt>
      <trkpt lat="68.35098" lon="19.97954">
        <time>2020-04-02T09:35:00Z</time>
      </trkpt>
      <trkpt lat="68.36093" lon="20.02286">
        <time>2020-04-02T10:05:00Z</time>
      </trkpt>
      <trkpt lat="68.3725" lon="20.06129">
        <time>2020-04-02T10:35:00Z</time>
      </trkpt>
      <trkpt lat="68.37712" lon="20.07719">
        <time>2020-04-02T11:05:00Z</time>
      </trkpt>
      <trkpt lat="68.39478" lon="20.06101">
        <time>2020-04-02T11:35:00Z</time>
      </trkpt>
      <trkpt lat="68.40723" lon="20.07546">
        <time>2020-04-02T12:05:00Z</time>
      </trkpt>
      <trkpt lat="68.41668" lon="20.09312">
        <time>2020-04-02T12:35:00Z</time>
      </trkpt>
      <trkpt lat="68.42234" lon="20.13378">
        <time>2020-04-02T13:05:00Z</time>
      </trkpt>
      <trkpt lat="68.42762" lon="20.16011">
        <time>2020-04-02T13:35:00Z</time>
      </trkpt>
      <trkpt lat="68.44447" lon="20.19334">
        <time>2020-04-02T14:05:00Z</time>
      </trkpt>
      <trkpt lat="68.4604" lon="20.21236">
        <time>2020-04-02T14:35:00Z</time>
      </trkpt>
      <trkpt lat="68.47474" lon="20.22929">
        <time>2020-04-02T15:05:00Z</time>
      </trkpt>
      <trkpt lat="68.47553" lon="20.2298">
        <time>2020-04-02T15:26:00Z</time>
      </trkpt>
      <trkpt lat="68.47564" lon="20.22995">
        <time>2020-04-03T05:00:00Z</time>
      </trkpt>
      <trkpt lat="68.48067" lon="20.23845">
        <time>2020-04-03T05:30:00Z</time>
      </trkpt>
      <trkpt lat="68.49007" lon="20.26231">
        <time>2020-04-03T06:00:00Z</time>
      </trkpt>
      <trkpt lat="68.49891" lon="20.28357">
        <time>2020-04-03T06:30:00Z</time>
      </trkpt>
      <trkpt lat="68.5089" lon="20.29263">
        <time>2020-04-03T07:00:00Z</time>
      </trkpt>
      <trkpt lat="68.52021" lon="20.2946">
        <time>2020-04-03T07:30:00Z</time>
      </trkpt>
      <trkpt lat="68.5308" lon="20.29327">
        <time>2020-04-03T08:00:00Z</time>
      </trkpt>
      <trkpt lat="68.53952" lon="20.29304">
        <time>2020-04-03T08:30:00Z</time>
      </trkpt>
      <trkpt lat="68.54945" lon="20.3049">
        <time>2020-04-03T09:00:00Z</time>
      </trkpt>
      <trkpt lat="68.55659" lon="20.32282">
        <time>2020-04-03T09:30:00Z</time>
      </trkpt>
      <trkpt lat="68.56374" lon="20.3393">
        <time>2020-04-03T10:00:00Z</time>
      </trkpt>
      <trkpt lat="68.57383" lon="20.36024">
        <time>2020-04-03T10:30:00Z</time>
      </trkpt>
      <trkpt lat="68.58156" lon="20.38893">
        <time>2020-04-03T11:00:00Z</time>
      </trkpt>
      <trkpt lat="68.59237" lon="20.40962">
        <time>2020-04-03T11:30:00Z</time>
      </trkpt>
      <trkpt lat="68.60167" lon="20.41949">
        <time>2020-04-03T12:00:00Z</time>
      </trkpt>
      <trkpt lat="68.60535" lon="20.41389">
        <time>2020-04-03T12:30:00Z</time>
      </trkpt>
      <trkpt lat="68.60532" lon="20.41395">
        <time>2020-04-03T13:00:00Z</time>
      </trkpt>
      <trkpt lat="68.60537" lon="20.41391">
        <time>2020-04-03T13:13:00Z</time>
      </trkpt>
      <trkpt lat="68.77917" lon="20.68865">
        <time>2020-04-04T18:38:00Z</time>
      </trkpt>
      <trkpt lat="68.77916" lon="20.68934">
        <time>2020-04-04T18:40:00Z</time>
      </trkpt>
      <trkpt lat="68.97326" lon="20.36844">
        <time>2020-04-05T15:50:00Z</time>
      </trkpt>
      <trkpt lat="68.97337" lon="20.36814">
        <time>2020-04-05T15:51:00Z</time>
      </trkpt>
      <trkpt lat="68.97328" lon="20.36835">
        <time>2020-04-06T04:12:00Z</time>
      </trkpt>
      <trkpt lat="68.98085" lon="20.39018">
        <time>2020-04-06T04:42:00Z</time>
      </trkpt>
      <trkpt lat="68.9823" lon="20.41687">
        <time>2020-04-06T05:12:00Z</time>
      </trkpt>
      <trkpt lat="68.99052" lon="20.44421">
        <time>2020-04-06T05:42:00Z</time>
      </trkpt>
      <trkpt lat="69.00119" lon="20.47017">
        <time>2020-04-06T06:12:00Z</time>
      </trkpt>
      <trkpt lat="69.01057" lon="20.4898">
        <time>2020-04-06T06:42:00Z</time>
      </trkpt>
      <trkpt lat="69.02994" lon="20.51817">
        <time>2020-04-06T07:13:00Z</time>
      </trkpt>
      <trkpt lat="69.05134" lon="20.52656">
        <time>2020-04-06T07:43:00Z</time>
      </trkpt>
      <trkpt lat="69.05995" lon="20.54883">
        <time>2020-04-06T08:13:00Z</time>
      </trkpt>
      <trkpt lat="69.05188" lon="20.57954">
        <time>2020-04-06T08:43:00Z</time>
      </trkpt>
      <trkpt lat="69.04516" lon="20.62765">
        <time>2020-04-06T09:13:00Z</time>
      </trkpt>
      <trkpt lat="69.04524" lon="20.6799">
        <time>2020-04-06T09:43:00Z</time>
      </trkpt>
      <trkpt lat="69.04488" lon="20.72837">
        <time>2020-04-06T10:13:00Z</time>
      </trkpt>
      <trkpt lat="69.04621" lon="20.78403">
        <time>2020-04-06T10:43:00Z</time>
      </trkpt>
      <trkpt lat="69.04692" lon="20.8006">
        <time>2020-04-06T11:13:00Z</time>
      </trkpt>
      <trkpt lat="69.0469" lon="20.80064">
        <time>2020-04-06T11:43:00Z</time>
      </trkpt>
    </trkseg>
  </trk>
</gpx>
