<?xml version="1.0" encoding="UTF-8"?>
<gpx xmlns="http://www.topografix.com/GPX/1/1" version="1.1" creator="VitaBandet">
  <metadata>
    <name>Ola Häggström's Band</name>
  </metadata>
  <trk>
    <name>Ola Häggström's Band</name>
    <trkseg>
      <trkpt lat="61.87539" lon="12.75371">
        <time>2023-02-02T11:56:00Z</time>
      </trkpt>
      <trkpt lat="61.87539" lon="12.75371">
        <time>2023-02-02T11:56:00Z</time>
      </trkpt>
      <trkpt lat="61.91669" lon="12.71702">
        <time>2023-02-02T13:56:00Z</time>
      </trkpt>
      <trkpt lat="61.91669" lon="12.71702">
        <time>2023-02-02T13:56:00Z</time>
      </trkpt>
      <trkpt lat="61.927" lon="12.69884">
        <time>2023-02-02T15:56:00Z</time>
      </trkpt>
      <trkpt lat="61.927" lon="12.69884">
        <time>2023-02-02T15:56:00Z</time>
      </trkpt>
      <trkpt lat="61.92702" lon="12.6988">
        <time>2023-02-02T17:56:00Z</time>
      </trkpt>
      <trkpt lat="61.92702" lon="12.6988">
        <time>2023-02-02T17:56:00Z</time>
      </trkpt>
      <trkpt lat="61.92702" lon="12.69895">
        <time>2023-02-02T21:56:00Z</time>
      </trkpt>
      <trkpt lat="61.92702" lon="12.69895">
        <time>2023-02-02T21:56:00Z</time>
      </trkpt>
      <trkpt lat="61.92705" lon="12.69891">
        <time>2023-02-03T01:56:00Z</time>
      </trkpt>
      <trkpt lat="61.92705" lon="12.69891">
        <time>2023-02-03T01:56:00Z</time>
      </trkpt>
      <trkpt lat="61.92705" lon="12.69887">
        <time>2023-02-03T05:56:00Z</time>
      </trkpt>
      <trkpt lat="61.92705" lon="12.69887">
        <time>2023-02-03T05:56:00Z</time>
      </trkpt>
      <trkpt lat="61.92706" lon="12.6988">
        <time>2023-02-03T09:56:00Z</time>
      </trkpt>
      <trkpt lat="61.92706" lon="12.6988">
        <time>2023-02-03T09:56:00Z</time>
      </trkpt>
      <trkpt lat="61.93151" lon="12.65812">
        <time>2023-02-03T11:56:00Z</time>
      </trkpt>
      <trkpt lat="61.93151" lon="12.65812">
        <time>2023-02-03T11:56:00Z</time>
      </trkpt>
      <trkpt lat="61.95715" lon="12.6485">
        <time>2023-02-03T13:56:00Z</time>
      </trkpt>
      <trkpt lat="61.95715" lon="12.6485">
        <time>2023-02-03T13:56:00Z</time>
      </trkpt>
      <trkpt lat="61.99083" lon="12.64526">
        <time>2023-02-03T15:55:00Z</time>
      </trkpt>
      <trkpt lat="61.99083" lon="12.64526">
        <time>2023-02-03T15:55:00Z</time>
      </trkpt>
      <trkpt lat="61.99081" lon="12.6452">
        <time>2023-02-03T15:56:00Z</time>
      </trkpt>
      <trkpt lat="61.99081" lon="12.6452">
        <time>2023-02-03T15:56:00Z</time>
      </trkpt>
      <trkpt lat="61.99079" lon="12.64516">
        <time>2023-02-03T15:58:00Z</time>
      </trkpt>
      <trkpt lat="61.99079" lon="12.64516">
        <time>2023-02-03T15:58:00Z</time>
      </trkpt>
      <trkpt lat="61.99078" lon="12.64511">
        <time>2023-02-04T07:35:00Z</time>
      </trkpt>
      <trkpt lat="61.99078" lon="12.64511">
        <time>2023-02-04T07:35:00Z</time>
      </trkpt>
      <trkpt lat="61.99078" lon="12.64524">
        <time>2023-02-04T09:35:00Z</time>
      </trkpt>
      <trkpt lat="61.99078" lon="12.64524">
        <time>2023-02-04T09:35:00Z</time>
      </trkpt>
      <trkpt lat="62.01326" lon="12.58909">
        <time>2023-02-04T11:35:00Z</time>
      </trkpt>
      <trkpt lat="62.01326" lon="12.58909">
        <time>2023-02-04T11:35:00Z</time>
      </trkpt>
      <trkpt lat="62.02373" lon="12.53759">
        <time>2023-02-04T13:35:00Z</time>
      </trkpt>
      <trkpt lat="62.02373" lon="12.53759">
        <time>2023-02-04T13:35:00Z</time>
      </trkpt>
      <trkpt lat="62.03738" lon="12.44773">
        <time>2023-02-04T15:35:00Z</time>
      </trkpt>
      <trkpt lat="62.03738" lon="12.44773">
        <time>2023-02-04T15:35:00Z</time>
      </trkpt>
      <trkpt lat="62.03911" lon="12.4385">
        <time>2023-02-04T16:07:00Z</time>
      </trkpt>
      <trkpt lat="62.03911" lon="12.4385">
        <time>2023-02-04T16:07:00Z</time>
      </trkpt>
      <trkpt lat="62.03913" lon="12.43861">
        <time>2023-02-04T16:07:00Z</time>
      </trkpt>
      <trkpt lat="62.03913" lon="12.43861">
        <time>2023-02-04T16:07:00Z</time>
      </trkpt>
      <trkpt lat="62.03911" lon="12.43897">
        <time>2023-02-05T08:34:00Z</time>
      </trkpt>
      <trkpt lat="62.03911" lon="12.43897">
        <time>2023-02-05T08:34:00Z</time>
      </trkpt>
      <trkpt lat="62.03904" lon="12.43897">
        <time>2023-02-05T08:35:00Z</time>
      </trkpt>
      <trkpt lat="62.03904" lon="12.43897">
        <time>2023-02-05T08:35:00Z</time>
      </trkpt>
      <trkpt lat="62.06971" lon="12.42462">
        <time>2023-02-05T10:34:00Z</time>
      </trkpt>
      <trkpt lat="62.06971" lon="12.42462">
        <time>2023-02-05T10:34:00Z</time>
      </trkpt>
      <trkpt lat="62.09777" lon="12.36943">
        <time>2023-02-05T12:34:00Z</time>
      </trkpt>
      <trkpt lat="62.09777" lon="12.36943">
        <time>2023-02-05T12:34:00Z</time>
      </trkpt>
      <trkpt lat="62.0988" lon="12.31308">
        <time>2023-02-05T13:39:00Z</time>
      </trkpt>
      <trkpt lat="62.0988" lon="12.31308">
        <time>2023-02-05T13:39:00Z</time>
      </trkpt>
      <trkpt lat="62.10731" lon="12.29825">
        <time>2023-02-05T14:35:00Z</time>
      </trkpt>
      <trkpt lat="62.10731" lon="12.29825">
        <time>2023-02-05T14:35:00Z</time>
      </trkpt>
      <trkpt lat="62.10759" lon="12.29883">
        <time>2023-02-05T14:39:00Z</time>
      </trkpt>
      <trkpt lat="62.10759" lon="12.29883">
        <time>2023-02-05T14:39:00Z</time>
      </trkpt>
      <trkpt lat="62.09895" lon="12.31312">
        <time>2023-02-06T08:03:00Z</time>
      </trkpt>
      <trkpt lat="62.09895" lon="12.31312">
        <time>2023-02-06T08:03:00Z</time>
      </trkpt>
      <trkpt lat="62.09884" lon="12.31304">
        <time>2023-02-06T08:05:00Z</time>
      </trkpt>
      <trkpt lat="62.09884" lon="12.31304">
        <time>2023-02-06T08:05:00Z</time>
      </trkpt>
      <trkpt lat="62.09483" lon="12.32625">
        <time>2023-02-06T10:05:00Z</time>
      </trkpt>
      <trkpt lat="62.09483" lon="12.32625">
        <time>2023-02-06T10:05:00Z</time>
      </trkpt>
      <trkpt lat="62.14986" lon="12.37013">
        <time>2023-02-06T12:05:00Z</time>
      </trkpt>
      <trkpt lat="62.14986" lon="12.37013">
        <time>2023-02-06T12:05:00Z</time>
      </trkpt>
      <trkpt lat="62.1835" lon="12.39024">
        <time>2023-02-06T14:05:00Z</time>
      </trkpt>
      <trkpt lat="62.1835" lon="12.39024">
        <time>2023-02-06T14:05:00Z</time>
      </trkpt>
      <trkpt lat="62.21678" lon="12.35835">
        <time>2023-02-06T16:05:00Z</time>
      </trkpt>
      <trkpt lat="62.21678" lon="12.35835">
        <time>2023-02-06T16:05:00Z</time>
      </trkpt>
      <trkpt lat="62.21708" lon="12.35784">
        <time>2023-02-06T17:14:00Z</time>
      </trkpt>
      <trkpt lat="62.21708" lon="12.35784">
        <time>2023-02-06T17:14:00Z</time>
      </trkpt>
      <trkpt lat="62.21724" lon="12.35818">
        <time>2023-02-07T08:19:00Z</time>
      </trkpt>
      <trkpt lat="62.21724" lon="12.35818">
        <time>2023-02-07T08:19:00Z</time>
      </trkpt>
      <trkpt lat="62.21612" lon="12.35861">
        <time>2023-02-07T08:40:00Z</time>
      </trkpt>
      <trkpt lat="62.21612" lon="12.35861">
        <time>2023-02-07T08:40:00Z</time>
      </trkpt>
      <trkpt lat="62.26042" lon="12.36183">
        <time>2023-02-07T10:19:00Z</time>
      </trkpt>
      <trkpt lat="62.26042" lon="12.36183">
        <time>2023-02-07T10:19:00Z</time>
      </trkpt>
      <trkpt lat="62.28067" lon="12.39925">
        <time>2023-02-07T12:19:00Z</time>
      </trkpt>
      <trkpt lat="62.28067" lon="12.39925">
        <time>2023-02-07T12:19:00Z</time>
      </trkpt>
      <trkpt lat="62.30303" lon="12.43451">
        <time>2023-02-07T14:19:00Z</time>
      </trkpt>
      <trkpt lat="62.30303" lon="12.43451">
        <time>2023-02-07T14:19:00Z</time>
      </trkpt>
      <trkpt lat="62.35521" lon="12.35056">
        <time>2023-02-07T16:19:00Z</time>
      </trkpt>
      <trkpt lat="62.35521" lon="12.35056">
        <time>2023-02-07T16:19:00Z</time>
      </trkpt>
      <trkpt lat="62.35521" lon="12.35054">
        <time>2023-02-07T16:37:00Z</time>
      </trkpt>
      <trkpt lat="62.35521" lon="12.35054">
        <time>2023-02-07T16:37:00Z</time>
      </trkpt>
      <trkpt lat="62.35516" lon="12.35072">
        <time>2023-02-07T16:38:00Z</time>
      </trkpt>
      <trkpt lat="62.35516" lon="12.35072">
        <time>2023-02-07T16:38:00Z</time>
      </trkpt>
      <trkpt lat="62.35522" lon="12.35054">
        <time>2023-02-08T08:07:00Z</time>
      </trkpt>
      <trkpt lat="62.35522" lon="12.35054">
        <time>2023-02-08T08:07:00Z</time>
      </trkpt>
      <trkpt lat="62.39176" lon="12.28497">
        <time>2023-02-08T12:07:00Z</time>
      </trkpt>
      <trkpt lat="62.39176" lon="12.28497">
        <time>2023-02-08T12:07:00Z</time>
      </trkpt>
      <trkpt lat="62.46793" lon="12.28456">
        <time>2023-02-08T16:09:00Z</time>
      </trkpt>
      <trkpt lat="62.46793" lon="12.28456">
        <time>2023-02-08T16:09:00Z</time>
      </trkpt>
      <trkpt lat="62.46754" lon="12.28443">
        <time>2023-02-08T17:22:00Z</time>
      </trkpt>
      <trkpt lat="62.46754" lon="12.28443">
        <time>2023-02-08T17:22:00Z</time>
      </trkpt>
      <trkpt lat="62.46747" lon="12.28433">
        <time>2023-02-09T07:40:00Z</time>
      </trkpt>
      <trkpt lat="62.46747" lon="12.28433">
        <time>2023-02-09T07:40:00Z</time>
      </trkpt>
      <trkpt lat="62.5315" lon="12.299">
        <time>2023-02-09T11:40:00Z</time>
      </trkpt>
      <trkpt lat="62.5315" lon="12.299">
        <time>2023-02-09T11:40:00Z</time>
      </trkpt>
      <trkpt lat="62.5705" lon="12.33035">
        <time>2023-02-09T15:40:00Z</time>
      </trkpt>
      <trkpt lat="62.5705" lon="12.33035">
        <time>2023-02-09T15:40:00Z</time>
      </trkpt>
      <trkpt lat="62.57044" lon="12.3305">
        <time>2023-02-09T17:16:00Z</time>
      </trkpt>
      <trkpt lat="62.57044" lon="12.3305">
        <time>2023-02-09T17:16:00Z</time>
      </trkpt>
      <trkpt lat="62.57198" lon="12.32795">
        <time>2023-02-10T08:34:00Z</time>
      </trkpt>
      <trkpt lat="62.57198" lon="12.32795">
        <time>2023-02-10T08:34:00Z</time>
      </trkpt>
      <trkpt lat="62.65788" lon="12.3411">
        <time>2023-02-10T12:34:00Z</time>
      </trkpt>
      <trkpt lat="62.65788" lon="12.3411">
        <time>2023-02-10T12:34:00Z</time>
      </trkpt>
      <trkpt lat="62.722" lon="12.30229">
        <time>2023-02-10T16:12:00Z</time>
      </trkpt>
      <trkpt lat="62.722" lon="12.30229">
        <time>2023-02-10T16:12:00Z</time>
      </trkpt>
      <trkpt lat="62.72194" lon="12.30188">
        <time>2023-02-10T16:34:00Z</time>
      </trkpt>
      <trkpt lat="62.72194" lon="12.30188">
        <time>2023-02-10T16:34:00Z</time>
      </trkpt>
      <trkpt lat="62.72172" lon="12.30093">
        <time>2023-02-10T17:39:00Z</time>
      </trkpt>
      <trkpt lat="62.72172" lon="12.30093">
        <time>2023-02-10T17:39:00Z</time>
      </trkpt>
      <trkpt lat="62.72206" lon="12.30211">
        <time>2023-02-11T07:55:00Z</time>
      </trkpt>
      <trkpt lat="62.72206" lon="12.30211">
        <time>2023-02-11T07:55:00Z</time>
      </trkpt>
      <trkpt lat="62.72225" lon="12.30188">
        <time>2023-02-11T07:55:00Z</time>
      </trkpt>
      <trkpt lat="62.72225" lon="12.30188">
        <time>2023-02-11T07:55:00Z</time>
      </trkpt>
      <trkpt lat="62.76652" lon="12.3529">
        <time>2023-02-11T11:55:00Z</time>
      </trkpt>
      <trkpt lat="62.76652" lon="12.3529">
        <time>2023-02-11T11:55:00Z</time>
      </trkpt>
      <trkpt lat="62.81813" lon="12.44637">
        <time>2023-02-11T15:55:00Z</time>
      </trkpt>
      <trkpt lat="62.81813" lon="12.44637">
        <time>2023-02-11T15:55:00Z</time>
      </trkpt>
      <trkpt lat="62.81828" lon="12.44614">
        <time>2023-02-12T06:53:00Z</time>
      </trkpt>
      <trkpt lat="62.81828" lon="12.44614">
        <time>2023-02-12T06:53:00Z</time>
      </trkpt>
      <trkpt lat="62.8181" lon="12.44562">
        <time>2023-02-12T06:53:00Z</time>
      </trkpt>
      <trkpt lat="62.8181" lon="12.44562">
        <time>2023-02-12T06:53:00Z</time>
      </trkpt>
      <trkpt lat="62.90019" lon="12.51521">
        <time>2023-02-12T10:53:00Z</time>
      </trkpt>
      <trkpt lat="62.90019" lon="12.51521">
        <time>2023-02-12T10:53:00Z</time>
      </trkpt>
      <trkpt lat="62.91677" lon="12.506">
        <time>2023-02-12T12:10:00Z</time>
      </trkpt>
      <trkpt lat="62.91677" lon="12.506">
        <time>2023-02-12T12:10:00Z</time>
      </trkpt>
      <trkpt lat="62.91676" lon="12.5065">
        <time>2023-02-12T14:53:00Z</time>
      </trkpt>
      <trkpt lat="62.91676" lon="12.5065">
        <time>2023-02-12T14:53:00Z</time>
      </trkpt>
      <trkpt lat="62.91659" lon="12.50712">
        <time>2023-02-14T08:01:00Z</time>
      </trkpt>
      <trkpt lat="62.91659" lon="12.50712">
        <time>2023-02-14T08:01:00Z</time>
      </trkpt>
      <trkpt lat="62.91645" lon="12.50645">
        <time>2023-02-14T08:02:00Z</time>
      </trkpt>
      <trkpt lat="62.91645" lon="12.50645">
        <time>2023-02-14T08:02:00Z</time>
      </trkpt>
      <trkpt lat="62.9759" lon="12.657">
        <time>2023-02-14T12:02:00Z</time>
      </trkpt>
      <trkpt lat="62.9759" lon="12.657">
        <time>2023-02-14T12:02:00Z</time>
      </trkpt>
      <trkpt lat="63.04073" lon="12.80025">
        <time>2023-02-14T15:15:00Z</time>
      </trkpt>
      <trkpt lat="63.04073" lon="12.80025">
        <time>2023-02-14T15:15:00Z</time>
      </trkpt>
      <trkpt lat="63.04097" lon="12.79985">
        <time>2023-02-14T15:15:00Z</time>
      </trkpt>
      <trkpt lat="63.04097" lon="12.79985">
        <time>2023-02-14T15:15:00Z</time>
      </trkpt>
      <trkpt lat="63.04079" lon="12.80042">
        <time>2023-02-15T07:21:00Z</time>
      </trkpt>
      <trkpt lat="63.04079" lon="12.80042">
        <time>2023-02-15T07:21:00Z</time>
      </trkpt>
      <trkpt lat="63.0408" lon="12.8004">
        <time>2023-02-15T07:21:00Z</time>
      </trkpt>
      <trkpt lat="63.0408" lon="12.8004">
        <time>2023-02-15T07:21:00Z</time>
      </trkpt>
      <trkpt lat="63.12753" lon="12.85534">
        <time>2023-02-15T11:21:00Z</time>
      </trkpt>
      <trkpt lat="63.12753" lon="12.85534">
        <time>2023-02-15T11:21:00Z</time>
      </trkpt>
      <trkpt lat="63.1471" lon="13.02206">
        <time>2023-02-15T15:21:00Z</time>
      </trkpt>
      <trkpt lat="63.1471" lon="13.02206">
        <time>2023-02-15T15:21:00Z</time>
      </trkpt>
      <trkpt lat="63.16641" lon="13.0594">
        <time>2023-02-15T19:18:00Z</time>
      </trkpt>
      <trkpt lat="63.16641" lon="13.0594">
        <time>2023-02-15T19:18:00Z</time>
      </trkpt>
      <trkpt lat="63.16675" lon="13.05955">
        <time>2023-02-15T19:19:00Z</time>
      </trkpt>
      <trkpt lat="63.16675" lon="13.05955">
        <time>2023-02-15T19:19:00Z</time>
      </trkpt>
      <trkpt lat="63.16696" lon="13.05923">
        <time>2023-02-16T08:48:00Z</time>
      </trkpt>
      <trkpt lat="63.16696" lon="13.05923">
        <time>2023-02-16T08:48:00Z</time>
      </trkpt>
      <trkpt lat="63.16764" lon="13.05912">
        <time>2023-02-16T08:48:00Z</time>
      </trkpt>
      <trkpt lat="63.16764" lon="13.05912">
        <time>2023-02-16T08:48:00Z</time>
      </trkpt>
      <trkpt lat="63.21711" lon="13.05631">
        <time>2023-02-16T12:48:00Z</time>
      </trkpt>
      <trkpt lat="63.21711" lon="13.05631">
        <time>2023-02-16T12:48:00Z</time>
      </trkpt>
      <trkpt lat="63.25829" lon="13.14671">
        <time>2023-02-16T16:48:00Z</time>
      </trkpt>
      <trkpt lat="63.25829" lon="13.14671">
        <time>2023-02-16T16:48:00Z</time>
      </trkpt>
      <trkpt lat="63.25814" lon="13.1466">
        <time>2023-02-16T17:28:00Z</time>
      </trkpt>
      <trkpt lat="63.25814" lon="13.1466">
        <time>2023-02-16T17:28:00Z</time>
      </trkpt>
      <trkpt lat="63.25826" lon="13.14626">
        <time>2023-02-16T17:29:00Z</time>
      </trkpt>
      <trkpt lat="63.25826" lon="13.14626">
        <time>2023-02-16T17:29:00Z</time>
      </trkpt>
      <trkpt lat="63.26001" lon="13.14748">
        <time>2023-02-17T07:32:00Z</time>
      </trkpt>
      <trkpt lat="63.26001" lon="13.14748">
        <time>2023-02-17T07:32:00Z</time>
      </trkpt>
      <trkpt lat="63.2581" lon="13.14675">
        <time>2023-02-17T07:33:00Z</time>
      </trkpt>
      <trkpt lat="63.2581" lon="13.14675">
        <time>2023-02-17T07:33:00Z</time>
      </trkpt>
      <trkpt lat="63.31735" lon="13.23629">
        <time>2023-02-17T11:33:00Z</time>
      </trkpt>
      <trkpt lat="63.31735" lon="13.23629">
        <time>2023-02-17T11:33:00Z</time>
      </trkpt>
      <trkpt lat="63.37124" lon="13.2214">
        <time>2023-02-17T15:33:00Z</time>
      </trkpt>
      <trkpt lat="63.37124" lon="13.2214">
        <time>2023-02-17T15:33:00Z</time>
      </trkpt>
      <trkpt lat="63.4002" lon="13.19203">
        <time>2023-02-17T17:15:00Z</time>
      </trkpt>
      <trkpt lat="63.4002" lon="13.19203">
        <time>2023-02-17T17:15:00Z</time>
      </trkpt>
      <trkpt lat="63.40009" lon="13.19207">
        <time>2023-02-17T17:20:00Z</time>
      </trkpt>
      <trkpt lat="63.40009" lon="13.19207">
        <time>2023-02-17T17:20:00Z</time>
      </trkpt>
      <trkpt lat="63.40007" lon="13.19271">
        <time>2023-02-18T07:56:00Z</time>
      </trkpt>
      <trkpt lat="63.40007" lon="13.19271">
        <time>2023-02-18T07:56:00Z</time>
      </trkpt>
      <trkpt lat="63.40111" lon="13.19175">
        <time>2023-02-18T07:56:00Z</time>
      </trkpt>
      <trkpt lat="63.40111" lon="13.19175">
        <time>2023-02-18T07:56:00Z</time>
      </trkpt>
      <trkpt lat="63.45962" lon="13.21258">
        <time>2023-02-18T11:56:00Z</time>
      </trkpt>
      <trkpt lat="63.45962" lon="13.21258">
        <time>2023-02-18T11:56:00Z</time>
      </trkpt>
      <trkpt lat="63.49975" lon="13.24662">
        <time>2023-02-18T15:56:00Z</time>
      </trkpt>
      <trkpt lat="63.49975" lon="13.24662">
        <time>2023-02-18T15:56:00Z</time>
      </trkpt>
      <trkpt lat="63.52895" lon="13.25215">
        <time>2023-02-18T17:57:00Z</time>
      </trkpt>
      <trkpt lat="63.52895" lon="13.25215">
        <time>2023-02-18T17:57:00Z</time>
      </trkpt>
      <trkpt lat="63.52899" lon="13.25187">
        <time>2023-02-19T08:25:00Z</time>
      </trkpt>
      <trkpt lat="63.52899" lon="13.25187">
        <time>2023-02-19T08:25:00Z</time>
      </trkpt>
      <trkpt lat="63.52899" lon="13.25192">
        <time>2023-02-19T08:26:00Z</time>
      </trkpt>
      <trkpt lat="63.52899" lon="13.25192">
        <time>2023-02-19T08:26:00Z</time>
      </trkpt>
      <trkpt lat="63.58972" lon="13.19016">
        <time>2023-02-19T12:25:00Z</time>
      </trkpt>
      <trkpt lat="63.58972" lon="13.19016">
        <time>2023-02-19T12:25:00Z</time>
      </trkpt>
      <trkpt lat="63.64834" lon="13.28739">
        <time>2023-02-19T16:25:00Z</time>
      </trkpt>
      <trkpt lat="63.64834" lon="13.28739">
        <time>2023-02-19T16:25:00Z</time>
      </trkpt>
      <trkpt lat="63.64832" lon="13.28715">
        <time>2023-02-19T16:31:00Z</time>
      </trkpt>
      <trkpt lat="63.64832" lon="13.28715">
        <time>2023-02-19T16:31:00Z</time>
      </trkpt>
      <trkpt lat="63.64824" lon="13.28728">
        <time>2023-02-19T20:25:00Z</time>
      </trkpt>
      <trkpt lat="63.64824" lon="13.28728">
        <time>2023-02-19T20:25:00Z</time>
      </trkpt>
      <trkpt lat="63.64827" lon="13.28713">
        <time>2023-02-20T00:25:00Z</time>
      </trkpt>
      <trkpt lat="63.64827" lon="13.28713">
        <time>2023-02-20T00:25:00Z</time>
      </trkpt>
      <trkpt lat="63.64845" lon="13.28721">
        <time>2023-02-20T04:25:00Z</time>
      </trkpt>
      <trkpt lat="63.64845" lon="13.28721">
        <time>2023-02-20T04:25:00Z</time>
      </trkpt>
      <trkpt lat="63.64838" lon="13.2873">
        <time>2023-02-20T08:04:00Z</time>
      </trkpt>
      <trkpt lat="63.64838" lon="13.2873">
        <time>2023-02-20T08:04:00Z</time>
      </trkpt>
      <trkpt lat="63.6535" lon="13.28578">
        <time>2023-02-20T08:25:00Z</time>
      </trkpt>
      <trkpt lat="63.6535" lon="13.28578">
        <time>2023-02-20T08:25:00Z</time>
      </trkpt>
      <trkpt lat="63.68722" lon="13.38296">
        <time>2023-02-20T12:25:00Z</time>
      </trkpt>
      <trkpt lat="63.68722" lon="13.38296">
        <time>2023-02-20T12:25:00Z</time>
      </trkpt>
      <trkpt lat="63.69173" lon="13.59417">
        <time>2023-02-20T16:25:00Z</time>
      </trkpt>
      <trkpt lat="63.69173" lon="13.59417">
        <time>2023-02-20T16:25:00Z</time>
      </trkpt>
      <trkpt lat="63.70016" lon="13.6171">
        <time>2023-02-21T08:33:00Z</time>
      </trkpt>
      <trkpt lat="63.70016" lon="13.6171">
        <time>2023-02-21T08:33:00Z</time>
      </trkpt>
      <trkpt lat="63.75184" lon="13.67676">
        <time>2023-02-21T12:33:00Z</time>
      </trkpt>
      <trkpt lat="63.75184" lon="13.67676">
        <time>2023-02-21T12:33:00Z</time>
      </trkpt>
      <trkpt lat="63.7807" lon="13.82089">
        <time>2023-02-21T16:33:00Z</time>
      </trkpt>
      <trkpt lat="63.7807" lon="13.82089">
        <time>2023-02-21T16:33:00Z</time>
      </trkpt>
      <trkpt lat="63.7803" lon="13.8217">
        <time>2023-02-23T08:35:00Z</time>
      </trkpt>
      <trkpt lat="63.7803" lon="13.8217">
        <time>2023-02-23T08:35:00Z</time>
      </trkpt>
      <trkpt lat="63.85908" lon="13.87515">
        <time>2023-02-23T12:35:00Z</time>
      </trkpt>
      <trkpt lat="63.85908" lon="13.87515">
        <time>2023-02-23T12:35:00Z</time>
      </trkpt>
      <trkpt lat="63.92701" lon="13.8747">
        <time>2023-02-23T16:35:00Z</time>
      </trkpt>
      <trkpt lat="63.92701" lon="13.8747">
        <time>2023-02-23T16:35:00Z</time>
      </trkpt>
      <trkpt lat="63.92756" lon="13.87468">
        <time>2023-02-23T16:42:00Z</time>
      </trkpt>
      <trkpt lat="63.92756" lon="13.87468">
        <time>2023-02-23T16:42:00Z</time>
      </trkpt>
      <trkpt lat="63.92737" lon="13.87434">
        <time>2023-02-23T20:35:00Z</time>
      </trkpt>
      <trkpt lat="63.92737" lon="13.87434">
        <time>2023-02-23T20:35:00Z</time>
      </trkpt>
      <trkpt lat="63.92736" lon="13.87415">
        <time>2023-02-24T00:35:00Z</time>
      </trkpt>
      <trkpt lat="63.92736" lon="13.87415">
        <time>2023-02-24T00:35:00Z</time>
      </trkpt>
      <trkpt lat="63.92737" lon="13.87427">
        <time>2023-02-24T04:35:00Z</time>
      </trkpt>
      <trkpt lat="63.92737" lon="13.87427">
        <time>2023-02-24T04:35:00Z</time>
      </trkpt>
      <trkpt lat="63.92738" lon="13.87423">
        <time>2023-02-24T07:24:00Z</time>
      </trkpt>
      <trkpt lat="63.92738" lon="13.87423">
        <time>2023-02-24T07:24:00Z</time>
      </trkpt>
      <trkpt lat="63.95765" lon="13.93699">
        <time>2023-02-24T08:35:00Z</time>
      </trkpt>
      <trkpt lat="63.95765" lon="13.93699">
        <time>2023-02-24T08:35:00Z</time>
      </trkpt>
      <trkpt lat="64.02286" lon="14.03744">
        <time>2023-02-24T12:35:00Z</time>
      </trkpt>
      <trkpt lat="64.02286" lon="14.03744">
        <time>2023-02-24T12:35:00Z</time>
      </trkpt>
      <trkpt lat="64.06692" lon="14.14803">
        <time>2023-02-24T16:35:00Z</time>
      </trkpt>
      <trkpt lat="64.06692" lon="14.14803">
        <time>2023-02-24T16:35:00Z</time>
      </trkpt>
      <trkpt lat="64.08963" lon="14.19468">
        <time>2023-02-24T19:03:00Z</time>
      </trkpt>
      <trkpt lat="64.08963" lon="14.19468">
        <time>2023-02-24T19:03:00Z</time>
      </trkpt>
      <trkpt lat="64.08963" lon="14.19462">
        <time>2023-02-24T20:35:00Z</time>
      </trkpt>
      <trkpt lat="64.08963" lon="14.19462">
        <time>2023-02-24T20:35:00Z</time>
      </trkpt>
      <trkpt lat="64.0901" lon="14.19427">
        <time>2023-02-25T00:35:00Z</time>
      </trkpt>
      <trkpt lat="64.0901" lon="14.19427">
        <time>2023-02-25T00:35:00Z</time>
      </trkpt>
      <trkpt lat="64.08956" lon="14.19462">
        <time>2023-02-25T04:35:00Z</time>
      </trkpt>
      <trkpt lat="64.08956" lon="14.19462">
        <time>2023-02-25T04:35:00Z</time>
      </trkpt>
      <trkpt lat="64.08959" lon="14.1947">
        <time>2023-02-25T08:35:00Z</time>
      </trkpt>
      <trkpt lat="64.08959" lon="14.1947">
        <time>2023-02-25T08:35:00Z</time>
      </trkpt>
      <trkpt lat="64.08959" lon="14.19462">
        <time>2023-02-25T08:37:00Z</time>
      </trkpt>
      <trkpt lat="64.08959" lon="14.19462">
        <time>2023-02-25T08:37:00Z</time>
      </trkpt>
      <trkpt lat="64.14311" lon="14.21983">
        <time>2023-02-25T12:35:00Z</time>
      </trkpt>
      <trkpt lat="64.14311" lon="14.21983">
        <time>2023-02-25T12:35:00Z</time>
      </trkpt>
      <trkpt lat="64.21172" lon="14.27285">
        <time>2023-02-25T16:35:00Z</time>
      </trkpt>
      <trkpt lat="64.21172" lon="14.27285">
        <time>2023-02-25T16:35:00Z</time>
      </trkpt>
      <trkpt lat="64.24954" lon="14.31789">
        <time>2023-02-25T20:26:00Z</time>
      </trkpt>
      <trkpt lat="64.24954" lon="14.31789">
        <time>2023-02-25T20:26:00Z</time>
      </trkpt>
      <trkpt lat="64.24982" lon="14.31757">
        <time>2023-02-25T20:35:00Z</time>
      </trkpt>
      <trkpt lat="64.24982" lon="14.31757">
        <time>2023-02-25T20:35:00Z</time>
      </trkpt>
      <trkpt lat="64.24976" lon="14.3177">
        <time>2023-02-26T00:35:00Z</time>
      </trkpt>
      <trkpt lat="64.24976" lon="14.3177">
        <time>2023-02-26T00:35:00Z</time>
      </trkpt>
      <trkpt lat="64.24935" lon="14.31785">
        <time>2023-02-26T04:35:00Z</time>
      </trkpt>
      <trkpt lat="64.24935" lon="14.31785">
        <time>2023-02-26T04:35:00Z</time>
      </trkpt>
      <trkpt lat="64.24964" lon="14.31761">
        <time>2023-02-26T08:26:00Z</time>
      </trkpt>
      <trkpt lat="64.24964" lon="14.31761">
        <time>2023-02-26T08:26:00Z</time>
      </trkpt>
      <trkpt lat="64.24825" lon="14.32225">
        <time>2023-02-26T08:35:00Z</time>
      </trkpt>
      <trkpt lat="64.24825" lon="14.32225">
        <time>2023-02-26T08:35:00Z</time>
      </trkpt>
      <trkpt lat="64.28601" lon="14.41874">
        <time>2023-02-26T12:35:00Z</time>
      </trkpt>
      <trkpt lat="64.28601" lon="14.41874">
        <time>2023-02-26T12:35:00Z</time>
      </trkpt>
      <trkpt lat="64.35157" lon="14.41265">
        <time>2023-02-26T16:35:00Z</time>
      </trkpt>
      <trkpt lat="64.35157" lon="14.41265">
        <time>2023-02-26T16:35:00Z</time>
      </trkpt>
      <trkpt lat="64.35216" lon="14.41097">
        <time>2023-02-26T17:24:00Z</time>
      </trkpt>
      <trkpt lat="64.35216" lon="14.41097">
        <time>2023-02-26T17:24:00Z</time>
      </trkpt>
      <trkpt lat="64.35206" lon="14.41112">
        <time>2023-02-26T20:35:00Z</time>
      </trkpt>
      <trkpt lat="64.35206" lon="14.41112">
        <time>2023-02-26T20:35:00Z</time>
      </trkpt>
      <trkpt lat="64.35216" lon="14.41093">
        <time>2023-02-27T00:35:00Z</time>
      </trkpt>
      <trkpt lat="64.35216" lon="14.41093">
        <time>2023-02-27T00:35:00Z</time>
      </trkpt>
      <trkpt lat="64.35219" lon="14.41097">
        <time>2023-02-27T04:35:00Z</time>
      </trkpt>
      <trkpt lat="64.35219" lon="14.41097">
        <time>2023-02-27T04:35:00Z</time>
      </trkpt>
      <trkpt lat="64.35199" lon="14.41061">
        <time>2023-02-27T07:30:00Z</time>
      </trkpt>
      <trkpt lat="64.35199" lon="14.41061">
        <time>2023-02-27T07:30:00Z</time>
      </trkpt>
      <trkpt lat="64.35199" lon="14.41061">
        <time>2023-02-27T07:30:00Z</time>
      </trkpt>
      <trkpt lat="64.35199" lon="14.41061">
        <time>2023-02-27T07:30:00Z</time>
      </trkpt>
      <trkpt lat="64.37355" lon="14.37495">
        <time>2023-02-27T08:36:00Z</time>
      </trkpt>
      <trkpt lat="64.37355" lon="14.37495">
        <time>2023-02-27T08:36:00Z</time>
      </trkpt>
      <trkpt lat="64.43686" lon="14.18799">
        <time>2023-02-27T12:36:00Z</time>
      </trkpt>
      <trkpt lat="64.43686" lon="14.18799">
        <time>2023-02-27T12:36:00Z</time>
      </trkpt>
      <trkpt lat="64.50662" lon="14.14492">
        <time>2023-02-27T16:10:00Z</time>
      </trkpt>
      <trkpt lat="64.50662" lon="14.14492">
        <time>2023-02-27T16:10:00Z</time>
      </trkpt>
      <trkpt lat="64.50688" lon="14.14305">
        <time>2023-02-27T16:36:00Z</time>
      </trkpt>
      <trkpt lat="64.50688" lon="14.14305">
        <time>2023-02-27T16:36:00Z</time>
      </trkpt>
      <trkpt lat="64.50718" lon="14.14385">
        <time>2023-03-01T06:50:00Z</time>
      </trkpt>
      <trkpt lat="64.50718" lon="14.14385">
        <time>2023-03-01T06:50:00Z</time>
      </trkpt>
      <trkpt lat="64.50332" lon="14.15455">
        <time>2023-03-01T07:38:00Z</time>
      </trkpt>
      <trkpt lat="64.50332" lon="14.15455">
        <time>2023-03-01T07:38:00Z</time>
      </trkpt>
      <trkpt lat="64.56807" lon="14.13389">
        <time>2023-03-01T10:50:00Z</time>
      </trkpt>
      <trkpt lat="64.56807" lon="14.13389">
        <time>2023-03-01T10:50:00Z</time>
      </trkpt>
      <trkpt lat="64.66012" lon="14.14558">
        <time>2023-03-01T14:50:00Z</time>
      </trkpt>
      <trkpt lat="64.66012" lon="14.14558">
        <time>2023-03-01T14:50:00Z</time>
      </trkpt>
      <trkpt lat="64.67851" lon="14.2071">
        <time>2023-03-01T16:21:00Z</time>
      </trkpt>
      <trkpt lat="64.67851" lon="14.2071">
        <time>2023-03-01T16:21:00Z</time>
      </trkpt>
      <trkpt lat="64.67849" lon="14.20648">
        <time>2023-03-01T19:03:00Z</time>
      </trkpt>
      <trkpt lat="64.67849" lon="14.20648">
        <time>2023-03-01T19:03:00Z</time>
      </trkpt>
      <trkpt lat="64.67852" lon="14.20738">
        <time>2023-03-02T01:52:00Z</time>
      </trkpt>
      <trkpt lat="64.67852" lon="14.20738">
        <time>2023-03-02T01:52:00Z</time>
      </trkpt>
      <trkpt lat="64.67827" lon="14.20708">
        <time>2023-03-02T05:54:00Z</time>
      </trkpt>
      <trkpt lat="64.67827" lon="14.20708">
        <time>2023-03-02T05:54:00Z</time>
      </trkpt>
      <trkpt lat="64.6784" lon="14.20659">
        <time>2023-03-02T07:11:00Z</time>
      </trkpt>
      <trkpt lat="64.6784" lon="14.20659">
        <time>2023-03-02T07:11:00Z</time>
      </trkpt>
      <trkpt lat="64.75037" lon="14.21964">
        <time>2023-03-02T09:54:00Z</time>
      </trkpt>
      <trkpt lat="64.75037" lon="14.21964">
        <time>2023-03-02T09:54:00Z</time>
      </trkpt>
      <trkpt lat="64.8148" lon="14.24551">
        <time>2023-03-02T13:54:00Z</time>
      </trkpt>
      <trkpt lat="64.8148" lon="14.24551">
        <time>2023-03-02T13:54:00Z</time>
      </trkpt>
      <trkpt lat="64.87375" lon="14.39881">
        <time>2023-03-02T17:54:00Z</time>
      </trkpt>
      <trkpt lat="64.87375" lon="14.39881">
        <time>2023-03-02T17:54:00Z</time>
      </trkpt>
      <trkpt lat="64.88272" lon="14.3987">
        <time>2023-03-02T18:53:00Z</time>
      </trkpt>
      <trkpt lat="64.88272" lon="14.3987">
        <time>2023-03-02T18:53:00Z</time>
      </trkpt>
      <trkpt lat="64.88272" lon="14.39896">
        <time>2023-03-02T18:53:00Z</time>
      </trkpt>
      <trkpt lat="64.88272" lon="14.39896">
        <time>2023-03-02T18:53:00Z</time>
      </trkpt>
      <trkpt lat="64.88284" lon="14.39902">
        <time>2023-03-03T07:07:00Z</time>
      </trkpt>
      <trkpt lat="64.88284" lon="14.39902">
        <time>2023-03-03T07:07:00Z</time>
      </trkpt>
      <trkpt lat="64.98386" lon="14.71853">
        <time>2023-03-03T16:56:00Z</time>
      </trkpt>
      <trkpt lat="64.98386" lon="14.71853">
        <time>2023-03-03T16:56:00Z</time>
      </trkpt>
      <trkpt lat="64.98466" lon="14.71878">
        <time>2023-03-04T08:25:00Z</time>
      </trkpt>
      <trkpt lat="64.98466" lon="14.71878">
        <time>2023-03-04T08:25:00Z</time>
      </trkpt>
      <trkpt lat="64.98426" lon="14.71838">
        <time>2023-03-04T08:25:00Z</time>
      </trkpt>
      <trkpt lat="64.98426" lon="14.71838">
        <time>2023-03-04T08:25:00Z</time>
      </trkpt>
      <trkpt lat="65.06061" lon="14.79955">
        <time>2023-03-04T11:48:00Z</time>
      </trkpt>
      <trkpt lat="65.06061" lon="14.79955">
        <time>2023-03-04T11:48:00Z</time>
      </trkpt>
      <trkpt lat="65.06069" lon="14.79865">
        <time>2023-03-04T11:49:00Z</time>
      </trkpt>
      <trkpt lat="65.06069" lon="14.79865">
        <time>2023-03-04T11:49:00Z</time>
      </trkpt>
      <trkpt lat="65.06003" lon="14.79882">
        <time>2023-03-06T08:09:00Z</time>
      </trkpt>
      <trkpt lat="65.06003" lon="14.79882">
        <time>2023-03-06T08:09:00Z</time>
      </trkpt>
      <trkpt lat="65.06003" lon="14.79882">
        <time>2023-03-06T08:09:00Z</time>
      </trkpt>
      <trkpt lat="65.06003" lon="14.79882">
        <time>2023-03-06T08:09:00Z</time>
      </trkpt>
      <trkpt lat="65.07505" lon="15.08457">
        <time>2023-03-06T12:09:00Z</time>
      </trkpt>
      <trkpt lat="65.07505" lon="15.08457">
        <time>2023-03-06T12:09:00Z</time>
      </trkpt>
      <trkpt lat="65.18891" lon="15.07253">
        <time>2023-03-06T16:09:00Z</time>
      </trkpt>
      <trkpt lat="65.18891" lon="15.07253">
        <time>2023-03-06T16:09:00Z</time>
      </trkpt>
      <trkpt lat="65.20022" lon="15.06391">
        <time>2023-03-06T16:33:00Z</time>
      </trkpt>
      <trkpt lat="65.20022" lon="15.06391">
        <time>2023-03-06T16:33:00Z</time>
      </trkpt>
      <trkpt lat="65.20027" lon="15.06395">
        <time>2023-03-06T16:34:00Z</time>
      </trkpt>
      <trkpt lat="65.20027" lon="15.06395">
        <time>2023-03-06T16:34:00Z</time>
      </trkpt>
      <trkpt lat="65.2003" lon="15.06389">
        <time>2023-03-07T06:57:00Z</time>
      </trkpt>
      <trkpt lat="65.2003" lon="15.06389">
        <time>2023-03-07T06:57:00Z</time>
      </trkpt>
      <trkpt lat="65.20032" lon="15.06393">
        <time>2023-03-07T06:57:00Z</time>
      </trkpt>
      <trkpt lat="65.20032" lon="15.06393">
        <time>2023-03-07T06:57:00Z</time>
      </trkpt>
      <trkpt lat="65.3147" lon="15.04183">
        <time>2023-03-07T10:57:00Z</time>
      </trkpt>
      <trkpt lat="65.3147" lon="15.04183">
        <time>2023-03-07T10:57:00Z</time>
      </trkpt>
      <trkpt lat="65.39175" lon="15.13953">
        <time>2023-03-07T14:57:00Z</time>
      </trkpt>
      <trkpt lat="65.39175" lon="15.13953">
        <time>2023-03-07T14:57:00Z</time>
      </trkpt>
      <trkpt lat="65.43312" lon="15.20712">
        <time>2023-03-07T17:01:00Z</time>
      </trkpt>
      <trkpt lat="65.43312" lon="15.20712">
        <time>2023-03-07T17:01:00Z</time>
      </trkpt>
      <trkpt lat="65.43302" lon="15.2071">
        <time>2023-03-07T17:02:00Z</time>
      </trkpt>
      <trkpt lat="65.43302" lon="15.2071">
        <time>2023-03-07T17:02:00Z</time>
      </trkpt>
      <trkpt lat="65.43312" lon="15.2072">
        <time>2023-03-08T07:12:00Z</time>
      </trkpt>
      <trkpt lat="65.43319" lon="15.20718">
        <time>2023-03-08T07:12:00Z</time>
      </trkpt>
      <trkpt lat="65.43312" lon="15.2072">
        <time>2023-03-08T07:12:00Z</time>
      </trkpt>
      <trkpt lat="65.43319" lon="15.20718">
        <time>2023-03-08T07:12:00Z</time>
      </trkpt>
      <trkpt lat="65.52018" lon="15.33902">
        <time>2023-03-08T11:12:00Z</time>
      </trkpt>
      <trkpt lat="65.52018" lon="15.33902">
        <time>2023-03-08T11:12:00Z</time>
      </trkpt>
      <trkpt lat="65.6256" lon="15.21896">
        <time>2023-03-08T15:12:00Z</time>
      </trkpt>
      <trkpt lat="65.6256" lon="15.21896">
        <time>2023-03-08T15:12:00Z</time>
      </trkpt>
      <trkpt lat="65.65843" lon="15.14742">
        <time>2023-03-08T16:37:00Z</time>
      </trkpt>
      <trkpt lat="65.65843" lon="15.14742">
        <time>2023-03-08T16:37:00Z</time>
      </trkpt>
      <trkpt lat="65.65846" lon="15.14747">
        <time>2023-03-08T16:37:00Z</time>
      </trkpt>
      <trkpt lat="65.65846" lon="15.14747">
        <time>2023-03-08T16:37:00Z</time>
      </trkpt>
      <trkpt lat="65.65856" lon="15.14699">
        <time>2023-03-09T06:45:00Z</time>
      </trkpt>
      <trkpt lat="65.65856" lon="15.14699">
        <time>2023-03-09T06:45:00Z</time>
      </trkpt>
      <trkpt lat="65.65849" lon="15.14699">
        <time>2023-03-09T06:45:00Z</time>
      </trkpt>
      <trkpt lat="65.65849" lon="15.14699">
        <time>2023-03-09T06:45:00Z</time>
      </trkpt>
      <trkpt lat="65.76693" lon="15.11742">
        <time>2023-03-09T10:45:00Z</time>
      </trkpt>
      <trkpt lat="65.76693" lon="15.11742">
        <time>2023-03-09T10:45:00Z</time>
      </trkpt>
      <trkpt lat="65.81156" lon="15.08642">
        <time>2023-03-09T12:45:00Z</time>
      </trkpt>
      <trkpt lat="65.81156" lon="15.08642">
        <time>2023-03-09T12:45:00Z</time>
      </trkpt>
      <trkpt lat="65.81155" lon="15.08629">
        <time>2023-03-09T12:46:00Z</time>
      </trkpt>
      <trkpt lat="65.81155" lon="15.08629">
        <time>2023-03-09T12:46:00Z</time>
      </trkpt>
      <trkpt lat="65.81186" lon="15.08783">
        <time>2023-03-11T08:08:00Z</time>
      </trkpt>
      <trkpt lat="65.81186" lon="15.08783">
        <time>2023-03-11T08:08:00Z</time>
      </trkpt>
      <trkpt lat="65.81201" lon="15.08844">
        <time>2023-03-11T08:08:00Z</time>
      </trkpt>
      <trkpt lat="65.81201" lon="15.08844">
        <time>2023-03-11T08:08:00Z</time>
      </trkpt>
      <trkpt lat="65.86497" lon="15.1082">
        <time>2023-03-11T12:08:00Z</time>
      </trkpt>
      <trkpt lat="65.86497" lon="15.1082">
        <time>2023-03-11T12:08:00Z</time>
      </trkpt>
      <trkpt lat="65.87178" lon="15.32889">
        <time>2023-03-11T16:08:00Z</time>
      </trkpt>
      <trkpt lat="65.87178" lon="15.32889">
        <time>2023-03-11T16:08:00Z</time>
      </trkpt>
      <trkpt lat="65.89175" lon="15.39481">
        <time>2023-03-11T17:31:00Z</time>
      </trkpt>
      <trkpt lat="65.89175" lon="15.39481">
        <time>2023-03-11T17:31:00Z</time>
      </trkpt>
      <trkpt lat="65.8929" lon="15.39704">
        <time>2023-03-11T17:31:00Z</time>
      </trkpt>
      <trkpt lat="65.8929" lon="15.39704">
        <time>2023-03-11T17:31:00Z</time>
      </trkpt>
      <trkpt lat="65.89261" lon="15.39661">
        <time>2023-03-12T07:36:00Z</time>
      </trkpt>
      <trkpt lat="65.89261" lon="15.39661">
        <time>2023-03-12T07:36:00Z</time>
      </trkpt>
      <trkpt lat="65.89263" lon="15.39655">
        <time>2023-03-12T07:37:00Z</time>
      </trkpt>
      <trkpt lat="65.89263" lon="15.39655">
        <time>2023-03-12T07:37:00Z</time>
      </trkpt>
      <trkpt lat="65.98892" lon="15.49727">
        <time>2023-03-12T11:37:00Z</time>
      </trkpt>
      <trkpt lat="65.98892" lon="15.49727">
        <time>2023-03-12T11:37:00Z</time>
      </trkpt>
      <trkpt lat="65.97" lon="15.66889">
        <time>2023-03-12T15:37:00Z</time>
      </trkpt>
      <trkpt lat="65.97" lon="15.66889">
        <time>2023-03-12T15:37:00Z</time>
      </trkpt>
      <trkpt lat="65.97231" lon="15.76444">
        <time>2023-03-12T17:18:00Z</time>
      </trkpt>
      <trkpt lat="65.97231" lon="15.76444">
        <time>2023-03-12T17:18:00Z</time>
      </trkpt>
      <trkpt lat="65.97233" lon="15.76448">
        <time>2023-03-12T17:19:00Z</time>
      </trkpt>
      <trkpt lat="65.97233" lon="15.76448">
        <time>2023-03-12T17:19:00Z</time>
      </trkpt>
      <trkpt lat="65.97235" lon="15.76435">
        <time>2023-03-13T06:09:00Z</time>
      </trkpt>
      <trkpt lat="65.97235" lon="15.76435">
        <time>2023-03-13T06:09:00Z</time>
      </trkpt>
      <trkpt lat="65.97235" lon="15.76435">
        <time>2023-03-13T06:10:00Z</time>
      </trkpt>
      <trkpt lat="65.97235" lon="15.76435">
        <time>2023-03-13T06:10:00Z</time>
      </trkpt>
      <trkpt lat="65.96281" lon="16.04781">
        <time>2023-03-13T10:10:00Z</time>
      </trkpt>
      <trkpt lat="65.96281" lon="16.04781">
        <time>2023-03-13T10:10:00Z</time>
      </trkpt>
      <trkpt lat="65.95798" lon="16.20348">
        <time>2023-03-13T12:11:00Z</time>
      </trkpt>
      <trkpt lat="65.95798" lon="16.20348">
        <time>2023-03-13T12:11:00Z</time>
      </trkpt>
      <trkpt lat="65.95786" lon="16.20318">
        <time>2023-03-13T12:11:00Z</time>
      </trkpt>
      <trkpt lat="65.95786" lon="16.20318">
        <time>2023-03-13T12:11:00Z</time>
      </trkpt>
      <trkpt lat="65.95707" lon="16.2058">
        <time>2023-03-14T08:32:00Z</time>
      </trkpt>
      <trkpt lat="65.95707" lon="16.2058">
        <time>2023-03-14T08:32:00Z</time>
      </trkpt>
      <trkpt lat="65.9571" lon="16.20589">
        <time>2023-03-14T08:32:00Z</time>
      </trkpt>
      <trkpt lat="65.9571" lon="16.20589">
        <time>2023-03-14T08:32:00Z</time>
      </trkpt>
      <trkpt lat="66.03866" lon="16.23895">
        <time>2023-03-14T12:32:00Z</time>
      </trkpt>
      <trkpt lat="66.03866" lon="16.23895">
        <time>2023-03-14T12:32:00Z</time>
      </trkpt>
      <trkpt lat="66.11467" lon="16.34131">
        <time>2023-03-14T16:32:00Z</time>
      </trkpt>
      <trkpt lat="66.11467" lon="16.34131">
        <time>2023-03-14T16:32:00Z</time>
      </trkpt>
      <trkpt lat="66.20998" lon="16.3769">
        <time>2023-03-14T19:43:00Z</time>
      </trkpt>
      <trkpt lat="66.20998" lon="16.3769">
        <time>2023-03-14T19:43:00Z</time>
      </trkpt>
      <trkpt lat="66.2099" lon="16.37673">
        <time>2023-03-14T19:44:00Z</time>
      </trkpt>
      <trkpt lat="66.2099" lon="16.37673">
        <time>2023-03-14T19:44:00Z</time>
      </trkpt>
      <trkpt lat="66.20999" lon="16.37731">
        <time>2023-03-15T07:52:00Z</time>
      </trkpt>
      <trkpt lat="66.20999" lon="16.37731">
        <time>2023-03-15T07:52:00Z</time>
      </trkpt>
      <trkpt lat="66.21" lon="16.37733">
        <time>2023-03-15T07:52:00Z</time>
      </trkpt>
      <trkpt lat="66.21" lon="16.37733">
        <time>2023-03-15T07:52:00Z</time>
      </trkpt>
      <trkpt lat="66.28156" lon="16.50071">
        <time>2023-03-15T11:52:00Z</time>
      </trkpt>
      <trkpt lat="66.28156" lon="16.50071">
        <time>2023-03-15T11:52:00Z</time>
      </trkpt>
      <trkpt lat="66.27853" lon="16.65313">
        <time>2023-03-15T14:33:00Z</time>
      </trkpt>
      <trkpt lat="66.27853" lon="16.65313">
        <time>2023-03-15T14:33:00Z</time>
      </trkpt>
      <trkpt lat="66.27853" lon="16.65321">
        <time>2023-03-15T14:34:00Z</time>
      </trkpt>
      <trkpt lat="66.27853" lon="16.65321">
        <time>2023-03-15T14:34:00Z</time>
      </trkpt>
      <trkpt lat="66.28252" lon="16.66373">
        <time>2023-03-16T07:41:00Z</time>
      </trkpt>
      <trkpt lat="66.28252" lon="16.66373">
        <time>2023-03-16T07:41:00Z</time>
      </trkpt>
      <trkpt lat="66.28251" lon="16.66375">
        <time>2023-03-16T07:41:00Z</time>
      </trkpt>
      <trkpt lat="66.28251" lon="16.66375">
        <time>2023-03-16T07:41:00Z</time>
      </trkpt>
      <trkpt lat="66.33998" lon="16.79863">
        <time>2023-03-16T11:41:00Z</time>
      </trkpt>
      <trkpt lat="66.33998" lon="16.79863">
        <time>2023-03-16T11:41:00Z</time>
      </trkpt>
      <trkpt lat="66.38755" lon="16.9659">
        <time>2023-03-16T15:41:00Z</time>
      </trkpt>
      <trkpt lat="66.38755" lon="16.9659">
        <time>2023-03-16T15:41:00Z</time>
      </trkpt>
      <trkpt lat="66.3877" lon="16.96562">
        <time>2023-03-16T15:44:00Z</time>
      </trkpt>
      <trkpt lat="66.3877" lon="16.96562">
        <time>2023-03-16T15:44:00Z</time>
      </trkpt>
      <trkpt lat="66.38768" lon="16.96596">
        <time>2023-03-16T15:44:00Z</time>
      </trkpt>
      <trkpt lat="66.38768" lon="16.96596">
        <time>2023-03-16T15:44:00Z</time>
      </trkpt>
      <trkpt lat="66.38782" lon="16.96493">
        <time>2023-03-16T15:45:00Z</time>
      </trkpt>
      <trkpt lat="66.38782" lon="16.96491">
        <time>2023-03-16T15:45:00Z</time>
      </trkpt>
      <trkpt lat="66.38782" lon="16.96493">
        <time>2023-03-16T15:45:00Z</time>
      </trkpt>
      <trkpt lat="66.38782" lon="16.96491">
        <time>2023-03-16T15:45:00Z</time>
      </trkpt>
      <trkpt lat="66.38774" lon="16.96562">
        <time>2023-03-17T07:42:00Z</time>
      </trkpt>
      <trkpt lat="66.38774" lon="16.96562">
        <time>2023-03-17T07:42:00Z</time>
      </trkpt>
      <trkpt lat="66.38757" lon="16.96429">
        <time>2023-03-17T07:42:00Z</time>
      </trkpt>
      <trkpt lat="66.38757" lon="16.96429">
        <time>2023-03-17T07:42:00Z</time>
      </trkpt>
      <trkpt lat="66.42999" lon="17.19594">
        <time>2023-03-17T11:42:00Z</time>
      </trkpt>
      <trkpt lat="66.42999" lon="17.19594">
        <time>2023-03-17T11:42:00Z</time>
      </trkpt>
      <trkpt lat="66.51946" lon="17.24156">
        <time>2023-03-17T15:42:00Z</time>
      </trkpt>
      <trkpt lat="66.51946" lon="17.24156">
        <time>2023-03-17T15:42:00Z</time>
      </trkpt>
      <trkpt lat="66.5548" lon="17.23021">
        <time>2023-03-17T17:09:00Z</time>
      </trkpt>
      <trkpt lat="66.5548" lon="17.23021">
        <time>2023-03-17T17:09:00Z</time>
      </trkpt>
      <trkpt lat="66.5548" lon="17.23043">
        <time>2023-03-17T17:10:00Z</time>
      </trkpt>
      <trkpt lat="66.5548" lon="17.23043">
        <time>2023-03-17T17:10:00Z</time>
      </trkpt>
      <trkpt lat="66.55548" lon="17.22858">
        <time>2023-03-18T06:45:00Z</time>
      </trkpt>
      <trkpt lat="66.55547" lon="17.22858">
        <time>2023-03-18T06:45:00Z</time>
      </trkpt>
      <trkpt lat="66.55548" lon="17.22858">
        <time>2023-03-18T06:45:00Z</time>
      </trkpt>
      <trkpt lat="66.55547" lon="17.22858">
        <time>2023-03-18T06:45:00Z</time>
      </trkpt>
      <trkpt lat="66.55718" lon="17.38773">
        <time>2023-03-18T10:45:00Z</time>
      </trkpt>
      <trkpt lat="66.55718" lon="17.38773">
        <time>2023-03-18T10:45:00Z</time>
      </trkpt>
      <trkpt lat="66.60765" lon="17.38563">
        <time>2023-03-18T14:45:00Z</time>
      </trkpt>
      <trkpt lat="66.60765" lon="17.38563">
        <time>2023-03-18T14:45:00Z</time>
      </trkpt>
      <trkpt lat="66.6332" lon="17.39151">
        <time>2023-03-18T17:43:00Z</time>
      </trkpt>
      <trkpt lat="66.6332" lon="17.39151">
        <time>2023-03-18T17:43:00Z</time>
      </trkpt>
      <trkpt lat="66.6335" lon="17.39155">
        <time>2023-03-18T17:45:00Z</time>
      </trkpt>
      <trkpt lat="66.6335" lon="17.39155">
        <time>2023-03-18T17:45:00Z</time>
      </trkpt>
      <trkpt lat="66.6332" lon="17.39155">
        <time>2023-03-19T06:42:00Z</time>
      </trkpt>
      <trkpt lat="66.6332" lon="17.39155">
        <time>2023-03-19T06:42:00Z</time>
      </trkpt>
      <trkpt lat="66.63318" lon="17.39157">
        <time>2023-03-19T06:43:00Z</time>
      </trkpt>
      <trkpt lat="66.63318" lon="17.39157">
        <time>2023-03-19T06:43:00Z</time>
      </trkpt>
      <trkpt lat="66.71169" lon="17.38812">
        <time>2023-03-19T10:43:00Z</time>
      </trkpt>
      <trkpt lat="66.71169" lon="17.38812">
        <time>2023-03-19T10:43:00Z</time>
      </trkpt>
      <trkpt lat="66.77745" lon="17.54023">
        <time>2023-03-19T14:43:00Z</time>
      </trkpt>
      <trkpt lat="66.77745" lon="17.54023">
        <time>2023-03-19T14:43:00Z</time>
      </trkpt>
      <trkpt lat="66.84491" lon="17.58933">
        <time>2023-03-19T18:43:00Z</time>
      </trkpt>
      <trkpt lat="66.84491" lon="17.58933">
        <time>2023-03-19T18:43:00Z</time>
      </trkpt>
      <trkpt lat="66.84508" lon="17.58978">
        <time>2023-03-20T06:03:00Z</time>
      </trkpt>
      <trkpt lat="66.84526" lon="17.5901">
        <time>2023-03-20T06:03:00Z</time>
      </trkpt>
      <trkpt lat="66.84508" lon="17.58978">
        <time>2023-03-20T06:03:00Z</time>
      </trkpt>
      <trkpt lat="66.84526" lon="17.5901">
        <time>2023-03-20T06:03:00Z</time>
      </trkpt>
      <trkpt lat="66.92518" lon="17.67119">
        <time>2023-03-20T10:03:00Z</time>
      </trkpt>
      <trkpt lat="66.92518" lon="17.67119">
        <time>2023-03-20T10:03:00Z</time>
      </trkpt>
      <trkpt lat="66.9536" lon="17.71981">
        <time>2023-03-20T11:52:00Z</time>
      </trkpt>
      <trkpt lat="66.9536" lon="17.71981">
        <time>2023-03-20T11:52:00Z</time>
      </trkpt>
      <trkpt lat="66.9536" lon="17.71968">
        <time>2023-03-20T11:52:00Z</time>
      </trkpt>
      <trkpt lat="66.9536" lon="17.71968">
        <time>2023-03-20T11:52:00Z</time>
      </trkpt>
      <trkpt lat="66.9538" lon="17.72065">
        <time>2023-03-22T08:52:00Z</time>
      </trkpt>
      <trkpt lat="66.95391" lon="17.72063">
        <time>2023-03-22T08:52:00Z</time>
      </trkpt>
      <trkpt lat="66.9538" lon="17.72065">
        <time>2023-03-22T08:52:00Z</time>
      </trkpt>
      <trkpt lat="66.95391" lon="17.72063">
        <time>2023-03-22T08:52:00Z</time>
      </trkpt>
      <trkpt lat="67.03104" lon="17.89124">
        <time>2023-03-22T12:52:00Z</time>
      </trkpt>
      <trkpt lat="67.03104" lon="17.89124">
        <time>2023-03-22T12:52:00Z</time>
      </trkpt>
      <trkpt lat="67.0432" lon="17.94323">
        <time>2023-03-22T14:20:00Z</time>
      </trkpt>
      <trkpt lat="67.0432" lon="17.94323">
        <time>2023-03-22T14:20:00Z</time>
      </trkpt>
      <trkpt lat="67.04273" lon="17.94276">
        <time>2023-03-22T14:20:00Z</time>
      </trkpt>
      <trkpt lat="67.04273" lon="17.94276">
        <time>2023-03-22T14:20:00Z</time>
      </trkpt>
      <trkpt lat="67.04248" lon="17.94278">
        <time>2023-03-23T08:13:00Z</time>
      </trkpt>
      <trkpt lat="67.04248" lon="17.94278">
        <time>2023-03-23T08:13:00Z</time>
      </trkpt>
      <trkpt lat="67.04241" lon="17.94297">
        <time>2023-03-23T08:14:00Z</time>
      </trkpt>
      <trkpt lat="67.04241" lon="17.94297">
        <time>2023-03-23T08:14:00Z</time>
      </trkpt>
      <trkpt lat="67.05906" lon="18.2001">
        <time>2023-03-23T12:13:00Z</time>
      </trkpt>
      <trkpt lat="67.05906" lon="18.2001">
        <time>2023-03-23T12:13:00Z</time>
      </trkpt>
      <trkpt lat="67.14856" lon="18.3055">
        <time>2023-03-23T16:13:00Z</time>
      </trkpt>
      <trkpt lat="67.14856" lon="18.3055">
        <time>2023-03-23T16:13:00Z</time>
      </trkpt>
      <trkpt lat="67.14885" lon="18.30599">
        <time>2023-03-23T18:47:00Z</time>
      </trkpt>
      <trkpt lat="67.14885" lon="18.30593">
        <time>2023-03-23T18:47:00Z</time>
      </trkpt>
      <trkpt lat="67.14885" lon="18.30599">
        <time>2023-03-23T18:47:00Z</time>
      </trkpt>
      <trkpt lat="67.14885" lon="18.30593">
        <time>2023-03-23T18:47:00Z</time>
      </trkpt>
      <trkpt lat="67.1487" lon="18.30644">
        <time>2023-03-24T06:52:00Z</time>
      </trkpt>
      <trkpt lat="67.1487" lon="18.30644">
        <time>2023-03-24T06:52:00Z</time>
      </trkpt>
      <trkpt lat="67.14873" lon="18.30625">
        <time>2023-03-24T06:52:00Z</time>
      </trkpt>
      <trkpt lat="67.14873" lon="18.30625">
        <time>2023-03-24T06:52:00Z</time>
      </trkpt>
      <trkpt lat="67.16781" lon="18.39019">
        <time>2023-03-24T10:52:00Z</time>
      </trkpt>
      <trkpt lat="67.16781" lon="18.39019">
        <time>2023-03-24T10:52:00Z</time>
      </trkpt>
      <trkpt lat="67.28428" lon="18.46611">
        <time>2023-03-24T14:52:00Z</time>
      </trkpt>
      <trkpt lat="67.28428" lon="18.46611">
        <time>2023-03-24T14:52:00Z</time>
      </trkpt>
      <trkpt lat="67.39397" lon="18.52093">
        <time>2023-03-24T18:52:00Z</time>
      </trkpt>
      <trkpt lat="67.39397" lon="18.52093">
        <time>2023-03-24T18:52:00Z</time>
      </trkpt>
      <trkpt lat="67.3935" lon="18.52083">
        <time>2023-03-24T20:23:00Z</time>
      </trkpt>
      <trkpt lat="67.39357" lon="18.52091">
        <time>2023-03-24T20:23:00Z</time>
      </trkpt>
      <trkpt lat="67.3935" lon="18.52083">
        <time>2023-03-24T20:23:00Z</time>
      </trkpt>
      <trkpt lat="67.39357" lon="18.52091">
        <time>2023-03-24T20:23:00Z</time>
      </trkpt>
      <trkpt lat="67.39451" lon="18.51834">
        <time>2023-03-26T07:12:00Z</time>
      </trkpt>
      <trkpt lat="67.39451" lon="18.51834">
        <time>2023-03-26T07:12:00Z</time>
      </trkpt>
      <trkpt lat="67.39449" lon="18.51855">
        <time>2023-03-26T07:12:00Z</time>
      </trkpt>
      <trkpt lat="67.39449" lon="18.51855">
        <time>2023-03-26T07:12:00Z</time>
      </trkpt>
      <trkpt lat="67.50643" lon="18.41731">
        <time>2023-03-26T11:12:00Z</time>
      </trkpt>
      <trkpt lat="67.50643" lon="18.41731">
        <time>2023-03-26T11:12:00Z</time>
      </trkpt>
      <trkpt lat="67.58638" lon="18.37738">
        <time>2023-03-26T15:12:00Z</time>
      </trkpt>
      <trkpt lat="67.58638" lon="18.37738">
        <time>2023-03-26T15:12:00Z</time>
      </trkpt>
      <trkpt lat="67.69482" lon="18.15557">
        <time>2023-03-26T19:12:00Z</time>
      </trkpt>
      <trkpt lat="67.69482" lon="18.15557">
        <time>2023-03-26T19:12:00Z</time>
      </trkpt>
      <trkpt lat="67.69475" lon="18.15534">
        <time>2023-03-26T19:41:00Z</time>
      </trkpt>
      <trkpt lat="67.69475" lon="18.15534">
        <time>2023-03-26T19:41:00Z</time>
      </trkpt>
      <trkpt lat="67.69465" lon="18.15583">
        <time>2023-03-26T19:42:00Z</time>
      </trkpt>
      <trkpt lat="67.69465" lon="18.15583">
        <time>2023-03-26T19:42:00Z</time>
      </trkpt>
      <trkpt lat="67.69498" lon="18.15553">
        <time>2023-03-27T07:57:00Z</time>
      </trkpt>
      <trkpt lat="67.69495" lon="18.15555">
        <time>2023-03-27T07:57:00Z</time>
      </trkpt>
      <trkpt lat="67.69498" lon="18.15553">
        <time>2023-03-27T07:57:00Z</time>
      </trkpt>
      <trkpt lat="67.69495" lon="18.15555">
        <time>2023-03-27T07:57:00Z</time>
      </trkpt>
      <trkpt lat="67.708" lon="18.19124">
        <time>2023-03-27T11:57:00Z</time>
      </trkpt>
      <trkpt lat="67.708" lon="18.19124">
        <time>2023-03-27T11:57:00Z</time>
      </trkpt>
      <trkpt lat="67.74653" lon="18.29689">
        <time>2023-03-27T13:59:00Z</time>
      </trkpt>
      <trkpt lat="67.74653" lon="18.29689">
        <time>2023-03-27T13:59:00Z</time>
      </trkpt>
      <trkpt lat="67.7466" lon="18.29676">
        <time>2023-03-27T13:59:00Z</time>
      </trkpt>
      <trkpt lat="67.7466" lon="18.29676">
        <time>2023-03-27T13:59:00Z</time>
      </trkpt>
      <trkpt lat="67.74639" lon="18.29631">
        <time>2023-03-28T06:47:00Z</time>
      </trkpt>
      <trkpt lat="67.74643" lon="18.2964">
        <time>2023-03-28T06:47:00Z</time>
      </trkpt>
      <trkpt lat="67.74639" lon="18.29631">
        <time>2023-03-28T06:47:00Z</time>
      </trkpt>
      <trkpt lat="67.74643" lon="18.2964">
        <time>2023-03-28T06:47:00Z</time>
      </trkpt>
      <trkpt lat="67.83652" lon="18.31185">
        <time>2023-03-28T10:47:00Z</time>
      </trkpt>
      <trkpt lat="67.83652" lon="18.31185">
        <time>2023-03-28T10:47:00Z</time>
      </trkpt>
      <trkpt lat="67.9393" lon="18.28913">
        <time>2023-03-28T14:47:00Z</time>
      </trkpt>
      <trkpt lat="67.9393" lon="18.28913">
        <time>2023-03-28T14:47:00Z</time>
      </trkpt>
      <trkpt lat="67.94612" lon="18.2828">
        <time>2023-03-28T15:46:00Z</time>
      </trkpt>
      <trkpt lat="67.94612" lon="18.2828">
        <time>2023-03-28T15:46:00Z</time>
      </trkpt>
      <trkpt lat="67.94619" lon="18.28273">
        <time>2023-03-28T15:47:00Z</time>
      </trkpt>
      <trkpt lat="67.94619" lon="18.28273">
        <time>2023-03-28T15:47:00Z</time>
      </trkpt>
      <trkpt lat="67.94623" lon="18.2832">
        <time>2023-03-29T06:44:00Z</time>
      </trkpt>
      <trkpt lat="67.94623" lon="18.2832">
        <time>2023-03-29T06:44:00Z</time>
      </trkpt>
      <trkpt lat="67.94626" lon="18.28318">
        <time>2023-03-29T06:45:00Z</time>
      </trkpt>
      <trkpt lat="67.94626" lon="18.28318">
        <time>2023-03-29T06:45:00Z</time>
      </trkpt>
      <trkpt lat="68.01952" lon="18.24724">
        <time>2023-03-29T11:33:00Z</time>
      </trkpt>
      <trkpt lat="68.01952" lon="18.24724">
        <time>2023-03-29T11:33:00Z</time>
      </trkpt>
      <trkpt lat="68.13677" lon="18.41532">
        <time>2023-03-29T15:33:00Z</time>
      </trkpt>
      <trkpt lat="68.13677" lon="18.41532">
        <time>2023-03-29T15:33:00Z</time>
      </trkpt>
      <trkpt lat="68.13663" lon="18.41191">
        <time>2023-03-29T16:23:00Z</time>
      </trkpt>
      <trkpt lat="68.13663" lon="18.41191">
        <time>2023-03-29T16:23:00Z</time>
      </trkpt>
      <trkpt lat="68.13655" lon="18.41169">
        <time>2023-03-29T16:23:00Z</time>
      </trkpt>
      <trkpt lat="68.13655" lon="18.41169">
        <time>2023-03-29T16:23:00Z</time>
      </trkpt>
      <trkpt lat="68.13666" lon="18.4118">
        <time>2023-03-30T06:49:00Z</time>
      </trkpt>
      <trkpt lat="68.13666" lon="18.4118">
        <time>2023-03-30T06:49:00Z</time>
      </trkpt>
      <trkpt lat="68.13665" lon="18.41214">
        <time>2023-03-30T06:49:00Z</time>
      </trkpt>
      <trkpt lat="68.13665" lon="18.41214">
        <time>2023-03-30T06:49:00Z</time>
      </trkpt>
      <trkpt lat="68.22569" lon="18.57848">
        <time>2023-03-30T10:49:00Z</time>
      </trkpt>
      <trkpt lat="68.22569" lon="18.57848">
        <time>2023-03-30T10:49:00Z</time>
      </trkpt>
      <trkpt lat="68.28622" lon="18.59146">
        <time>2023-03-30T13:01:00Z</time>
      </trkpt>
      <trkpt lat="68.28622" lon="18.59146">
        <time>2023-03-30T13:01:00Z</time>
      </trkpt>
      <trkpt lat="68.28626" lon="18.59142">
        <time>2023-03-31T06:14:00Z</time>
      </trkpt>
      <trkpt lat="68.28626" lon="18.59142">
        <time>2023-03-31T06:14:00Z</time>
      </trkpt>
      <trkpt lat="68.28626" lon="18.59142">
        <time>2023-03-31T06:35:00Z</time>
      </trkpt>
      <trkpt lat="68.28626" lon="18.59142">
        <time>2023-03-31T06:35:00Z</time>
      </trkpt>
      <trkpt lat="68.30088" lon="18.64627">
        <time>2023-03-31T07:16:00Z</time>
      </trkpt>
      <trkpt lat="68.30088" lon="18.64627">
        <time>2023-03-31T07:16:00Z</time>
      </trkpt>
      <trkpt lat="68.3133" lon="18.71272">
        <time>2023-03-31T07:56:00Z</time>
      </trkpt>
      <trkpt lat="68.3133" lon="18.71272">
        <time>2023-03-31T07:56:00Z</time>
      </trkpt>
      <trkpt lat="68.32126" lon="18.75999">
        <time>2023-03-31T08:26:00Z</time>
      </trkpt>
      <trkpt lat="68.32126" lon="18.75999">
        <time>2023-03-31T08:26:00Z</time>
      </trkpt>
      <trkpt lat="68.33642" lon="18.75778">
        <time>2023-03-31T08:56:00Z</time>
      </trkpt>
      <trkpt lat="68.33642" lon="18.75778">
        <time>2023-03-31T08:56:00Z</time>
      </trkpt>
      <trkpt lat="68.35054" lon="18.76643">
        <time>2023-03-31T09:26:00Z</time>
      </trkpt>
      <trkpt lat="68.35054" lon="18.76643">
        <time>2023-03-31T09:26:00Z</time>
      </trkpt>
      <trkpt lat="68.35837" lon="18.78413">
        <time>2023-03-31T09:57:00Z</time>
      </trkpt>
      <trkpt lat="68.35837" lon="18.78413">
        <time>2023-03-31T09:57:00Z</time>
      </trkpt>
      <trkpt lat="68.3584" lon="18.78285">
        <time>2023-03-31T12:50:00Z</time>
      </trkpt>
      <trkpt lat="68.3584" lon="18.78285">
        <time>2023-03-31T12:50:00Z</time>
      </trkpt>
      <trkpt lat="68.36147" lon="18.78096">
        <time>2023-03-31T13:10:00Z</time>
      </trkpt>
      <trkpt lat="68.36147" lon="18.78096">
        <time>2023-03-31T13:10:00Z</time>
      </trkpt>
      <trkpt lat="68.37276" lon="18.76669">
        <time>2023-03-31T13:30:00Z</time>
      </trkpt>
      <trkpt lat="68.37276" lon="18.76669">
        <time>2023-03-31T13:30:00Z</time>
      </trkpt>
      <trkpt lat="68.38383" lon="18.743">
        <time>2023-03-31T13:50:00Z</time>
      </trkpt>
      <trkpt lat="68.38383" lon="18.743">
        <time>2023-03-31T13:50:00Z</time>
      </trkpt>
      <trkpt lat="68.39191" lon="18.71828">
        <time>2023-03-31T14:10:00Z</time>
      </trkpt>
      <trkpt lat="68.39191" lon="18.71828">
        <time>2023-03-31T14:10:00Z</time>
      </trkpt>
      <trkpt lat="68.40218" lon="18.70309">
        <time>2023-03-31T14:30:00Z</time>
      </trkpt>
      <trkpt lat="68.40218" lon="18.70309">
        <time>2023-03-31T14:30:00Z</time>
      </trkpt>
      <trkpt lat="68.40818" lon="18.6947">
        <time>2023-03-31T14:50:00Z</time>
      </trkpt>
      <trkpt lat="68.40818" lon="18.6947">
        <time>2023-03-31T14:50:00Z</time>
      </trkpt>
      <trkpt lat="68.40291" lon="18.68744">
        <time>2023-03-31T15:10:00Z</time>
      </trkpt>
      <trkpt lat="68.40291" lon="18.68744">
        <time>2023-03-31T15:10:00Z</time>
      </trkpt>
      <trkpt lat="68.40461" lon="18.68592">
        <time>2023-03-31T15:30:00Z</time>
      </trkpt>
      <trkpt lat="68.40461" lon="18.68592">
        <time>2023-03-31T15:30:00Z</time>
      </trkpt>
      <trkpt lat="68.40599" lon="18.68526">
        <time>2023-03-31T15:43:00Z</time>
      </trkpt>
      <trkpt lat="68.40599" lon="18.68526">
        <time>2023-03-31T15:43:00Z</time>
      </trkpt>
      <trkpt lat="68.40897" lon="18.6818">
        <time>2023-04-02T07:21:00Z</time>
      </trkpt>
      <trkpt lat="68.40897" lon="18.6818">
        <time>2023-04-02T07:21:00Z</time>
      </trkpt>
      <trkpt lat="68.40519" lon="18.68678">
        <time>2023-04-02T08:08:00Z</time>
      </trkpt>
      <trkpt lat="68.40519" lon="18.68678">
        <time>2023-04-02T08:08:00Z</time>
      </trkpt>
      <trkpt lat="68.49323" lon="18.61453">
        <time>2023-04-02T11:21:00Z</time>
      </trkpt>
      <trkpt lat="68.49323" lon="18.61453">
        <time>2023-04-02T11:21:00Z</time>
      </trkpt>
      <trkpt lat="68.51065" lon="18.6294">
        <time>2023-04-02T15:21:00Z</time>
      </trkpt>
      <trkpt lat="68.51065" lon="18.6294">
        <time>2023-04-02T15:21:00Z</time>
      </trkpt>
      <trkpt lat="68.51396" lon="18.63191">
        <time>2023-04-02T17:05:00Z</time>
      </trkpt>
      <trkpt lat="68.51396" lon="18.63191">
        <time>2023-04-02T17:05:00Z</time>
      </trkpt>
      <trkpt lat="68.51424" lon="18.63093">
        <time>2023-04-02T17:13:00Z</time>
      </trkpt>
      <trkpt lat="68.51424" lon="18.63093">
        <time>2023-04-02T17:13:00Z</time>
      </trkpt>
      <trkpt lat="68.51413" lon="18.63228">
        <time>2023-04-03T07:25:00Z</time>
      </trkpt>
      <trkpt lat="68.51413" lon="18.63228">
        <time>2023-04-03T07:25:00Z</time>
      </trkpt>
      <trkpt lat="68.51409" lon="18.63221">
        <time>2023-04-03T07:25:00Z</time>
      </trkpt>
      <trkpt lat="68.51409" lon="18.63221">
        <time>2023-04-03T07:25:00Z</time>
      </trkpt>
      <trkpt lat="68.53317" lon="18.74341">
        <time>2023-04-03T11:25:00Z</time>
      </trkpt>
      <trkpt lat="68.53317" lon="18.74341">
        <time>2023-04-03T11:25:00Z</time>
      </trkpt>
      <trkpt lat="68.65832" lon="18.89204">
        <time>2023-04-03T15:25:00Z</time>
      </trkpt>
      <trkpt lat="68.65832" lon="18.89204">
        <time>2023-04-03T15:25:00Z</time>
      </trkpt>
      <trkpt lat="68.65888" lon="19.11857">
        <time>2023-04-03T17:55:00Z</time>
      </trkpt>
      <trkpt lat="68.65888" lon="19.11857">
        <time>2023-04-03T17:55:00Z</time>
      </trkpt>
      <trkpt lat="68.65881" lon="19.11859">
        <time>2023-04-03T17:56:00Z</time>
      </trkpt>
      <trkpt lat="68.65881" lon="19.11859">
        <time>2023-04-03T17:56:00Z</time>
      </trkpt>
      <trkpt lat="68.65922" lon="19.12025">
        <time>2023-04-04T06:41:00Z</time>
      </trkpt>
      <trkpt lat="68.65922" lon="19.12025">
        <time>2023-04-04T06:41:00Z</time>
      </trkpt>
      <trkpt lat="68.6592" lon="19.1202">
        <time>2023-04-04T06:41:00Z</time>
      </trkpt>
      <trkpt lat="68.6592" lon="19.1202">
        <time>2023-04-04T06:41:00Z</time>
      </trkpt>
      <trkpt lat="68.67764" lon="19.30244">
        <time>2023-04-04T10:41:00Z</time>
      </trkpt>
      <trkpt lat="68.67764" lon="19.30244">
        <time>2023-04-04T10:41:00Z</time>
      </trkpt>
      <trkpt lat="68.66178" lon="19.64437">
        <time>2023-04-04T14:41:00Z</time>
      </trkpt>
      <trkpt lat="68.66178" lon="19.64437">
        <time>2023-04-04T14:41:00Z</time>
      </trkpt>
      <trkpt lat="68.68076" lon="19.77979">
        <time>2023-04-04T18:41:00Z</time>
      </trkpt>
      <trkpt lat="68.68076" lon="19.77979">
        <time>2023-04-04T18:41:00Z</time>
      </trkpt>
      <trkpt lat="68.68769" lon="19.77202">
        <time>2023-04-04T20:27:00Z</time>
      </trkpt>
      <trkpt lat="68.68769" lon="19.77202">
        <time>2023-04-04T20:27:00Z</time>
      </trkpt>
      <trkpt lat="68.68775" lon="19.77217">
        <time>2023-04-04T20:28:00Z</time>
      </trkpt>
      <trkpt lat="68.68775" lon="19.77217">
        <time>2023-04-04T20:28:00Z</time>
      </trkpt>
      <trkpt lat="68.68803" lon="19.77189">
        <time>2023-04-05T05:48:00Z</time>
      </trkpt>
      <trkpt lat="68.68803" lon="19.77189">
        <time>2023-04-05T05:48:00Z</time>
      </trkpt>
      <trkpt lat="68.688" lon="19.77196">
        <time>2023-04-05T05:48:00Z</time>
      </trkpt>
      <trkpt lat="68.688" lon="19.77196">
        <time>2023-04-05T05:48:00Z</time>
      </trkpt>
      <trkpt lat="68.7284" lon="19.82258">
        <time>2023-04-05T09:48:00Z</time>
      </trkpt>
      <trkpt lat="68.7284" lon="19.82258">
        <time>2023-04-05T09:48:00Z</time>
      </trkpt>
      <trkpt lat="68.76539" lon="19.95607">
        <time>2023-04-05T13:48:00Z</time>
      </trkpt>
      <trkpt lat="68.76539" lon="19.95607">
        <time>2023-04-05T13:48:00Z</time>
      </trkpt>
      <trkpt lat="68.81883" lon="20.10959">
        <time>2023-04-05T16:18:00Z</time>
      </trkpt>
      <trkpt lat="68.81883" lon="20.10959">
        <time>2023-04-05T16:18:00Z</time>
      </trkpt>
      <trkpt lat="68.81804" lon="20.10837">
        <time>2023-04-05T16:19:00Z</time>
      </trkpt>
      <trkpt lat="68.81804" lon="20.10837">
        <time>2023-04-05T16:19:00Z</time>
      </trkpt>
      <trkpt lat="68.81897" lon="20.10914">
        <time>2023-04-06T06:03:00Z</time>
      </trkpt>
      <trkpt lat="68.81894" lon="20.10906">
        <time>2023-04-06T06:03:00Z</time>
      </trkpt>
      <trkpt lat="68.81897" lon="20.10914">
        <time>2023-04-06T06:03:00Z</time>
      </trkpt>
      <trkpt lat="68.81894" lon="20.10906">
        <time>2023-04-06T06:03:00Z</time>
      </trkpt>
      <trkpt lat="68.87164" lon="20.29664">
        <time>2023-04-06T10:03:00Z</time>
      </trkpt>
      <trkpt lat="68.87164" lon="20.29664">
        <time>2023-04-06T10:03:00Z</time>
      </trkpt>
      <trkpt lat="68.95508" lon="20.3575">
        <time>2023-04-06T14:03:00Z</time>
      </trkpt>
      <trkpt lat="68.95508" lon="20.3575">
        <time>2023-04-06T14:03:00Z</time>
      </trkpt>
      <trkpt lat="68.97397" lon="20.3688">
        <time>2023-04-06T17:14:00Z</time>
      </trkpt>
      <trkpt lat="68.97397" lon="20.3688">
        <time>2023-04-06T17:14:00Z</time>
      </trkpt>
      <trkpt lat="68.97397" lon="20.3688">
        <time>2023-04-06T17:14:00Z</time>
      </trkpt>
      <trkpt lat="68.97397" lon="20.3688">
        <time>2023-04-06T17:14:00Z</time>
      </trkpt>
      <trkpt lat="68.97498" lon="20.36891">
        <time>2023-04-07T05:00:00Z</time>
      </trkpt>
      <trkpt lat="68.97498" lon="20.36891">
        <time>2023-04-07T05:00:00Z</time>
      </trkpt>
      <trkpt lat="68.975" lon="20.36889">
        <time>2023-04-07T05:01:00Z</time>
      </trkpt>
      <trkpt lat="68.975" lon="20.36889">
        <time>2023-04-07T05:01:00Z</time>
      </trkpt>
      <trkpt lat="68.98221" lon="20.41597">
        <time>2023-04-07T06:01:00Z</time>
      </trkpt>
      <trkpt lat="68.98221" lon="20.41597">
        <time>2023-04-07T06:01:00Z</time>
      </trkpt>
      <trkpt lat="68.99554" lon="20.46296">
        <time>2023-04-07T07:01:00Z</time>
      </trkpt>
      <trkpt lat="68.99554" lon="20.46296">
        <time>2023-04-07T07:01:00Z</time>
      </trkpt>
      <trkpt lat="69.0213" lon="20.50671">
        <time>2023-04-07T08:01:00Z</time>
      </trkpt>
      <trkpt lat="69.0213" lon="20.50671">
        <time>2023-04-07T08:01:00Z</time>
      </trkpt>
      <trkpt lat="69.05995" lon="20.5487">
        <time>2023-04-07T09:01:00Z</time>
      </trkpt>
      <trkpt lat="69.05995" lon="20.5487">
        <time>2023-04-07T09:01:00Z</time>
      </trkpt>
      <trkpt lat="69.05991" lon="20.5489">
        <time>2023-04-07T09:17:00Z</time>
      </trkpt>
      <trkpt lat="69.05991" lon="20.5489">
        <time>2023-04-07T09:17:00Z</time>
      </trkpt>
      <trkpt lat="69.05991" lon="20.5489">
        <time>2023-04-07T10:01:00Z</time>
      </trkpt>
      <trkpt lat="69.05991" lon="20.5489">
        <time>2023-04-07T10:01:00Z</time>
      </trkpt>
      <trkpt lat="69.0599" lon="20.54916">
        <time>2023-04-07T10:02:00Z</time>
      </trkpt>
      <trkpt lat="69.0599" lon="20.54916">
        <time>2023-04-07T10:02:00Z</time>
      </trkpt>
    </trkseg>
  </trk>
</gpx>
