<?xml version="1.0" encoding="UTF-8"?>
<gpx xmlns="http://www.topografix.com/GPX/1/1" version="1.1" creator="VitaBandet">
  <metadata>
    <name>Rosa Vita Bandet</name>
  </metadata>
  <trk>
    <name>Rosa Vita Bandet</name>
    <trkseg>
      <trkpt lat="62.04389" lon="12.39298">
        <time>2025-02-15T04:26:00Z</time>
      </trkpt>
      <trkpt lat="62.0439" lon="12.39298">
        <time>2025-02-15T08:26:00Z</time>
      </trkpt>
      <trkpt lat="62.09877" lon="12.31294">
        <time>2025-02-15T08:53:00Z</time>
      </trkpt>
      <trkpt lat="62.09849" lon="12.31998">
        <time>2025-02-15T09:23:00Z</time>
      </trkpt>
      <trkpt lat="62.10815" lon="12.33511">
        <time>2025-02-15T09:53:00Z</time>
      </trkpt>
      <trkpt lat="62.125" lon="12.35537">
        <time>2025-02-15T10:23:00Z</time>
      </trkpt>
      <trkpt lat="62.14485" lon="12.36663">
        <time>2025-02-15T10:53:00Z</time>
      </trkpt>
      <trkpt lat="62.16761" lon="12.37983">
        <time>2025-02-15T11:23:00Z</time>
      </trkpt>
      <trkpt lat="62.18651" lon="12.39088">
        <time>2025-02-15T11:53:00Z</time>
      </trkpt>
      <trkpt lat="62.18651" lon="12.39088">
        <time>2025-02-15T12:23:00Z</time>
      </trkpt>
      <trkpt lat="62.20168" lon="12.38131">
        <time>2025-02-15T12:53:00Z</time>
      </trkpt>
      <trkpt lat="62.21682" lon="12.35479">
        <time>2025-02-15T13:23:00Z</time>
      </trkpt>
      <trkpt lat="62.23494" lon="12.35137">
        <time>2025-02-15T13:53:00Z</time>
      </trkpt>
      <trkpt lat="62.25181" lon="12.34904">
        <time>2025-02-15T14:23:00Z</time>
      </trkpt>
      <trkpt lat="62.25956" lon="12.37163">
        <time>2025-02-15T14:54:00Z</time>
      </trkpt>
      <trkpt lat="62.27764" lon="12.39358">
        <time>2025-02-15T15:24:00Z</time>
      </trkpt>
      <trkpt lat="62.28052" lon="12.39841">
        <time>2025-02-15T15:54:00Z</time>
      </trkpt>
      <trkpt lat="62.28071" lon="12.39839">
        <time>2025-02-15T16:24:00Z</time>
      </trkpt>
      <trkpt lat="62.28048" lon="12.39837">
        <time>2025-02-15T20:24:00Z</time>
      </trkpt>
      <trkpt lat="62.28049" lon="12.39841">
        <time>2025-02-16T00:24:00Z</time>
      </trkpt>
      <trkpt lat="62.28039" lon="12.39858">
        <time>2025-02-16T04:24:00Z</time>
      </trkpt>
      <trkpt lat="62.28049" lon="12.39841">
        <time>2025-02-16T08:24:00Z</time>
      </trkpt>
      <trkpt lat="62.29263" lon="12.41107">
        <time>2025-02-16T09:24:00Z</time>
      </trkpt>
      <trkpt lat="62.30641" lon="12.43684">
        <time>2025-02-16T09:54:00Z</time>
      </trkpt>
      <trkpt lat="62.32371" lon="12.43049">
        <time>2025-02-16T10:24:00Z</time>
      </trkpt>
      <trkpt lat="62.33536" lon="12.39877">
        <time>2025-02-16T10:54:00Z</time>
      </trkpt>
      <trkpt lat="62.34739" lon="12.36363">
        <time>2025-02-16T11:24:00Z</time>
      </trkpt>
      <trkpt lat="62.35939" lon="12.34133">
        <time>2025-02-16T11:54:00Z</time>
      </trkpt>
      <trkpt lat="62.37395" lon="12.32889">
        <time>2025-02-16T12:24:00Z</time>
      </trkpt>
      <trkpt lat="62.38457" lon="12.29812">
        <time>2025-02-16T12:55:00Z</time>
      </trkpt>
      <trkpt lat="62.38793" lon="12.28799">
        <time>2025-02-16T13:25:00Z</time>
      </trkpt>
      <trkpt lat="62.39916" lon="12.27848">
        <time>2025-02-16T13:55:00Z</time>
      </trkpt>
      <trkpt lat="62.41448" lon="12.27853">
        <time>2025-02-16T14:25:00Z</time>
      </trkpt>
      <trkpt lat="62.42752" lon="12.294">
        <time>2025-02-16T14:55:00Z</time>
      </trkpt>
      <trkpt lat="62.44121" lon="12.28552">
        <time>2025-02-16T15:25:00Z</time>
      </trkpt>
      <trkpt lat="62.45591" lon="12.28046">
        <time>2025-02-16T15:55:00Z</time>
      </trkpt>
      <trkpt lat="62.46754" lon="12.28432">
        <time>2025-02-16T16:25:00Z</time>
      </trkpt>
      <trkpt lat="62.46757" lon="12.28425">
        <time>2025-02-16T16:55:00Z</time>
      </trkpt>
      <trkpt lat="62.46745" lon="12.28423">
        <time>2025-02-16T20:56:00Z</time>
      </trkpt>
      <trkpt lat="62.46756" lon="12.28432">
        <time>2025-02-17T00:55:00Z</time>
      </trkpt>
      <trkpt lat="62.46753" lon="12.28434">
        <time>2025-02-17T04:56:00Z</time>
      </trkpt>
      <trkpt lat="62.46748" lon="12.28425">
        <time>2025-02-17T08:55:00Z</time>
      </trkpt>
      <trkpt lat="62.47057" lon="12.28769">
        <time>2025-02-17T09:25:00Z</time>
      </trkpt>
      <trkpt lat="62.47402" lon="12.28698">
        <time>2025-02-17T09:55:00Z</time>
      </trkpt>
      <trkpt lat="62.48685" lon="12.27089">
        <time>2025-02-17T10:25:00Z</time>
      </trkpt>
      <trkpt lat="62.50519" lon="12.27301">
        <time>2025-02-17T10:55:00Z</time>
      </trkpt>
      <trkpt lat="62.52789" lon="12.29816">
        <time>2025-02-17T11:26:00Z</time>
      </trkpt>
      <trkpt lat="62.54005" lon="12.30593">
        <time>2025-02-17T11:56:00Z</time>
      </trkpt>
      <trkpt lat="62.54477" lon="12.3155">
        <time>2025-02-17T12:26:00Z</time>
      </trkpt>
      <trkpt lat="62.54377" lon="12.33017">
        <time>2025-02-17T12:56:00Z</time>
      </trkpt>
      <trkpt lat="62.54687" lon="12.32213">
        <time>2025-02-17T13:26:00Z</time>
      </trkpt>
      <trkpt lat="62.54867" lon="12.32189">
        <time>2025-02-17T13:56:00Z</time>
      </trkpt>
      <trkpt lat="62.55275" lon="12.33575">
        <time>2025-02-17T14:26:00Z</time>
      </trkpt>
      <trkpt lat="62.56063" lon="12.36026">
        <time>2025-02-17T14:56:00Z</time>
      </trkpt>
      <trkpt lat="62.56799" lon="12.37579">
        <time>2025-02-17T15:26:00Z</time>
      </trkpt>
      <trkpt lat="62.5712" lon="12.37702">
        <time>2025-02-17T15:56:00Z</time>
      </trkpt>
      <trkpt lat="62.57124" lon="12.37687">
        <time>2025-02-17T16:26:00Z</time>
      </trkpt>
      <trkpt lat="62.57082" lon="12.37654">
        <time>2025-02-17T20:26:00Z</time>
      </trkpt>
      <trkpt lat="62.57123" lon="12.37682">
        <time>2025-02-18T00:27:00Z</time>
      </trkpt>
      <trkpt lat="62.57129" lon="12.37667">
        <time>2025-02-18T04:27:00Z</time>
      </trkpt>
      <trkpt lat="62.57129" lon="12.37706">
        <time>2025-02-18T08:27:00Z</time>
      </trkpt>
      <trkpt lat="62.58263" lon="12.38815">
        <time>2025-02-18T08:57:00Z</time>
      </trkpt>
      <trkpt lat="62.60652" lon="12.38513">
        <time>2025-02-18T09:27:00Z</time>
      </trkpt>
      <trkpt lat="62.6198" lon="12.37558">
        <time>2025-02-18T09:57:00Z</time>
      </trkpt>
      <trkpt lat="62.63873" lon="12.3906">
        <time>2025-02-18T10:27:00Z</time>
      </trkpt>
      <trkpt lat="62.64487" lon="12.42465">
        <time>2025-02-18T10:57:00Z</time>
      </trkpt>
      <trkpt lat="62.64624" lon="12.43122">
        <time>2025-02-18T11:27:00Z</time>
      </trkpt>
      <trkpt lat="62.64619" lon="12.4316">
        <time>2025-02-18T11:57:00Z</time>
      </trkpt>
      <trkpt lat="62.6466" lon="12.43111">
        <time>2025-02-18T20:03:00Z</time>
      </trkpt>
      <trkpt lat="62.64705" lon="12.43083">
        <time>2025-02-19T04:20:00Z</time>
      </trkpt>
      <trkpt lat="62.64611" lon="12.43171">
        <time>2025-02-19T07:21:00Z</time>
      </trkpt>
      <trkpt lat="62.64622" lon="12.43169">
        <time>2025-02-19T08:05:00Z</time>
      </trkpt>
      <trkpt lat="62.66108" lon="12.42847">
        <time>2025-02-19T09:04:00Z</time>
      </trkpt>
      <trkpt lat="62.68215" lon="12.41695">
        <time>2025-02-19T09:34:00Z</time>
      </trkpt>
      <trkpt lat="62.70239" lon="12.39506">
        <time>2025-02-19T10:04:00Z</time>
      </trkpt>
      <trkpt lat="62.71233" lon="12.38672">
        <time>2025-02-19T10:34:00Z</time>
      </trkpt>
      <trkpt lat="62.71941" lon="12.39144">
        <time>2025-02-19T11:04:00Z</time>
      </trkpt>
      <trkpt lat="62.73293" lon="12.39152">
        <time>2025-02-19T11:34:00Z</time>
      </trkpt>
      <trkpt lat="62.75062" lon="12.37266">
        <time>2025-02-19T12:04:00Z</time>
      </trkpt>
      <trkpt lat="62.76654" lon="12.35155">
        <time>2025-02-19T12:34:00Z</time>
      </trkpt>
      <trkpt lat="62.76664" lon="12.35159">
        <time>2025-02-19T13:04:00Z</time>
      </trkpt>
      <trkpt lat="62.78665" lon="12.3812">
        <time>2025-02-19T13:34:00Z</time>
      </trkpt>
      <trkpt lat="62.79801" lon="12.40551">
        <time>2025-02-19T14:04:00Z</time>
      </trkpt>
      <trkpt lat="62.81833" lon="12.44581">
        <time>2025-02-19T15:05:00Z</time>
      </trkpt>
      <trkpt lat="62.81834" lon="12.44583">
        <time>2025-02-19T15:36:00Z</time>
      </trkpt>
      <trkpt lat="62.81828" lon="12.44592">
        <time>2025-02-19T19:36:00Z</time>
      </trkpt>
      <trkpt lat="62.81812" lon="12.44334">
        <time>2025-02-19T21:36:00Z</time>
      </trkpt>
      <trkpt lat="62.8182" lon="12.44577">
        <time>2025-02-19T22:06:00Z</time>
      </trkpt>
      <trkpt lat="62.81818" lon="12.4457">
        <time>2025-02-19T22:36:00Z</time>
      </trkpt>
      <trkpt lat="62.81834" lon="12.44596">
        <time>2025-02-20T02:36:00Z</time>
      </trkpt>
      <trkpt lat="62.81872" lon="12.44753">
        <time>2025-02-20T05:36:00Z</time>
      </trkpt>
      <trkpt lat="62.81827" lon="12.44583">
        <time>2025-02-20T06:06:00Z</time>
      </trkpt>
      <trkpt lat="62.81825" lon="12.44577">
        <time>2025-02-20T06:36:00Z</time>
      </trkpt>
      <trkpt lat="62.8391" lon="12.46806">
        <time>2025-02-20T09:36:00Z</time>
      </trkpt>
      <trkpt lat="62.86116" lon="12.48847">
        <time>2025-02-20T10:06:00Z</time>
      </trkpt>
      <trkpt lat="62.88039" lon="12.50508">
        <time>2025-02-20T10:36:00Z</time>
      </trkpt>
      <trkpt lat="62.89252" lon="12.51128">
        <time>2025-02-20T11:06:00Z</time>
      </trkpt>
      <trkpt lat="62.91352" lon="12.50763">
        <time>2025-02-20T11:36:00Z</time>
      </trkpt>
      <trkpt lat="62.91694" lon="12.50596">
        <time>2025-02-20T12:06:00Z</time>
      </trkpt>
      <trkpt lat="62.91717" lon="12.506">
        <time>2025-02-20T12:36:00Z</time>
      </trkpt>
      <trkpt lat="62.91046" lon="12.56385">
        <time>2025-02-20T13:06:00Z</time>
      </trkpt>
      <trkpt lat="62.91747" lon="12.60657">
        <time>2025-02-20T13:36:00Z</time>
      </trkpt>
      <trkpt lat="62.93268" lon="12.63657">
        <time>2025-02-20T14:06:00Z</time>
      </trkpt>
      <trkpt lat="62.9556" lon="12.64228">
        <time>2025-02-20T14:36:00Z</time>
      </trkpt>
      <trkpt lat="62.97572" lon="12.6568">
        <time>2025-02-20T15:06:00Z</time>
      </trkpt>
      <trkpt lat="62.97569" lon="12.65665">
        <time>2025-02-20T15:36:00Z</time>
      </trkpt>
      <trkpt lat="62.97621" lon="12.65635">
        <time>2025-02-20T19:36:00Z</time>
      </trkpt>
      <trkpt lat="62.97621" lon="12.65635">
        <time>2025-02-20T23:36:00Z</time>
      </trkpt>
      <trkpt lat="62.97623" lon="12.65631">
        <time>2025-02-21T03:36:00Z</time>
      </trkpt>
      <trkpt lat="62.97623" lon="12.65637">
        <time>2025-02-21T07:36:00Z</time>
      </trkpt>
      <trkpt lat="62.98355" lon="12.67534">
        <time>2025-02-21T09:06:00Z</time>
      </trkpt>
      <trkpt lat="62.99145" lon="12.70251">
        <time>2025-02-21T09:36:00Z</time>
      </trkpt>
      <trkpt lat="63.00695" lon="12.74744">
        <time>2025-02-21T10:07:00Z</time>
      </trkpt>
      <trkpt lat="63.02582" lon="12.76695">
        <time>2025-02-21T10:37:00Z</time>
      </trkpt>
      <trkpt lat="63.03935" lon="12.79448">
        <time>2025-02-21T11:07:00Z</time>
      </trkpt>
      <trkpt lat="63.06195" lon="12.79774">
        <time>2025-02-21T11:37:00Z</time>
      </trkpt>
      <trkpt lat="63.07258" lon="12.81061">
        <time>2025-02-21T12:07:00Z</time>
      </trkpt>
      <trkpt lat="63.08125" lon="12.81913">
        <time>2025-02-21T12:37:00Z</time>
      </trkpt>
      <trkpt lat="63.09932" lon="12.81057">
        <time>2025-02-21T13:07:00Z</time>
      </trkpt>
      <trkpt lat="63.11484" lon="12.84784">
        <time>2025-02-21T13:37:00Z</time>
      </trkpt>
      <trkpt lat="63.1304" lon="12.87217">
        <time>2025-02-21T14:07:00Z</time>
      </trkpt>
      <trkpt lat="63.14119" lon="12.91226">
        <time>2025-02-21T14:39:00Z</time>
      </trkpt>
      <trkpt lat="63.14535" lon="12.9541">
        <time>2025-02-21T15:09:00Z</time>
      </trkpt>
      <trkpt lat="63.14854" lon="12.96753">
        <time>2025-02-21T16:56:00Z</time>
      </trkpt>
      <trkpt lat="63.14866" lon="12.96749">
        <time>2025-02-21T20:56:00Z</time>
      </trkpt>
      <trkpt lat="63.14865" lon="12.9674">
        <time>2025-02-22T00:56:00Z</time>
      </trkpt>
      <trkpt lat="63.14863" lon="12.96751">
        <time>2025-02-22T04:56:00Z</time>
      </trkpt>
      <trkpt lat="63.14864" lon="12.96747">
        <time>2025-02-22T08:56:00Z</time>
      </trkpt>
      <trkpt lat="63.15226" lon="12.99227">
        <time>2025-02-22T09:56:00Z</time>
      </trkpt>
      <trkpt lat="63.16132" lon="13.04776">
        <time>2025-02-22T10:26:00Z</time>
      </trkpt>
      <trkpt lat="63.17711" lon="13.06134">
        <time>2025-02-22T10:56:00Z</time>
      </trkpt>
      <trkpt lat="63.19269" lon="13.05403">
        <time>2025-02-22T11:26:00Z</time>
      </trkpt>
      <trkpt lat="63.2106" lon="13.04495">
        <time>2025-02-22T11:56:00Z</time>
      </trkpt>
      <trkpt lat="63.21704" lon="13.05574">
        <time>2025-02-22T12:26:00Z</time>
      </trkpt>
      <trkpt lat="63.21712" lon="13.06765">
        <time>2025-02-22T12:57:00Z</time>
      </trkpt>
      <trkpt lat="63.21725" lon="13.06772">
        <time>2025-02-22T13:27:00Z</time>
      </trkpt>
      <trkpt lat="63.21722" lon="13.06778">
        <time>2025-02-22T17:30:00Z</time>
      </trkpt>
      <trkpt lat="63.21711" lon="13.06802">
        <time>2025-02-22T21:27:00Z</time>
      </trkpt>
      <trkpt lat="63.21764" lon="13.06967">
        <time>2025-02-23T01:27:00Z</time>
      </trkpt>
      <trkpt lat="63.2174" lon="13.06821">
        <time>2025-02-23T01:57:00Z</time>
      </trkpt>
      <trkpt lat="63.21738" lon="13.06797">
        <time>2025-02-23T05:57:00Z</time>
      </trkpt>
      <trkpt lat="63.22238" lon="13.06821">
        <time>2025-02-23T09:26:00Z</time>
      </trkpt>
      <trkpt lat="63.24328" lon="13.09139">
        <time>2025-02-23T09:56:00Z</time>
      </trkpt>
      <trkpt lat="63.2514" lon="13.10806">
        <time>2025-02-23T10:26:00Z</time>
      </trkpt>
      <trkpt lat="63.25325" lon="13.13342">
        <time>2025-02-23T10:56:00Z</time>
      </trkpt>
      <trkpt lat="63.25963" lon="13.18659">
        <time>2025-02-23T11:26:00Z</time>
      </trkpt>
      <trkpt lat="63.25967" lon="13.18659">
        <time>2025-02-23T11:56:00Z</time>
      </trkpt>
      <trkpt lat="63.27392" lon="13.19876">
        <time>2025-02-23T12:56:00Z</time>
      </trkpt>
      <trkpt lat="63.29337" lon="13.21434">
        <time>2025-02-23T13:26:00Z</time>
      </trkpt>
      <trkpt lat="63.30561" lon="13.2">
        <time>2025-02-23T13:57:00Z</time>
      </trkpt>
      <trkpt lat="63.30771" lon="13.22668">
        <time>2025-02-23T14:27:00Z</time>
      </trkpt>
      <trkpt lat="63.30875" lon="13.26708">
        <time>2025-02-23T14:57:00Z</time>
      </trkpt>
      <trkpt lat="63.31526" lon="13.27652">
        <time>2025-02-23T15:27:00Z</time>
      </trkpt>
      <trkpt lat="63.31615" lon="13.27476">
        <time>2025-02-23T15:58:00Z</time>
      </trkpt>
      <trkpt lat="63.31618" lon="13.27489">
        <time>2025-02-23T16:28:00Z</time>
      </trkpt>
      <trkpt lat="63.31627" lon="13.275">
        <time>2025-02-23T20:28:00Z</time>
      </trkpt>
      <trkpt lat="63.31673" lon="13.27511">
        <time>2025-02-24T00:45:00Z</time>
      </trkpt>
      <trkpt lat="63.31548" lon="13.27459">
        <time>2025-02-24T01:16:00Z</time>
      </trkpt>
      <trkpt lat="63.31608" lon="13.27425">
        <time>2025-02-24T01:47:00Z</time>
      </trkpt>
      <trkpt lat="63.31573" lon="13.27626">
        <time>2025-02-24T05:47:00Z</time>
      </trkpt>
      <trkpt lat="63.31619" lon="13.27506">
        <time>2025-02-24T06:22:00Z</time>
      </trkpt>
      <trkpt lat="63.31508" lon="13.27504">
        <time>2025-02-24T09:24:00Z</time>
      </trkpt>
      <trkpt lat="63.31614" lon="13.27601">
        <time>2025-02-24T09:54:00Z</time>
      </trkpt>
      <trkpt lat="63.31606" lon="13.27541">
        <time>2025-02-24T10:25:00Z</time>
      </trkpt>
      <trkpt lat="63.3162" lon="13.27313">
        <time>2025-02-24T11:15:00Z</time>
      </trkpt>
      <trkpt lat="63.31619" lon="13.2744">
        <time>2025-02-24T11:45:00Z</time>
      </trkpt>
      <trkpt lat="63.31635" lon="13.27706">
        <time>2025-02-24T12:19:00Z</time>
      </trkpt>
      <trkpt lat="63.31583" lon="13.27463">
        <time>2025-02-24T12:49:00Z</time>
      </trkpt>
      <trkpt lat="63.31603" lon="13.27405">
        <time>2025-02-24T13:19:00Z</time>
      </trkpt>
      <trkpt lat="63.31564" lon="13.27206">
        <time>2025-02-24T14:21:00Z</time>
      </trkpt>
      <trkpt lat="63.31579" lon="13.27566">
        <time>2025-02-24T14:52:00Z</time>
      </trkpt>
      <trkpt lat="63.31614" lon="13.27502">
        <time>2025-02-24T15:23:00Z</time>
      </trkpt>
      <trkpt lat="63.31561" lon="13.27757">
        <time>2025-02-24T16:02:00Z</time>
      </trkpt>
      <trkpt lat="63.31615" lon="13.27468">
        <time>2025-02-24T16:32:00Z</time>
      </trkpt>
      <trkpt lat="63.31598" lon="13.27573">
        <time>2025-02-24T17:13:00Z</time>
      </trkpt>
      <trkpt lat="63.31617" lon="13.27375">
        <time>2025-02-24T19:38:00Z</time>
      </trkpt>
      <trkpt lat="63.31567" lon="13.27569">
        <time>2025-02-24T22:20:00Z</time>
      </trkpt>
      <trkpt lat="63.31593" lon="13.27511">
        <time>2025-02-24T22:50:00Z</time>
      </trkpt>
      <trkpt lat="63.31598" lon="13.27309">
        <time>2025-02-24T23:24:00Z</time>
      </trkpt>
      <trkpt lat="63.31597" lon="13.27489">
        <time>2025-02-24T23:54:00Z</time>
      </trkpt>
      <trkpt lat="63.31577" lon="13.27292">
        <time>2025-02-25T01:03:00Z</time>
      </trkpt>
      <trkpt lat="63.31597" lon="13.275">
        <time>2025-02-25T01:33:00Z</time>
      </trkpt>
      <trkpt lat="63.31605" lon="13.27487">
        <time>2025-02-25T04:15:00Z</time>
      </trkpt>
      <trkpt lat="63.31681" lon="13.27094">
        <time>2025-02-25T05:04:00Z</time>
      </trkpt>
      <trkpt lat="63.31605" lon="13.27515">
        <time>2025-02-25T05:34:00Z</time>
      </trkpt>
      <trkpt lat="63.31582" lon="13.27693">
        <time>2025-02-25T06:04:00Z</time>
      </trkpt>
      <trkpt lat="63.3163" lon="13.27483">
        <time>2025-02-25T06:47:00Z</time>
      </trkpt>
      <trkpt lat="63.31595" lon="13.275">
        <time>2025-02-25T07:17:00Z</time>
      </trkpt>
      <trkpt lat="63.31611" lon="13.2697">
        <time>2025-02-25T08:46:00Z</time>
      </trkpt>
      <trkpt lat="63.32431" lon="13.25736">
        <time>2025-02-25T09:16:00Z</time>
      </trkpt>
      <trkpt lat="63.33681" lon="13.26549">
        <time>2025-02-25T09:46:00Z</time>
      </trkpt>
      <trkpt lat="63.3527" lon="13.26127">
        <time>2025-02-25T10:16:00Z</time>
      </trkpt>
      <trkpt lat="63.366" lon="13.24086">
        <time>2025-02-25T10:46:00Z</time>
      </trkpt>
      <trkpt lat="63.37874" lon="13.22213">
        <time>2025-02-25T11:16:00Z</time>
      </trkpt>
      <trkpt lat="63.39403" lon="13.2">
        <time>2025-02-25T11:46:00Z</time>
      </trkpt>
      <trkpt lat="63.40428" lon="13.2093">
        <time>2025-02-25T12:16:00Z</time>
      </trkpt>
      <trkpt lat="63.40414" lon="13.20964">
        <time>2025-02-25T12:47:00Z</time>
      </trkpt>
      <trkpt lat="63.40659" lon="13.21914">
        <time>2025-02-25T13:17:00Z</time>
      </trkpt>
      <trkpt lat="63.42081" lon="13.22138">
        <time>2025-02-25T13:47:00Z</time>
      </trkpt>
      <trkpt lat="63.44187" lon="13.22498">
        <time>2025-02-25T14:17:00Z</time>
      </trkpt>
      <trkpt lat="63.45157" lon="13.20811">
        <time>2025-02-25T14:47:00Z</time>
      </trkpt>
      <trkpt lat="63.46601" lon="13.21764">
        <time>2025-02-25T15:17:00Z</time>
      </trkpt>
      <trkpt lat="63.47311" lon="13.22595">
        <time>2025-02-25T15:47:00Z</time>
      </trkpt>
      <trkpt lat="63.47666" lon="13.21653">
        <time>2025-02-25T16:17:00Z</time>
      </trkpt>
      <trkpt lat="63.47671" lon="13.21648">
        <time>2025-02-25T16:47:00Z</time>
      </trkpt>
      <trkpt lat="63.47674" lon="13.21655">
        <time>2025-02-25T20:47:00Z</time>
      </trkpt>
      <trkpt lat="63.47674" lon="13.21653">
        <time>2025-02-26T00:47:00Z</time>
      </trkpt>
      <trkpt lat="63.47683" lon="13.21635">
        <time>2025-02-26T04:47:00Z</time>
      </trkpt>
      <trkpt lat="63.47667" lon="13.2167">
        <time>2025-02-26T08:47:00Z</time>
      </trkpt>
      <trkpt lat="63.48136" lon="13.20854">
        <time>2025-02-26T09:17:00Z</time>
      </trkpt>
      <trkpt lat="63.50121" lon="13.20895">
        <time>2025-02-26T09:47:00Z</time>
      </trkpt>
      <trkpt lat="63.52074" lon="13.20968">
        <time>2025-02-26T10:17:00Z</time>
      </trkpt>
      <trkpt lat="63.53034" lon="13.20749">
        <time>2025-02-26T10:48:00Z</time>
      </trkpt>
      <trkpt lat="63.53943" lon="13.1926">
        <time>2025-02-26T11:18:00Z</time>
      </trkpt>
      <trkpt lat="63.55145" lon="13.16518">
        <time>2025-02-26T11:48:00Z</time>
      </trkpt>
      <trkpt lat="63.56098" lon="13.15797">
        <time>2025-02-26T12:18:00Z</time>
      </trkpt>
      <trkpt lat="63.56551" lon="13.17185">
        <time>2025-02-26T12:48:00Z</time>
      </trkpt>
      <trkpt lat="63.57408" lon="13.17262">
        <time>2025-02-26T13:18:00Z</time>
      </trkpt>
      <trkpt lat="63.5921" lon="13.18835">
        <time>2025-02-26T13:48:00Z</time>
      </trkpt>
      <trkpt lat="63.60054" lon="13.17758">
        <time>2025-02-26T14:18:00Z</time>
      </trkpt>
      <trkpt lat="63.61489" lon="13.21058">
        <time>2025-02-26T14:48:00Z</time>
      </trkpt>
      <trkpt lat="63.62344" lon="13.21801">
        <time>2025-02-26T15:18:00Z</time>
      </trkpt>
      <trkpt lat="63.62857" lon="13.22264">
        <time>2025-02-26T15:48:00Z</time>
      </trkpt>
      <trkpt lat="63.62847" lon="13.22283">
        <time>2025-02-26T16:18:00Z</time>
      </trkpt>
      <trkpt lat="63.62846" lon="13.22238">
        <time>2025-02-26T20:18:00Z</time>
      </trkpt>
      <trkpt lat="63.62848" lon="13.2226">
        <time>2025-02-27T00:18:00Z</time>
      </trkpt>
      <trkpt lat="63.62847" lon="13.22258">
        <time>2025-02-27T04:19:00Z</time>
      </trkpt>
      <trkpt lat="63.62849" lon="13.2226">
        <time>2025-02-27T08:18:00Z</time>
      </trkpt>
      <trkpt lat="63.63814" lon="13.23326">
        <time>2025-02-27T09:18:00Z</time>
      </trkpt>
      <trkpt lat="63.64065" lon="13.28725">
        <time>2025-02-27T09:48:00Z</time>
      </trkpt>
      <trkpt lat="63.65965" lon="13.29021">
        <time>2025-02-27T10:18:00Z</time>
      </trkpt>
      <trkpt lat="63.67129" lon="13.30781">
        <time>2025-02-27T10:48:00Z</time>
      </trkpt>
      <trkpt lat="63.67652" lon="13.35675">
        <time>2025-02-27T11:19:00Z</time>
      </trkpt>
      <trkpt lat="63.6829" lon="13.37169">
        <time>2025-02-27T11:49:00Z</time>
      </trkpt>
      <trkpt lat="63.68308" lon="13.37272">
        <time>2025-02-27T12:19:00Z</time>
      </trkpt>
      <trkpt lat="63.68929" lon="13.41823">
        <time>2025-02-27T12:49:00Z</time>
      </trkpt>
      <trkpt lat="63.69272" lon="13.45728">
        <time>2025-02-27T13:19:00Z</time>
      </trkpt>
      <trkpt lat="63.68955" lon="13.5041">
        <time>2025-02-27T13:49:00Z</time>
      </trkpt>
      <trkpt lat="63.69363" lon="13.53949">
        <time>2025-02-27T14:19:00Z</time>
      </trkpt>
      <trkpt lat="63.69057" lon="13.58326">
        <time>2025-02-27T14:49:00Z</time>
      </trkpt>
      <trkpt lat="63.69537" lon="13.62399">
        <time>2025-02-27T15:19:00Z</time>
      </trkpt>
      <trkpt lat="63.6964" lon="13.62622">
        <time>2025-02-27T15:49:00Z</time>
      </trkpt>
      <trkpt lat="63.69646" lon="13.62611">
        <time>2025-02-27T16:20:00Z</time>
      </trkpt>
      <trkpt lat="63.69588" lon="13.62439">
        <time>2025-02-27T20:23:00Z</time>
      </trkpt>
      <trkpt lat="63.69617" lon="13.62555">
        <time>2025-02-27T20:53:00Z</time>
      </trkpt>
      <trkpt lat="63.69624" lon="13.6257">
        <time>2025-02-28T00:53:00Z</time>
      </trkpt>
      <trkpt lat="63.69623" lon="13.62568">
        <time>2025-02-28T04:53:00Z</time>
      </trkpt>
      <trkpt lat="63.70191" lon="13.62755">
        <time>2025-02-28T08:53:00Z</time>
      </trkpt>
      <trkpt lat="63.72026" lon="13.61493">
        <time>2025-02-28T09:23:00Z</time>
      </trkpt>
      <trkpt lat="63.73824" lon="13.62549">
        <time>2025-02-28T09:53:00Z</time>
      </trkpt>
      <trkpt lat="63.75174" lon="13.65207">
        <time>2025-02-28T10:23:00Z</time>
      </trkpt>
      <trkpt lat="63.74829" lon="13.69928">
        <time>2025-02-28T10:53:00Z</time>
      </trkpt>
      <trkpt lat="63.74939" lon="13.75413">
        <time>2025-02-28T11:23:00Z</time>
      </trkpt>
      <trkpt lat="63.76104" lon="13.78455">
        <time>2025-02-28T11:53:00Z</time>
      </trkpt>
      <trkpt lat="63.76192" lon="13.79331">
        <time>2025-02-28T12:23:00Z</time>
      </trkpt>
      <trkpt lat="63.77279" lon="13.8208">
        <time>2025-02-28T12:53:00Z</time>
      </trkpt>
      <trkpt lat="63.78054" lon="13.82118">
        <time>2025-02-28T13:23:00Z</time>
      </trkpt>
      <trkpt lat="63.78049" lon="13.82116">
        <time>2025-02-28T13:53:00Z</time>
      </trkpt>
      <trkpt lat="63.78356" lon="13.82856">
        <time>2025-02-28T14:23:00Z</time>
      </trkpt>
      <trkpt lat="63.80543" lon="13.83552">
        <time>2025-02-28T14:54:00Z</time>
      </trkpt>
      <trkpt lat="63.82385" lon="13.84685">
        <time>2025-02-28T15:24:00Z</time>
      </trkpt>
      <trkpt lat="63.84177" lon="13.87641">
        <time>2025-02-28T15:54:00Z</time>
      </trkpt>
      <trkpt lat="63.86116" lon="13.8783">
        <time>2025-02-28T16:24:00Z</time>
      </trkpt>
      <trkpt lat="63.86116" lon="13.87828">
        <time>2025-02-28T16:54:00Z</time>
      </trkpt>
      <trkpt lat="63.86144" lon="13.87828">
        <time>2025-02-28T20:54:00Z</time>
      </trkpt>
      <trkpt lat="63.8612" lon="13.87826">
        <time>2025-03-01T00:54:00Z</time>
      </trkpt>
      <trkpt lat="63.86118" lon="13.87828">
        <time>2025-03-01T04:54:00Z</time>
      </trkpt>
      <trkpt lat="63.87175" lon="13.86841">
        <time>2025-03-01T08:54:00Z</time>
      </trkpt>
      <trkpt lat="63.89207" lon="13.86041">
        <time>2025-03-01T09:24:00Z</time>
      </trkpt>
      <trkpt lat="63.90942" lon="13.86656">
        <time>2025-03-01T09:54:00Z</time>
      </trkpt>
      <trkpt lat="63.93251" lon="13.89311">
        <time>2025-03-01T10:24:00Z</time>
      </trkpt>
      <trkpt lat="63.95778" lon="13.93834">
        <time>2025-03-01T10:54:00Z</time>
      </trkpt>
      <trkpt lat="63.96182" lon="13.94973">
        <time>2025-03-01T11:24:00Z</time>
      </trkpt>
      <trkpt lat="63.97389" lon="13.95506">
        <time>2025-03-01T11:54:00Z</time>
      </trkpt>
      <trkpt lat="63.99268" lon="13.98113">
        <time>2025-03-01T12:24:00Z</time>
      </trkpt>
      <trkpt lat="64.00068" lon="13.99958">
        <time>2025-03-01T12:54:00Z</time>
      </trkpt>
      <trkpt lat="64.01172" lon="14.0155">
        <time>2025-03-01T13:24:00Z</time>
      </trkpt>
      <trkpt lat="64.01617" lon="14.00868">
        <time>2025-03-01T13:54:00Z</time>
      </trkpt>
      <trkpt lat="64.02112" lon="14.02997">
        <time>2025-03-01T14:24:00Z</time>
      </trkpt>
      <trkpt lat="64.02794" lon="14.0788">
        <time>2025-03-01T14:54:00Z</time>
      </trkpt>
      <trkpt lat="64.04964" lon="14.09811">
        <time>2025-03-01T15:25:00Z</time>
      </trkpt>
      <trkpt lat="64.06682" lon="14.0994">
        <time>2025-03-01T15:55:00Z</time>
      </trkpt>
      <trkpt lat="64.06709" lon="14.14101">
        <time>2025-03-01T16:25:00Z</time>
      </trkpt>
      <trkpt lat="64.06474" lon="14.1238">
        <time>2025-03-01T16:55:00Z</time>
      </trkpt>
      <trkpt lat="64.06257" lon="14.12676">
        <time>2025-03-01T17:25:00Z</time>
      </trkpt>
      <trkpt lat="64.06265" lon="14.12678">
        <time>2025-03-01T17:55:00Z</time>
      </trkpt>
      <trkpt lat="64.06249" lon="14.12687">
        <time>2025-03-01T21:55:00Z</time>
      </trkpt>
      <trkpt lat="64.06247" lon="14.12674">
        <time>2025-03-02T01:55:00Z</time>
      </trkpt>
      <trkpt lat="64.06248" lon="14.12691">
        <time>2025-03-02T05:55:00Z</time>
      </trkpt>
      <trkpt lat="64.06241" lon="14.12674">
        <time>2025-03-02T09:55:00Z</time>
      </trkpt>
      <trkpt lat="64.06324" lon="14.12762">
        <time>2025-03-02T12:16:00Z</time>
      </trkpt>
      <trkpt lat="64.06224" lon="14.12704">
        <time>2025-03-02T14:16:00Z</time>
      </trkpt>
      <trkpt lat="64.06243" lon="14.12683">
        <time>2025-03-02T16:16:00Z</time>
      </trkpt>
      <trkpt lat="64.06251" lon="14.12672">
        <time>2025-03-02T20:16:00Z</time>
      </trkpt>
      <trkpt lat="64.0625" lon="14.12676">
        <time>2025-03-03T00:16:00Z</time>
      </trkpt>
      <trkpt lat="64.06247" lon="14.12674">
        <time>2025-03-03T04:16:00Z</time>
      </trkpt>
      <trkpt lat="64.06838" lon="14.13912">
        <time>2025-03-03T08:16:00Z</time>
      </trkpt>
      <trkpt lat="64.07889" lon="14.17811">
        <time>2025-03-03T09:16:00Z</time>
      </trkpt>
      <trkpt lat="64.08786" lon="14.19343">
        <time>2025-03-03T10:16:00Z</time>
      </trkpt>
      <trkpt lat="64.08977" lon="14.29087">
        <time>2025-03-03T11:16:00Z</time>
      </trkpt>
      <trkpt lat="64.0987" lon="14.34915">
        <time>2025-03-03T12:16:00Z</time>
      </trkpt>
      <trkpt lat="64.10521" lon="14.36138">
        <time>2025-03-03T13:16:00Z</time>
      </trkpt>
      <trkpt lat="64.11478" lon="14.35537">
        <time>2025-03-03T14:16:00Z</time>
      </trkpt>
      <trkpt lat="64.11797" lon="14.34917">
        <time>2025-03-03T15:16:00Z</time>
      </trkpt>
      <trkpt lat="64.11802" lon="14.34928">
        <time>2025-03-03T16:16:00Z</time>
      </trkpt>
      <trkpt lat="64.118" lon="14.34915">
        <time>2025-03-03T20:17:00Z</time>
      </trkpt>
      <trkpt lat="64.11802" lon="14.34911">
        <time>2025-03-04T00:16:00Z</time>
      </trkpt>
      <trkpt lat="64.11801" lon="14.34913">
        <time>2025-03-04T04:17:00Z</time>
      </trkpt>
      <trkpt lat="64.12192" lon="14.33827">
        <time>2025-03-04T07:29:00Z</time>
      </trkpt>
      <trkpt lat="64.11802" lon="14.34904">
        <time>2025-03-04T08:29:00Z</time>
      </trkpt>
      <trkpt lat="64.12256" lon="14.34187">
        <time>2025-03-04T09:29:00Z</time>
      </trkpt>
      <trkpt lat="64.13823" lon="14.34136">
        <time>2025-03-04T10:29:00Z</time>
      </trkpt>
      <trkpt lat="64.16432" lon="14.31679">
        <time>2025-03-04T11:30:00Z</time>
      </trkpt>
      <trkpt lat="64.18795" lon="14.27945">
        <time>2025-03-04T12:30:00Z</time>
      </trkpt>
      <trkpt lat="64.21353" lon="14.28424">
        <time>2025-03-04T13:30:00Z</time>
      </trkpt>
      <trkpt lat="64.24263" lon="14.30713">
        <time>2025-03-04T14:30:00Z</time>
      </trkpt>
      <trkpt lat="64.25461" lon="14.3302">
        <time>2025-03-04T15:30:00Z</time>
      </trkpt>
      <trkpt lat="64.28187" lon="14.30709">
        <time>2025-03-04T16:30:00Z</time>
      </trkpt>
      <trkpt lat="64.30436" lon="14.29293">
        <time>2025-03-04T17:30:00Z</time>
      </trkpt>
      <trkpt lat="64.30446" lon="14.29269">
        <time>2025-03-04T18:30:00Z</time>
      </trkpt>
      <trkpt lat="64.30441" lon="14.29271">
        <time>2025-03-04T22:30:00Z</time>
      </trkpt>
      <trkpt lat="64.30442" lon="14.29276">
        <time>2025-03-05T02:30:00Z</time>
      </trkpt>
      <trkpt lat="64.3034" lon="14.29419">
        <time>2025-03-05T05:30:00Z</time>
      </trkpt>
      <trkpt lat="64.3043" lon="14.29312">
        <time>2025-03-05T06:30:00Z</time>
      </trkpt>
      <trkpt lat="64.30441" lon="14.29274">
        <time>2025-03-05T07:30:00Z</time>
      </trkpt>
      <trkpt lat="64.33343" lon="14.31205">
        <time>2025-03-05T09:30:00Z</time>
      </trkpt>
      <trkpt lat="64.34219" lon="14.36576">
        <time>2025-03-05T10:30:00Z</time>
      </trkpt>
      <trkpt lat="64.36349" lon="14.37889">
        <time>2025-03-05T11:30:00Z</time>
      </trkpt>
      <trkpt lat="64.38873" lon="14.31866">
        <time>2025-03-05T12:30:00Z</time>
      </trkpt>
      <trkpt lat="64.41244" lon="14.25712">
        <time>2025-03-05T13:30:00Z</time>
      </trkpt>
      <trkpt lat="64.43712" lon="14.18613">
        <time>2025-03-05T14:30:00Z</time>
      </trkpt>
      <trkpt lat="64.47038" lon="14.14775">
        <time>2025-03-05T15:30:00Z</time>
      </trkpt>
      <trkpt lat="64.5032" lon="14.14644">
        <time>2025-03-05T16:30:00Z</time>
      </trkpt>
      <trkpt lat="64.50671" lon="14.1432">
        <time>2025-03-05T17:30:00Z</time>
      </trkpt>
      <trkpt lat="64.50668" lon="14.14356">
        <time>2025-03-05T18:30:00Z</time>
      </trkpt>
      <trkpt lat="64.50666" lon="14.14322">
        <time>2025-03-05T19:30:00Z</time>
      </trkpt>
      <trkpt lat="64.50676" lon="14.14311">
        <time>2025-03-05T23:31:00Z</time>
      </trkpt>
      <trkpt lat="64.50669" lon="14.1433">
        <time>2025-03-06T03:30:00Z</time>
      </trkpt>
      <trkpt lat="64.50672" lon="14.14311">
        <time>2025-03-06T07:31:00Z</time>
      </trkpt>
      <trkpt lat="64.5067" lon="14.14324">
        <time>2025-03-06T11:30:00Z</time>
      </trkpt>
      <trkpt lat="64.50662" lon="14.1432">
        <time>2025-03-06T15:30:00Z</time>
      </trkpt>
      <trkpt lat="64.50668" lon="14.14324">
        <time>2025-03-06T19:30:00Z</time>
      </trkpt>
      <trkpt lat="64.50668" lon="14.14318">
        <time>2025-03-06T23:30:00Z</time>
      </trkpt>
      <trkpt lat="64.50669" lon="14.14322">
        <time>2025-03-07T03:30:00Z</time>
      </trkpt>
      <trkpt lat="64.50667" lon="14.1432">
        <time>2025-03-07T07:15:00Z</time>
      </trkpt>
      <trkpt lat="64.50235" lon="14.15532">
        <time>2025-03-07T09:15:00Z</time>
      </trkpt>
      <trkpt lat="64.51793" lon="14.26787">
        <time>2025-03-07T11:16:00Z</time>
      </trkpt>
      <trkpt lat="64.5519" lon="14.3093">
        <time>2025-03-07T13:16:00Z</time>
      </trkpt>
      <trkpt lat="64.59386" lon="14.25851">
        <time>2025-03-07T15:16:00Z</time>
      </trkpt>
      <trkpt lat="64.65313" lon="14.28289">
        <time>2025-03-07T17:16:00Z</time>
      </trkpt>
      <trkpt lat="64.65974" lon="14.28844">
        <time>2025-03-07T19:16:00Z</time>
      </trkpt>
      <trkpt lat="64.65951" lon="14.28834">
        <time>2025-03-07T23:20:00Z</time>
      </trkpt>
      <trkpt lat="64.65952" lon="14.28808">
        <time>2025-03-08T03:35:00Z</time>
      </trkpt>
      <trkpt lat="64.65947" lon="14.28804">
        <time>2025-03-08T07:47:00Z</time>
      </trkpt>
      <trkpt lat="64.68699" lon="14.19414">
        <time>2025-03-08T11:34:00Z</time>
      </trkpt>
      <trkpt lat="64.7309" lon="14.19961">
        <time>2025-03-08T13:34:00Z</time>
      </trkpt>
      <trkpt lat="64.78044" lon="14.23422">
        <time>2025-03-08T15:34:00Z</time>
      </trkpt>
      <trkpt lat="64.78039" lon="14.23401">
        <time>2025-03-08T17:34:00Z</time>
      </trkpt>
      <trkpt lat="64.78055" lon="14.23364">
        <time>2025-03-08T21:34:00Z</time>
      </trkpt>
      <trkpt lat="64.78064" lon="14.23366">
        <time>2025-03-09T01:34:00Z</time>
      </trkpt>
      <trkpt lat="64.78055" lon="14.2339">
        <time>2025-03-09T05:34:00Z</time>
      </trkpt>
      <trkpt lat="64.78005" lon="14.23544">
        <time>2025-03-09T07:34:00Z</time>
      </trkpt>
      <trkpt lat="64.80606" lon="14.23167">
        <time>2025-03-09T09:34:00Z</time>
      </trkpt>
      <trkpt lat="64.84891" lon="14.30836">
        <time>2025-03-09T11:34:00Z</time>
      </trkpt>
      <trkpt lat="64.87657" lon="14.40296">
        <time>2025-03-09T13:34:00Z</time>
      </trkpt>
      <trkpt lat="64.88272" lon="14.39908">
        <time>2025-03-09T15:35:00Z</time>
      </trkpt>
      <trkpt lat="64.88275" lon="14.39895">
        <time>2025-03-09T17:35:00Z</time>
      </trkpt>
      <trkpt lat="64.88274" lon="14.39893">
        <time>2025-03-09T21:39:00Z</time>
      </trkpt>
      <trkpt lat="64.88268" lon="14.3988">
        <time>2025-03-10T01:35:00Z</time>
      </trkpt>
      <trkpt lat="64.88267" lon="14.39899">
        <time>2025-03-10T05:40:00Z</time>
      </trkpt>
      <trkpt lat="64.89191" lon="14.46766">
        <time>2025-03-10T09:35:00Z</time>
      </trkpt>
      <trkpt lat="64.92368" lon="14.56297">
        <time>2025-03-10T11:35:00Z</time>
      </trkpt>
      <trkpt lat="64.9453" lon="14.62301">
        <time>2025-03-10T13:35:00Z</time>
      </trkpt>
      <trkpt lat="64.98406" lon="14.71788">
        <time>2025-03-10T15:35:00Z</time>
      </trkpt>
      <trkpt lat="64.98396" lon="14.71807">
        <time>2025-03-10T17:35:00Z</time>
      </trkpt>
      <trkpt lat="64.9839" lon="14.71753">
        <time>2025-03-10T21:35:00Z</time>
      </trkpt>
      <trkpt lat="64.98393" lon="14.71792">
        <time>2025-03-11T01:35:00Z</time>
      </trkpt>
      <trkpt lat="64.98394" lon="14.71796">
        <time>2025-03-11T05:35:00Z</time>
      </trkpt>
      <trkpt lat="65.04863" lon="14.74704">
        <time>2025-03-11T09:35:00Z</time>
      </trkpt>
      <trkpt lat="65.06297" lon="14.80892">
        <time>2025-03-11T11:35:00Z</time>
      </trkpt>
      <trkpt lat="65.06297" lon="14.80888">
        <time>2025-03-11T13:35:00Z</time>
      </trkpt>
      <trkpt lat="65.06318" lon="14.80875">
        <time>2025-03-11T17:35:00Z</time>
      </trkpt>
      <trkpt lat="65.063" lon="14.80896">
        <time>2025-03-11T21:35:00Z</time>
      </trkpt>
      <trkpt lat="65.06297" lon="14.80894">
        <time>2025-03-12T01:35:00Z</time>
      </trkpt>
      <trkpt lat="65.063" lon="14.80886">
        <time>2025-03-12T05:35:00Z</time>
      </trkpt>
      <trkpt lat="65.07241" lon="14.78804">
        <time>2025-03-12T09:35:00Z</time>
      </trkpt>
      <trkpt lat="65.12479" lon="14.70951">
        <time>2025-03-12T11:35:00Z</time>
      </trkpt>
      <trkpt lat="65.17875" lon="14.57115">
        <time>2025-03-12T13:35:00Z</time>
      </trkpt>
      <trkpt lat="65.18244" lon="14.56696">
        <time>2025-03-12T15:36:00Z</time>
      </trkpt>
      <trkpt lat="65.18238" lon="14.5669">
        <time>2025-03-12T17:37:00Z</time>
      </trkpt>
      <trkpt lat="65.18223" lon="14.56619">
        <time>2025-03-12T21:37:00Z</time>
      </trkpt>
      <trkpt lat="65.18244" lon="14.56636">
        <time>2025-03-13T01:37:00Z</time>
      </trkpt>
      <trkpt lat="65.18241" lon="14.56681">
        <time>2025-03-13T05:37:00Z</time>
      </trkpt>
      <trkpt lat="65.20447" lon="14.62666">
        <time>2025-03-13T09:37:00Z</time>
      </trkpt>
      <trkpt lat="65.22928" lon="14.7718">
        <time>2025-03-13T11:37:00Z</time>
      </trkpt>
      <trkpt lat="65.24205" lon="14.87211">
        <time>2025-03-13T13:37:00Z</time>
      </trkpt>
      <trkpt lat="65.25339" lon="14.93217">
        <time>2025-03-13T15:37:00Z</time>
      </trkpt>
      <trkpt lat="65.25321" lon="14.9322">
        <time>2025-03-13T17:37:00Z</time>
      </trkpt>
      <trkpt lat="65.25334" lon="14.93177">
        <time>2025-03-13T21:38:00Z</time>
      </trkpt>
      <trkpt lat="65.25329" lon="14.93202">
        <time>2025-03-14T01:38:00Z</time>
      </trkpt>
      <trkpt lat="65.25325" lon="14.93205">
        <time>2025-03-14T05:38:00Z</time>
      </trkpt>
      <trkpt lat="65.28898" lon="15.01867">
        <time>2025-03-14T09:38:00Z</time>
      </trkpt>
      <trkpt lat="65.34089" lon="15.10268">
        <time>2025-03-14T11:38:00Z</time>
      </trkpt>
      <trkpt lat="65.39564" lon="15.13364">
        <time>2025-03-14T13:38:00Z</time>
      </trkpt>
      <trkpt lat="65.43316" lon="15.23277">
        <time>2025-03-14T15:38:00Z</time>
      </trkpt>
      <trkpt lat="65.43782" lon="15.23915">
        <time>2025-03-14T17:38:00Z</time>
      </trkpt>
      <trkpt lat="65.43785" lon="15.23932">
        <time>2025-03-14T19:38:00Z</time>
      </trkpt>
      <trkpt lat="65.43779" lon="15.23915">
        <time>2025-03-14T23:38:00Z</time>
      </trkpt>
      <trkpt lat="65.43783" lon="15.23917">
        <time>2025-03-15T03:39:00Z</time>
      </trkpt>
      <trkpt lat="65.43783" lon="15.23913">
        <time>2025-03-15T07:39:00Z</time>
      </trkpt>
      <trkpt lat="65.46154" lon="15.26494">
        <time>2025-03-15T09:39:00Z</time>
      </trkpt>
      <trkpt lat="65.53297" lon="15.31841">
        <time>2025-03-15T11:39:00Z</time>
      </trkpt>
      <trkpt lat="65.59876" lon="15.28005">
        <time>2025-03-15T13:39:00Z</time>
      </trkpt>
      <trkpt lat="65.6591" lon="15.13456">
        <time>2025-03-15T15:39:00Z</time>
      </trkpt>
      <trkpt lat="65.67285" lon="15.12961">
        <time>2025-03-15T17:39:00Z</time>
      </trkpt>
      <trkpt lat="65.67281" lon="15.12969">
        <time>2025-03-15T19:39:00Z</time>
      </trkpt>
      <trkpt lat="65.67277" lon="15.12982">
        <time>2025-03-15T23:39:00Z</time>
      </trkpt>
      <trkpt lat="65.67281" lon="15.12971">
        <time>2025-03-16T03:40:00Z</time>
      </trkpt>
      <trkpt lat="65.67294" lon="15.12965">
        <time>2025-03-16T07:40:00Z</time>
      </trkpt>
      <trkpt lat="65.68784" lon="15.12115">
        <time>2025-03-16T09:39:00Z</time>
      </trkpt>
      <trkpt lat="65.74679" lon="15.12643">
        <time>2025-03-16T11:39:00Z</time>
      </trkpt>
      <trkpt lat="65.79583" lon="15.07347">
        <time>2025-03-16T13:39:00Z</time>
      </trkpt>
      <trkpt lat="65.81585" lon="15.08886">
        <time>2025-03-16T15:39:00Z</time>
      </trkpt>
      <trkpt lat="65.8131" lon="15.10435">
        <time>2025-03-16T17:39:00Z</time>
      </trkpt>
      <trkpt lat="65.8131" lon="15.10407">
        <time>2025-03-16T19:39:00Z</time>
      </trkpt>
      <trkpt lat="65.81319" lon="15.10416">
        <time>2025-03-16T23:40:00Z</time>
      </trkpt>
      <trkpt lat="65.81311" lon="15.10442">
        <time>2025-03-17T03:40:00Z</time>
      </trkpt>
      <trkpt lat="65.81306" lon="15.10437">
        <time>2025-03-17T07:40:00Z</time>
      </trkpt>
      <trkpt lat="65.81133" lon="15.10974">
        <time>2025-03-17T09:40:00Z</time>
      </trkpt>
      <trkpt lat="65.81132" lon="15.11004">
        <time>2025-03-17T11:40:00Z</time>
      </trkpt>
      <trkpt lat="65.81134" lon="15.10999">
        <time>2025-03-17T15:40:00Z</time>
      </trkpt>
      <trkpt lat="65.81133" lon="15.1098">
        <time>2025-03-17T19:40:00Z</time>
      </trkpt>
      <trkpt lat="65.81129" lon="15.10987">
        <time>2025-03-17T23:40:00Z</time>
      </trkpt>
      <trkpt lat="65.81134" lon="15.10989">
        <time>2025-03-18T03:40:00Z</time>
      </trkpt>
      <trkpt lat="65.81103" lon="15.11047">
        <time>2025-03-18T07:40:00Z</time>
      </trkpt>
      <trkpt lat="65.81129" lon="15.10995">
        <time>2025-03-18T11:40:00Z</time>
      </trkpt>
      <trkpt lat="65.81201" lon="15.10884">
        <time>2025-03-18T15:40:00Z</time>
      </trkpt>
      <trkpt lat="65.81136" lon="15.10993">
        <time>2025-03-18T19:40:00Z</time>
      </trkpt>
      <trkpt lat="65.81132" lon="15.10987">
        <time>2025-03-19T03:40:00Z</time>
      </trkpt>
      <trkpt lat="65.81142" lon="15.10982">
        <time>2025-03-19T07:40:00Z</time>
      </trkpt>
      <trkpt lat="65.82016" lon="15.11456">
        <time>2025-03-19T09:40:00Z</time>
      </trkpt>
      <trkpt lat="65.86958" lon="15.11969">
        <time>2025-03-19T11:40:00Z</time>
      </trkpt>
      <trkpt lat="65.87926" lon="15.24383">
        <time>2025-03-19T13:40:00Z</time>
      </trkpt>
      <trkpt lat="65.87377" lon="15.2891">
        <time>2025-03-19T15:40:00Z</time>
      </trkpt>
      <trkpt lat="65.87269" lon="15.29766">
        <time>2025-03-19T17:40:00Z</time>
      </trkpt>
      <trkpt lat="65.87381" lon="15.28923">
        <time>2025-03-19T19:41:00Z</time>
      </trkpt>
      <trkpt lat="65.87371" lon="15.28932">
        <time>2025-03-19T21:41:00Z</time>
      </trkpt>
      <trkpt lat="65.87369" lon="15.28927">
        <time>2025-03-20T01:41:00Z</time>
      </trkpt>
      <trkpt lat="65.87371" lon="15.28929">
        <time>2025-03-20T05:41:00Z</time>
      </trkpt>
      <trkpt lat="65.87042" lon="15.3318">
        <time>2025-03-20T09:22:00Z</time>
      </trkpt>
      <trkpt lat="65.92188" lon="15.45574">
        <time>2025-03-20T11:22:00Z</time>
      </trkpt>
      <trkpt lat="65.98883" lon="15.49698">
        <time>2025-03-20T13:22:00Z</time>
      </trkpt>
      <trkpt lat="66.00231" lon="15.54475">
        <time>2025-03-20T15:22:00Z</time>
      </trkpt>
      <trkpt lat="65.98986" lon="15.57376">
        <time>2025-03-20T17:22:00Z</time>
      </trkpt>
      <trkpt lat="65.98995" lon="15.57384">
        <time>2025-03-20T19:22:00Z</time>
      </trkpt>
      <trkpt lat="65.98975" lon="15.57397">
        <time>2025-03-20T23:22:00Z</time>
      </trkpt>
      <trkpt lat="65.98992" lon="15.57395">
        <time>2025-03-21T03:22:00Z</time>
      </trkpt>
      <trkpt lat="65.98987" lon="15.57393">
        <time>2025-03-21T07:22:00Z</time>
      </trkpt>
      <trkpt lat="65.96864" lon="15.61923">
        <time>2025-03-21T09:22:00Z</time>
      </trkpt>
      <trkpt lat="65.97228" lon="15.76445">
        <time>2025-03-21T11:22:00Z</time>
      </trkpt>
      <trkpt lat="65.96425" lon="15.90826">
        <time>2025-03-21T13:22:00Z</time>
      </trkpt>
      <trkpt lat="65.9627" lon="16.05561">
        <time>2025-03-21T15:23:00Z</time>
      </trkpt>
      <trkpt lat="65.96266" lon="16.05578">
        <time>2025-03-21T17:23:00Z</time>
      </trkpt>
      <trkpt lat="65.96272" lon="16.05563">
        <time>2025-03-21T21:23:00Z</time>
      </trkpt>
      <trkpt lat="65.96271" lon="16.05561">
        <time>2025-03-22T01:23:00Z</time>
      </trkpt>
      <trkpt lat="65.96272" lon="16.05563">
        <time>2025-03-22T05:23:00Z</time>
      </trkpt>
      <trkpt lat="65.95356" lon="16.16387">
        <time>2025-03-22T09:23:00Z</time>
      </trkpt>
      <trkpt lat="65.95818" lon="16.21174">
        <time>2025-03-22T11:23:00Z</time>
      </trkpt>
      <trkpt lat="65.96322" lon="16.22493">
        <time>2025-03-22T13:23:00Z</time>
      </trkpt>
      <trkpt lat="66.03812" lon="16.2165">
        <time>2025-03-22T15:24:00Z</time>
      </trkpt>
      <trkpt lat="66.04362" lon="16.26107">
        <time>2025-03-22T17:24:00Z</time>
      </trkpt>
      <trkpt lat="66.04363" lon="16.26113">
        <time>2025-03-22T19:24:00Z</time>
      </trkpt>
      <trkpt lat="66.04377" lon="16.2612">
        <time>2025-03-22T23:24:00Z</time>
      </trkpt>
      <trkpt lat="66.04367" lon="16.26107">
        <time>2025-03-23T03:24:00Z</time>
      </trkpt>
      <trkpt lat="66.04365" lon="16.26105">
        <time>2025-03-23T07:24:00Z</time>
      </trkpt>
      <trkpt lat="66.05578" lon="16.26989">
        <time>2025-03-23T09:24:00Z</time>
      </trkpt>
      <trkpt lat="66.13392" lon="16.35847">
        <time>2025-03-23T11:24:00Z</time>
      </trkpt>
      <trkpt lat="66.18338" lon="16.37166">
        <time>2025-03-23T13:24:00Z</time>
      </trkpt>
      <trkpt lat="66.20996" lon="16.37709">
        <time>2025-03-23T15:24:00Z</time>
      </trkpt>
      <trkpt lat="66.20994" lon="16.37728">
        <time>2025-03-23T17:25:00Z</time>
      </trkpt>
      <trkpt lat="66.20992" lon="16.37728">
        <time>2025-03-23T21:25:00Z</time>
      </trkpt>
      <trkpt lat="66.20993" lon="16.37726">
        <time>2025-03-24T01:25:00Z</time>
      </trkpt>
      <trkpt lat="66.20993" lon="16.37724">
        <time>2025-03-24T05:25:00Z</time>
      </trkpt>
      <trkpt lat="66.23196" lon="16.39134">
        <time>2025-03-24T09:24:00Z</time>
      </trkpt>
      <trkpt lat="66.28682" lon="16.54845">
        <time>2025-03-24T11:24:00Z</time>
      </trkpt>
      <trkpt lat="66.2799" lon="16.64087">
        <time>2025-03-24T13:25:00Z</time>
      </trkpt>
      <trkpt lat="66.27912" lon="16.65426">
        <time>2025-03-24T15:25:00Z</time>
      </trkpt>
      <trkpt lat="66.27898" lon="16.6545">
        <time>2025-03-24T17:26:00Z</time>
      </trkpt>
      <trkpt lat="66.27892" lon="16.65413">
        <time>2025-03-24T21:26:00Z</time>
      </trkpt>
      <trkpt lat="66.27887" lon="16.65437">
        <time>2025-03-25T01:26:00Z</time>
      </trkpt>
      <trkpt lat="66.27871" lon="16.6543">
        <time>2025-03-25T05:26:00Z</time>
      </trkpt>
      <trkpt lat="66.29943" lon="16.67638">
        <time>2025-03-25T09:25:00Z</time>
      </trkpt>
      <trkpt lat="66.34276" lon="16.80637">
        <time>2025-03-25T11:26:00Z</time>
      </trkpt>
      <trkpt lat="66.36768" lon="16.91649">
        <time>2025-03-25T13:26:00Z</time>
      </trkpt>
      <trkpt lat="66.39048" lon="16.96731">
        <time>2025-03-25T15:27:00Z</time>
      </trkpt>
      <trkpt lat="66.38812" lon="16.96482">
        <time>2025-03-25T17:32:00Z</time>
      </trkpt>
      <trkpt lat="66.38752" lon="16.96583">
        <time>2025-03-25T19:32:00Z</time>
      </trkpt>
      <trkpt lat="66.38773" lon="16.96274">
        <time>2025-03-25T21:43:00Z</time>
      </trkpt>
      <trkpt lat="66.3875" lon="16.9654">
        <time>2025-03-25T23:44:00Z</time>
      </trkpt>
      <trkpt lat="66.38741" lon="16.96655">
        <time>2025-03-26T01:48:00Z</time>
      </trkpt>
      <trkpt lat="66.38744" lon="16.96887">
        <time>2025-03-26T04:18:00Z</time>
      </trkpt>
      <trkpt lat="66.38745" lon="16.96632">
        <time>2025-03-26T06:18:00Z</time>
      </trkpt>
      <trkpt lat="66.38768" lon="16.96527">
        <time>2025-03-26T08:18:00Z</time>
      </trkpt>
      <trkpt lat="66.40358" lon="17.14942">
        <time>2025-03-26T10:18:00Z</time>
      </trkpt>
      <trkpt lat="66.43784" lon="17.23218">
        <time>2025-03-26T12:18:00Z</time>
      </trkpt>
      <trkpt lat="66.50412" lon="17.23774">
        <time>2025-03-26T14:18:00Z</time>
      </trkpt>
      <trkpt lat="66.56514" lon="17.23531">
        <time>2025-03-26T16:19:00Z</time>
      </trkpt>
      <trkpt lat="66.56513" lon="17.23518">
        <time>2025-03-26T18:19:00Z</time>
      </trkpt>
      <trkpt lat="66.56517" lon="17.23512">
        <time>2025-03-26T22:19:00Z</time>
      </trkpt>
      <trkpt lat="66.56515" lon="17.23516">
        <time>2025-03-27T02:19:00Z</time>
      </trkpt>
      <trkpt lat="66.56513" lon="17.23514">
        <time>2025-03-27T06:19:00Z</time>
      </trkpt>
      <trkpt lat="66.56045" lon="17.30198">
        <time>2025-03-27T09:06:00Z</time>
      </trkpt>
      <trkpt lat="66.59935" lon="17.39502">
        <time>2025-03-27T11:06:00Z</time>
      </trkpt>
      <trkpt lat="66.65288" lon="17.40021">
        <time>2025-03-27T13:06:00Z</time>
      </trkpt>
      <trkpt lat="66.71357" lon="17.39052">
        <time>2025-03-27T15:06:00Z</time>
      </trkpt>
      <trkpt lat="66.71327" lon="17.39">
        <time>2025-03-27T17:06:00Z</time>
      </trkpt>
      <trkpt lat="66.71327" lon="17.38981">
        <time>2025-03-27T21:07:00Z</time>
      </trkpt>
      <trkpt lat="66.71328" lon="17.38987">
        <time>2025-03-28T01:07:00Z</time>
      </trkpt>
      <trkpt lat="66.71336" lon="17.38983">
        <time>2025-03-28T05:07:00Z</time>
      </trkpt>
      <trkpt lat="66.73977" lon="17.40509">
        <time>2025-03-28T09:07:00Z</time>
      </trkpt>
      <trkpt lat="66.78676" lon="17.55254">
        <time>2025-03-28T11:07:00Z</time>
      </trkpt>
      <trkpt lat="66.8209" lon="17.56527">
        <time>2025-03-28T13:07:00Z</time>
      </trkpt>
      <trkpt lat="66.84496" lon="17.58902">
        <time>2025-03-28T15:07:00Z</time>
      </trkpt>
      <trkpt lat="66.84494" lon="17.58915">
        <time>2025-03-28T17:07:00Z</time>
      </trkpt>
      <trkpt lat="66.84495" lon="17.58926">
        <time>2025-03-28T21:08:00Z</time>
      </trkpt>
      <trkpt lat="66.84495" lon="17.58913">
        <time>2025-03-29T01:07:00Z</time>
      </trkpt>
      <trkpt lat="66.84492" lon="17.58902">
        <time>2025-03-29T05:08:00Z</time>
      </trkpt>
      <trkpt lat="66.87199" lon="17.6158">
        <time>2025-03-29T09:07:00Z</time>
      </trkpt>
      <trkpt lat="66.91923" lon="17.69367">
        <time>2025-03-29T11:07:00Z</time>
      </trkpt>
      <trkpt lat="66.95381" lon="17.71948">
        <time>2025-03-29T13:08:00Z</time>
      </trkpt>
      <trkpt lat="66.95402" lon="17.7197">
        <time>2025-03-29T15:08:00Z</time>
      </trkpt>
      <trkpt lat="66.95396" lon="17.71944">
        <time>2025-03-29T19:08:00Z</time>
      </trkpt>
      <trkpt lat="66.95398" lon="17.71938">
        <time>2025-03-29T23:08:00Z</time>
      </trkpt>
      <trkpt lat="66.95399" lon="17.71931">
        <time>2025-03-30T04:08:00Z</time>
      </trkpt>
      <trkpt lat="66.95394" lon="17.71938">
        <time>2025-03-30T08:08:00Z</time>
      </trkpt>
      <trkpt lat="66.95403" lon="17.71946">
        <time>2025-03-30T12:08:00Z</time>
      </trkpt>
      <trkpt lat="66.95381" lon="17.71989">
        <time>2025-03-30T16:08:00Z</time>
      </trkpt>
      <trkpt lat="66.95403" lon="17.7192">
        <time>2025-03-30T20:08:00Z</time>
      </trkpt>
      <trkpt lat="66.95393" lon="17.71938">
        <time>2025-03-31T00:08:00Z</time>
      </trkpt>
      <trkpt lat="66.95406" lon="17.7195">
        <time>2025-03-31T04:08:00Z</time>
      </trkpt>
      <trkpt lat="66.95409" lon="17.71929">
        <time>2025-03-31T08:08:00Z</time>
      </trkpt>
      <trkpt lat="66.98348" lon="17.77592">
        <time>2025-03-31T10:08:00Z</time>
      </trkpt>
      <trkpt lat="67.02976" lon="17.91054">
        <time>2025-03-31T12:08:00Z</time>
      </trkpt>
      <trkpt lat="67.04697" lon="18.03706">
        <time>2025-03-31T14:09:00Z</time>
      </trkpt>
      <trkpt lat="67.06576" lon="18.22406">
        <time>2025-03-31T16:09:00Z</time>
      </trkpt>
      <trkpt lat="67.10064" lon="18.27277">
        <time>2025-03-31T18:09:00Z</time>
      </trkpt>
      <trkpt lat="67.1171" lon="18.28843">
        <time>2025-03-31T20:09:00Z</time>
      </trkpt>
      <trkpt lat="67.11709" lon="18.28848">
        <time>2025-03-31T22:09:00Z</time>
      </trkpt>
      <trkpt lat="67.11712" lon="18.28858">
        <time>2025-04-01T02:09:00Z</time>
      </trkpt>
      <trkpt lat="67.11713" lon="18.28848">
        <time>2025-04-01T06:09:00Z</time>
      </trkpt>
      <trkpt lat="67.15018" lon="18.33038">
        <time>2025-04-01T10:09:00Z</time>
      </trkpt>
      <trkpt lat="67.19977" lon="18.4325">
        <time>2025-04-01T12:09:00Z</time>
      </trkpt>
      <trkpt lat="67.23225" lon="18.44063">
        <time>2025-04-01T14:09:00Z</time>
      </trkpt>
      <trkpt lat="67.23222" lon="18.44093">
        <time>2025-04-01T16:09:00Z</time>
      </trkpt>
      <trkpt lat="67.23221" lon="18.44108">
        <time>2025-04-01T20:09:00Z</time>
      </trkpt>
      <trkpt lat="67.23211" lon="18.44145">
        <time>2025-04-02T00:09:00Z</time>
      </trkpt>
      <trkpt lat="67.23213" lon="18.4408">
        <time>2025-04-02T04:09:00Z</time>
      </trkpt>
      <trkpt lat="67.23228" lon="18.4411">
        <time>2025-04-02T08:09:00Z</time>
      </trkpt>
      <trkpt lat="67.25601" lon="18.46848">
        <time>2025-04-02T10:09:00Z</time>
      </trkpt>
      <trkpt lat="67.32346" lon="18.49962">
        <time>2025-04-02T12:09:00Z</time>
      </trkpt>
      <trkpt lat="67.38294" lon="18.53498">
        <time>2025-04-02T14:09:00Z</time>
      </trkpt>
      <trkpt lat="67.40601" lon="18.50136">
        <time>2025-04-02T16:09:00Z</time>
      </trkpt>
      <trkpt lat="67.45323" lon="18.38645">
        <time>2025-04-02T18:10:00Z</time>
      </trkpt>
      <trkpt lat="67.48298" lon="18.35665">
        <time>2025-04-02T20:10:00Z</time>
      </trkpt>
      <trkpt lat="67.48309" lon="18.35598">
        <time>2025-04-02T22:16:00Z</time>
      </trkpt>
      <trkpt lat="67.48261" lon="18.35622">
        <time>2025-04-03T07:29:00Z</time>
      </trkpt>
      <trkpt lat="67.48176" lon="18.3571">
        <time>2025-04-03T09:30:00Z</time>
      </trkpt>
      <trkpt lat="67.4825" lon="18.35622">
        <time>2025-04-03T11:48:00Z</time>
      </trkpt>
      <trkpt lat="67.48161" lon="18.35821">
        <time>2025-04-03T17:35:00Z</time>
      </trkpt>
      <trkpt lat="67.4829" lon="18.35622">
        <time>2025-04-03T19:42:00Z</time>
      </trkpt>
      <trkpt lat="67.48279" lon="18.35705">
        <time>2025-04-03T21:42:00Z</time>
      </trkpt>
      <trkpt lat="67.48268" lon="18.35472">
        <time>2025-04-03T23:59:00Z</time>
      </trkpt>
      <trkpt lat="67.4829" lon="18.35673">
        <time>2025-04-04T02:03:00Z</time>
      </trkpt>
      <trkpt lat="67.48227" lon="18.35864">
        <time>2025-04-04T05:23:00Z</time>
      </trkpt>
      <trkpt lat="67.4827" lon="18.3565">
        <time>2025-04-04T07:23:00Z</time>
      </trkpt>
      <trkpt lat="67.49837" lon="18.38454">
        <time>2025-04-04T09:23:00Z</time>
      </trkpt>
      <trkpt lat="67.54274" lon="18.47063">
        <time>2025-04-04T11:23:00Z</time>
      </trkpt>
      <trkpt lat="67.59581" lon="18.373">
        <time>2025-04-04T13:24:00Z</time>
      </trkpt>
      <trkpt lat="67.64127" lon="18.31249">
        <time>2025-04-04T15:24:00Z</time>
      </trkpt>
      <trkpt lat="67.69442" lon="18.15585">
        <time>2025-04-04T17:24:00Z</time>
      </trkpt>
      <trkpt lat="67.69408" lon="18.15623">
        <time>2025-04-04T19:26:00Z</time>
      </trkpt>
      <trkpt lat="67.69422" lon="18.15718">
        <time>2025-04-04T23:28:00Z</time>
      </trkpt>
      <trkpt lat="67.69411" lon="18.15703">
        <time>2025-04-05T03:29:00Z</time>
      </trkpt>
      <trkpt lat="67.69415" lon="18.15649">
        <time>2025-04-05T07:30:00Z</time>
      </trkpt>
      <trkpt lat="67.69541" lon="18.16018">
        <time>2025-04-05T09:28:00Z</time>
      </trkpt>
      <trkpt lat="67.73429" lon="18.25507">
        <time>2025-04-05T11:28:00Z</time>
      </trkpt>
      <trkpt lat="67.76348" lon="18.28511">
        <time>2025-04-05T13:28:00Z</time>
      </trkpt>
      <trkpt lat="67.83706" lon="18.31792">
        <time>2025-04-05T15:28:00Z</time>
      </trkpt>
      <trkpt lat="67.88445" lon="18.31622">
        <time>2025-04-05T17:28:00Z</time>
      </trkpt>
      <trkpt lat="67.8917" lon="18.3238">
        <time>2025-04-05T19:28:00Z</time>
      </trkpt>
      <trkpt lat="67.89175" lon="18.32313">
        <time>2025-04-05T21:28:00Z</time>
      </trkpt>
      <trkpt lat="67.89181" lon="18.32487">
        <time>2025-04-06T05:29:00Z</time>
      </trkpt>
      <trkpt lat="67.89233" lon="18.32176">
        <time>2025-04-06T07:30:00Z</time>
      </trkpt>
      <trkpt lat="67.92827" lon="18.29732">
        <time>2025-04-06T09:30:00Z</time>
      </trkpt>
      <trkpt lat="67.97927" lon="18.26262">
        <time>2025-04-06T11:30:00Z</time>
      </trkpt>
      <trkpt lat="68.01877" lon="18.24595">
        <time>2025-04-06T13:31:00Z</time>
      </trkpt>
      <trkpt lat="68.08341" lon="18.2815">
        <time>2025-04-06T15:31:00Z</time>
      </trkpt>
      <trkpt lat="68.09209" lon="18.29307">
        <time>2025-04-06T17:31:00Z</time>
      </trkpt>
      <trkpt lat="68.09211" lon="18.29307">
        <time>2025-04-06T19:31:00Z</time>
      </trkpt>
      <trkpt lat="68.09212" lon="18.29303">
        <time>2025-04-06T23:31:00Z</time>
      </trkpt>
      <trkpt lat="68.09212" lon="18.29307">
        <time>2025-04-07T03:32:00Z</time>
      </trkpt>
      <trkpt lat="68.09209" lon="18.29313">
        <time>2025-04-07T07:32:00Z</time>
      </trkpt>
      <trkpt lat="68.10461" lon="18.32528">
        <time>2025-04-07T09:32:00Z</time>
      </trkpt>
      <trkpt lat="68.15713" lon="18.44454">
        <time>2025-04-07T11:32:00Z</time>
      </trkpt>
      <trkpt lat="68.2016" lon="18.52887">
        <time>2025-04-07T13:32:00Z</time>
      </trkpt>
      <trkpt lat="68.26571" lon="18.56886">
        <time>2025-04-07T15:32:00Z</time>
      </trkpt>
      <trkpt lat="68.26563" lon="18.56889">
        <time>2025-04-07T17:32:00Z</time>
      </trkpt>
      <trkpt lat="68.26564" lon="18.56886">
        <time>2025-04-07T21:32:00Z</time>
      </trkpt>
      <trkpt lat="68.26562" lon="18.56923">
        <time>2025-04-08T01:32:00Z</time>
      </trkpt>
      <trkpt lat="68.26566" lon="18.56871">
        <time>2025-04-08T05:32:00Z</time>
      </trkpt>
      <trkpt lat="68.30585" lon="18.66154">
        <time>2025-04-08T09:32:00Z</time>
      </trkpt>
      <trkpt lat="68.35591" lon="18.76928">
        <time>2025-04-08T11:34:00Z</time>
      </trkpt>
      <trkpt lat="68.35796" lon="18.78533">
        <time>2025-04-08T13:38:00Z</time>
      </trkpt>
      <trkpt lat="68.35885" lon="18.78546">
        <time>2025-04-08T15:38:00Z</time>
      </trkpt>
      <trkpt lat="68.35756" lon="18.78662">
        <time>2025-04-08T19:23:00Z</time>
      </trkpt>
      <trkpt lat="68.3588" lon="18.78587">
        <time>2025-04-08T21:23:00Z</time>
      </trkpt>
      <trkpt lat="68.35916" lon="18.78612">
        <time>2025-04-08T23:27:00Z</time>
      </trkpt>
      <trkpt lat="68.3589" lon="18.78511">
        <time>2025-04-09T03:31:00Z</time>
      </trkpt>
      <trkpt lat="68.35891" lon="18.78518">
        <time>2025-04-09T07:27:00Z</time>
      </trkpt>
      <trkpt lat="68.35891" lon="18.78499">
        <time>2025-04-09T11:27:00Z</time>
      </trkpt>
      <trkpt lat="68.3588" lon="18.78539">
        <time>2025-04-09T15:30:00Z</time>
      </trkpt>
      <trkpt lat="68.36087" lon="18.78477">
        <time>2025-04-09T18:01:00Z</time>
      </trkpt>
      <trkpt lat="68.35888" lon="18.78524">
        <time>2025-04-09T20:01:00Z</time>
      </trkpt>
      <trkpt lat="68.35903" lon="18.78541">
        <time>2025-04-09T22:01:00Z</time>
      </trkpt>
      <trkpt lat="68.35812" lon="18.78537">
        <time>2025-04-10T02:07:00Z</time>
      </trkpt>
      <trkpt lat="68.35878" lon="18.78546">
        <time>2025-04-10T04:07:00Z</time>
      </trkpt>
      <trkpt lat="68.35803" lon="18.78698">
        <time>2025-04-10T06:28:00Z</time>
      </trkpt>
      <trkpt lat="68.35884" lon="18.78717">
        <time>2025-04-10T08:29:00Z</time>
      </trkpt>
      <trkpt lat="68.36373" lon="18.93017">
        <time>2025-04-10T10:29:00Z</time>
      </trkpt>
      <trkpt lat="68.36915" lon="19.0849">
        <time>2025-04-10T12:29:00Z</time>
      </trkpt>
      <trkpt lat="68.34487" lon="19.27611">
        <time>2025-04-10T14:30:00Z</time>
      </trkpt>
      <trkpt lat="68.32776" lon="19.46243">
        <time>2025-04-10T16:30:00Z</time>
      </trkpt>
      <trkpt lat="68.32744" lon="19.46579">
        <time>2025-04-10T18:30:00Z</time>
      </trkpt>
      <trkpt lat="68.32748" lon="19.46571">
        <time>2025-04-10T20:30:00Z</time>
      </trkpt>
      <trkpt lat="68.32747" lon="19.46571">
        <time>2025-04-11T00:30:00Z</time>
      </trkpt>
      <trkpt lat="68.32747" lon="19.46571">
        <time>2025-04-11T04:30:00Z</time>
      </trkpt>
      <trkpt lat="68.32746" lon="19.46579">
        <time>2025-04-11T08:30:00Z</time>
      </trkpt>
      <trkpt lat="68.30088" lon="19.56641">
        <time>2025-04-11T10:30:00Z</time>
      </trkpt>
      <trkpt lat="68.30618" lon="19.71056">
        <time>2025-04-11T12:31:00Z</time>
      </trkpt>
      <trkpt lat="68.31646" lon="19.83907">
        <time>2025-04-11T14:31:00Z</time>
      </trkpt>
      <trkpt lat="68.30263" lon="19.9211">
        <time>2025-04-11T16:31:00Z</time>
      </trkpt>
      <trkpt lat="68.30265" lon="19.92106">
        <time>2025-04-11T18:31:00Z</time>
      </trkpt>
      <trkpt lat="68.30282" lon="19.92076">
        <time>2025-04-11T22:31:00Z</time>
      </trkpt>
      <trkpt lat="68.30272" lon="19.92098">
        <time>2025-04-12T02:31:00Z</time>
      </trkpt>
      <trkpt lat="68.30267" lon="19.92091">
        <time>2025-04-12T06:31:00Z</time>
      </trkpt>
      <trkpt lat="68.34767" lon="19.97232">
        <time>2025-04-12T10:31:00Z</time>
      </trkpt>
      <trkpt lat="68.37932" lon="20.07775">
        <time>2025-04-12T12:31:00Z</time>
      </trkpt>
      <trkpt lat="68.4207" lon="20.11888">
        <time>2025-04-12T14:31:00Z</time>
      </trkpt>
      <trkpt lat="68.47547" lon="20.22988">
        <time>2025-04-12T16:32:00Z</time>
      </trkpt>
      <trkpt lat="68.47554" lon="20.22973">
        <time>2025-04-12T18:32:00Z</time>
      </trkpt>
      <trkpt lat="68.47554" lon="20.22971">
        <time>2025-04-12T22:32:00Z</time>
      </trkpt>
      <trkpt lat="68.47554" lon="20.22977">
        <time>2025-04-13T02:32:00Z</time>
      </trkpt>
      <trkpt lat="68.47555" lon="20.22973">
        <time>2025-04-13T06:32:00Z</time>
      </trkpt>
      <trkpt lat="68.47741" lon="20.23115">
        <time>2025-04-13T08:32:00Z</time>
      </trkpt>
      <trkpt lat="68.55738" lon="20.3209">
        <time>2025-04-13T10:32:00Z</time>
      </trkpt>
      <trkpt lat="68.60031" lon="20.41806">
        <time>2025-04-13T12:32:00Z</time>
      </trkpt>
      <trkpt lat="68.67047" lon="20.46699">
        <time>2025-04-13T14:32:00Z</time>
      </trkpt>
      <trkpt lat="68.70793" lon="20.51827">
        <time>2025-04-13T16:32:00Z</time>
      </trkpt>
      <trkpt lat="68.70791" lon="20.51819">
        <time>2025-04-13T18:32:00Z</time>
      </trkpt>
      <trkpt lat="68.70795" lon="20.51819">
        <time>2025-04-13T22:33:00Z</time>
      </trkpt>
      <trkpt lat="68.70793" lon="20.51829">
        <time>2025-04-14T02:32:00Z</time>
      </trkpt>
      <trkpt lat="68.70795" lon="20.51823">
        <time>2025-04-14T06:33:00Z</time>
      </trkpt>
      <trkpt lat="68.75279" lon="20.6217">
        <time>2025-04-14T10:33:00Z</time>
      </trkpt>
      <trkpt lat="68.8017" lon="20.73918">
        <time>2025-04-14T12:33:00Z</time>
      </trkpt>
      <trkpt lat="68.85496" lon="20.71676">
        <time>2025-04-14T14:33:00Z</time>
      </trkpt>
      <trkpt lat="68.85497" lon="20.71682">
        <time>2025-04-14T16:33:00Z</time>
      </trkpt>
      <trkpt lat="68.85496" lon="20.71682">
        <time>2025-04-14T20:33:00Z</time>
      </trkpt>
      <trkpt lat="68.85494" lon="20.71688">
        <time>2025-04-15T00:33:00Z</time>
      </trkpt>
      <trkpt lat="68.85498" lon="20.71693">
        <time>2025-04-15T04:33:00Z</time>
      </trkpt>
      <trkpt lat="68.85493" lon="20.71686">
        <time>2025-04-15T08:33:00Z</time>
      </trkpt>
      <trkpt lat="68.87105" lon="20.56975">
        <time>2025-04-15T10:33:00Z</time>
      </trkpt>
      <trkpt lat="68.89073" lon="20.46467">
        <time>2025-04-15T12:33:00Z</time>
      </trkpt>
      <trkpt lat="68.92869" lon="20.38176">
        <time>2025-04-15T14:34:00Z</time>
      </trkpt>
      <trkpt lat="68.97409" lon="20.36878">
        <time>2025-04-15T16:34:00Z</time>
      </trkpt>
      <trkpt lat="68.97412" lon="20.36818">
        <time>2025-04-15T18:34:00Z</time>
      </trkpt>
      <trkpt lat="68.97415" lon="20.36837">
        <time>2025-04-15T22:34:00Z</time>
      </trkpt>
      <trkpt lat="68.97419" lon="20.36848">
        <time>2025-04-16T02:34:00Z</time>
      </trkpt>
      <trkpt lat="68.97432" lon="20.3682">
        <time>2025-04-16T06:34:00Z</time>
      </trkpt>
      <trkpt lat="68.978" lon="20.36948">
        <time>2025-04-16T08:34:00Z</time>
      </trkpt>
      <trkpt lat="68.99351" lon="20.45233">
        <time>2025-04-16T10:34:00Z</time>
      </trkpt>
      <trkpt lat="69.03492" lon="20.51568">
        <time>2025-04-16T12:34:00Z</time>
      </trkpt>
      <trkpt lat="69.0599" lon="20.54855">
        <time>2025-04-16T13:30:00Z</time>
      </trkpt>
      <trkpt lat="69.05995" lon="20.54855">
        <time>2025-04-16T13:35:00Z</time>
      </trkpt>
    </trkseg>
  </trk>
</gpx>
