<?xml version="1.0" encoding="UTF-8"?>
<gpx xmlns="http://www.topografix.com/GPX/1/1" version="1.1" creator="VitaBandet">
  <metadata>
    <name>Tuss</name>
  </metadata>
  <trk>
    <name>Tuss</name>
    <trkseg>
      <trkpt lat="62.09835" lon="12.3123">
        <time>2026-02-06T09:52:00Z</time>
      </trkpt>
      <trkpt lat="62.09959" lon="12.32638">
        <time>2026-02-06T10:44:00Z</time>
      </trkpt>
      <trkpt lat="62.137" lon="12.36165">
        <time>2026-02-06T12:44:00Z</time>
      </trkpt>
      <trkpt lat="62.18623" lon="12.39032">
        <time>2026-02-06T14:44:00Z</time>
      </trkpt>
      <trkpt lat="62.18626" lon="12.39028">
        <time>2026-02-07T08:38:00Z</time>
      </trkpt>
      <trkpt lat="62.23421" lon="12.3523">
        <time>2026-02-07T10:38:00Z</time>
      </trkpt>
      <trkpt lat="62.27846" lon="12.39414">
        <time>2026-02-07T12:38:00Z</time>
      </trkpt>
      <trkpt lat="62.29853" lon="12.43403">
        <time>2026-02-07T14:38:00Z</time>
      </trkpt>
      <trkpt lat="62.31665" lon="12.45025">
        <time>2026-02-07T16:28:00Z</time>
      </trkpt>
      <trkpt lat="62.31683" lon="12.45029">
        <time>2026-02-07T16:38:00Z</time>
      </trkpt>
      <trkpt lat="62.31672" lon="12.45012">
        <time>2026-02-08T10:03:00Z</time>
      </trkpt>
      <trkpt lat="62.37121" lon="12.33556">
        <time>2026-02-08T14:03:00Z</time>
      </trkpt>
      <trkpt lat="62.38789" lon="12.28805">
        <time>2026-02-08T15:23:00Z</time>
      </trkpt>
      <trkpt lat="62.46729" lon="12.28413">
        <time>2026-02-09T12:05:00Z</time>
      </trkpt>
      <trkpt lat="62.53038" lon="12.30829">
        <time>2026-02-09T16:05:00Z</time>
      </trkpt>
      <trkpt lat="62.54511" lon="12.33011">
        <time>2026-02-10T12:07:00Z</time>
      </trkpt>
      <trkpt lat="62.54506" lon="12.33011">
        <time>2026-02-10T12:08:00Z</time>
      </trkpt>
      <trkpt lat="62.55336" lon="12.33987">
        <time>2026-02-10T13:08:00Z</time>
      </trkpt>
      <trkpt lat="62.56036" lon="12.3597">
        <time>2026-02-10T14:08:00Z</time>
      </trkpt>
      <trkpt lat="62.61223" lon="12.37912">
        <time>2026-02-10T16:08:00Z</time>
      </trkpt>
      <trkpt lat="62.61675" lon="12.33419">
        <time>2026-02-10T17:08:00Z</time>
      </trkpt>
      <trkpt lat="62.61428" lon="12.32623">
        <time>2026-02-10T17:29:00Z</time>
      </trkpt>
      <trkpt lat="62.6143" lon="12.32603">
        <time>2026-02-11T08:48:00Z</time>
      </trkpt>
      <trkpt lat="62.64714" lon="12.33608">
        <time>2026-02-11T09:48:00Z</time>
      </trkpt>
      <trkpt lat="62.67699" lon="12.34378">
        <time>2026-02-11T10:48:00Z</time>
      </trkpt>
      <trkpt lat="62.68495" lon="12.33097">
        <time>2026-02-11T11:48:00Z</time>
      </trkpt>
      <trkpt lat="62.68877" lon="12.36528">
        <time>2026-02-11T12:48:00Z</time>
      </trkpt>
      <trkpt lat="62.70121" lon="12.38901">
        <time>2026-02-12T09:38:00Z</time>
      </trkpt>
      <trkpt lat="62.72209" lon="12.39549">
        <time>2026-02-12T11:38:00Z</time>
      </trkpt>
      <trkpt lat="62.76656" lon="12.35185">
        <time>2026-02-12T13:38:00Z</time>
      </trkpt>
      <trkpt lat="62.80477" lon="12.41925">
        <time>2026-02-12T15:38:00Z</time>
      </trkpt>
      <trkpt lat="62.81826" lon="12.44607">
        <time>2026-02-12T20:00:00Z</time>
      </trkpt>
      <trkpt lat="62.87557" lon="12.50218">
        <time>2026-02-13T12:27:00Z</time>
      </trkpt>
      <trkpt lat="62.9162" lon="12.50977">
        <time>2026-02-13T14:27:00Z</time>
      </trkpt>
      <trkpt lat="62.91438" lon="12.52123">
        <time>2026-02-14T08:58:00Z</time>
      </trkpt>
      <trkpt lat="62.9456" lon="12.64148">
        <time>2026-02-14T10:58:00Z</time>
      </trkpt>
      <trkpt lat="62.98405" lon="12.67669">
        <time>2026-02-14T12:58:00Z</time>
      </trkpt>
      <trkpt lat="63.03279" lon="12.77913">
        <time>2026-02-14T14:58:00Z</time>
      </trkpt>
      <trkpt lat="63.04091" lon="12.80003">
        <time>2026-02-14T16:58:00Z</time>
      </trkpt>
      <trkpt lat="63.04094" lon="12.7999">
        <time>2026-02-15T07:59:00Z</time>
      </trkpt>
      <trkpt lat="63.04137" lon="12.80005">
        <time>2026-02-15T08:12:00Z</time>
      </trkpt>
      <trkpt lat="63.11179" lon="12.8246">
        <time>2026-02-15T10:12:00Z</time>
      </trkpt>
      <trkpt lat="63.13629" lon="12.89528">
        <time>2026-02-15T12:12:00Z</time>
      </trkpt>
      <trkpt lat="63.14865" lon="12.96757">
        <time>2026-02-15T14:12:00Z</time>
      </trkpt>
      <trkpt lat="63.14858" lon="12.96541">
        <time>2026-02-17T08:40:00Z</time>
      </trkpt>
      <trkpt lat="63.17088" lon="13.09036">
        <time>2026-02-17T10:40:00Z</time>
      </trkpt>
      <trkpt lat="63.21004" lon="13.17166">
        <time>2026-02-17T12:40:00Z</time>
      </trkpt>
      <trkpt lat="63.23268" lon="13.22567">
        <time>2026-02-17T14:40:00Z</time>
      </trkpt>
      <trkpt lat="63.2648" lon="13.27131">
        <time>2026-02-17T16:40:00Z</time>
      </trkpt>
      <trkpt lat="63.26477" lon="13.27133">
        <time>2026-02-17T17:11:00Z</time>
      </trkpt>
      <trkpt lat="63.26478" lon="13.27131">
        <time>2026-02-17T17:20:00Z</time>
      </trkpt>
      <trkpt lat="63.26477" lon="13.27131">
        <time>2026-02-17T17:46:00Z</time>
      </trkpt>
      <trkpt lat="63.26477" lon="13.27131">
        <time>2026-02-17T17:46:00Z</time>
      </trkpt>
      <trkpt lat="63.26478" lon="13.27129">
        <time>2026-02-17T17:57:00Z</time>
      </trkpt>
      <trkpt lat="63.26475" lon="13.27135">
        <time>2026-02-17T17:57:00Z</time>
      </trkpt>
      <trkpt lat="63.26472" lon="13.27133">
        <time>2026-02-17T19:57:00Z</time>
      </trkpt>
      <trkpt lat="63.26481" lon="13.27142">
        <time>2026-02-17T21:57:00Z</time>
      </trkpt>
      <trkpt lat="63.26474" lon="13.27133">
        <time>2026-02-17T23:57:00Z</time>
      </trkpt>
      <trkpt lat="63.2649" lon="13.27131">
        <time>2026-02-18T01:57:00Z</time>
      </trkpt>
      <trkpt lat="63.26479" lon="13.27129">
        <time>2026-02-18T03:58:00Z</time>
      </trkpt>
      <trkpt lat="63.26479" lon="13.27131">
        <time>2026-02-18T05:58:00Z</time>
      </trkpt>
      <trkpt lat="63.26477" lon="13.27131">
        <time>2026-02-18T07:58:00Z</time>
      </trkpt>
      <trkpt lat="63.28142" lon="13.27699">
        <time>2026-02-18T09:58:00Z</time>
      </trkpt>
      <trkpt lat="63.31508" lon="13.23998">
        <time>2026-02-18T11:58:00Z</time>
      </trkpt>
      <trkpt lat="63.3987" lon="13.19359">
        <time>2026-02-18T15:58:00Z</time>
      </trkpt>
      <trkpt lat="63.40439" lon="13.21241">
        <time>2026-02-18T17:04:00Z</time>
      </trkpt>
      <trkpt lat="63.40439" lon="13.21236">
        <time>2026-02-18T17:14:00Z</time>
      </trkpt>
      <trkpt lat="63.40436" lon="13.21243">
        <time>2026-02-18T17:29:00Z</time>
      </trkpt>
      <trkpt lat="63.40435" lon="13.21238">
        <time>2026-02-18T17:32:00Z</time>
      </trkpt>
      <trkpt lat="63.4042" lon="13.21236">
        <time>2026-02-19T09:06:00Z</time>
      </trkpt>
      <trkpt lat="63.457" lon="13.21024">
        <time>2026-02-19T11:06:00Z</time>
      </trkpt>
      <trkpt lat="63.4889" lon="13.17408">
        <time>2026-02-19T13:06:00Z</time>
      </trkpt>
      <trkpt lat="63.49877" lon="13.16803">
        <time>2026-02-19T15:06:00Z</time>
      </trkpt>
      <trkpt lat="63.49813" lon="13.16928">
        <time>2026-02-19T15:53:00Z</time>
      </trkpt>
      <trkpt lat="63.49835" lon="13.16898">
        <time>2026-02-20T08:12:00Z</time>
      </trkpt>
      <trkpt lat="63.50948" lon="13.12698">
        <time>2026-02-20T09:12:00Z</time>
      </trkpt>
      <trkpt lat="63.53229" lon="13.063">
        <time>2026-02-20T10:12:00Z</time>
      </trkpt>
      <trkpt lat="63.56145" lon="13.01208">
        <time>2026-02-20T11:12:00Z</time>
      </trkpt>
      <trkpt lat="63.58441" lon="13.01242">
        <time>2026-02-20T12:12:00Z</time>
      </trkpt>
      <trkpt lat="63.59598" lon="13.0304">
        <time>2026-02-20T13:12:00Z</time>
      </trkpt>
      <trkpt lat="63.60814" lon="13.09415">
        <time>2026-02-20T14:12:00Z</time>
      </trkpt>
      <trkpt lat="63.61148" lon="13.16054">
        <time>2026-02-20T15:12:00Z</time>
      </trkpt>
      <trkpt lat="63.61544" lon="13.20908">
        <time>2026-02-20T16:12:00Z</time>
      </trkpt>
      <trkpt lat="63.62029" lon="13.21172">
        <time>2026-02-20T16:43:00Z</time>
      </trkpt>
      <trkpt lat="63.62034" lon="13.21172">
        <time>2026-02-20T17:12:00Z</time>
      </trkpt>
      <trkpt lat="63.6203" lon="13.21172">
        <time>2026-02-21T08:39:00Z</time>
      </trkpt>
      <trkpt lat="63.63508" lon="13.22841">
        <time>2026-02-21T09:39:00Z</time>
      </trkpt>
      <trkpt lat="63.64149" lon="13.29038">
        <time>2026-02-21T10:39:00Z</time>
      </trkpt>
      <trkpt lat="63.66741" lon="13.29573">
        <time>2026-02-21T11:39:00Z</time>
      </trkpt>
      <trkpt lat="63.67464" lon="13.3633">
        <time>2026-02-21T12:39:00Z</time>
      </trkpt>
      <trkpt lat="63.67598" lon="13.36733">
        <time>2026-02-21T13:39:00Z</time>
      </trkpt>
      <trkpt lat="63.68101" lon="13.40913">
        <time>2026-02-21T14:39:00Z</time>
      </trkpt>
      <trkpt lat="63.69267" lon="13.5582">
        <time>2026-02-21T16:39:00Z</time>
      </trkpt>
      <trkpt lat="63.69638" lon="13.62583">
        <time>2026-02-21T17:37:00Z</time>
      </trkpt>
      <trkpt lat="63.69639" lon="13.62596">
        <time>2026-02-21T17:38:00Z</time>
      </trkpt>
      <trkpt lat="63.69629" lon="13.62587">
        <time>2026-02-22T08:39:00Z</time>
      </trkpt>
      <trkpt lat="63.724" lon="13.61815">
        <time>2026-02-22T09:39:00Z</time>
      </trkpt>
      <trkpt lat="63.7458" lon="13.63066">
        <time>2026-02-22T10:39:00Z</time>
      </trkpt>
      <trkpt lat="63.75125" lon="13.68051">
        <time>2026-02-22T11:39:00Z</time>
      </trkpt>
      <trkpt lat="63.75263" lon="13.77279">
        <time>2026-02-22T13:39:00Z</time>
      </trkpt>
      <trkpt lat="63.76734" lon="13.80528">
        <time>2026-02-22T14:39:00Z</time>
      </trkpt>
      <trkpt lat="63.7807" lon="13.82116">
        <time>2026-02-22T16:18:00Z</time>
      </trkpt>
      <trkpt lat="63.78063" lon="13.82101">
        <time>2026-02-23T08:32:00Z</time>
      </trkpt>
      <trkpt lat="63.82747" lon="13.86131">
        <time>2026-02-23T10:32:00Z</time>
      </trkpt>
      <trkpt lat="63.85953" lon="13.87669">
        <time>2026-02-23T11:32:00Z</time>
      </trkpt>
      <trkpt lat="63.89419" lon="13.86397">
        <time>2026-02-23T13:32:00Z</time>
      </trkpt>
      <trkpt lat="63.92131" lon="13.87292">
        <time>2026-02-23T14:32:00Z</time>
      </trkpt>
      <trkpt lat="63.95053" lon="13.9207">
        <time>2026-02-23T15:32:00Z</time>
      </trkpt>
      <trkpt lat="63.96464" lon="13.94933">
        <time>2026-02-23T16:32:00Z</time>
      </trkpt>
      <trkpt lat="63.96461" lon="13.94924">
        <time>2026-02-23T17:32:00Z</time>
      </trkpt>
      <trkpt lat="63.96462" lon="13.94924">
        <time>2026-02-23T17:38:00Z</time>
      </trkpt>
      <trkpt lat="63.96508" lon="13.94767">
        <time>2026-02-24T08:11:00Z</time>
      </trkpt>
      <trkpt lat="63.98948" lon="13.97553">
        <time>2026-02-24T09:11:00Z</time>
      </trkpt>
      <trkpt lat="64.00622" lon="14.01273">
        <time>2026-02-24T10:11:00Z</time>
      </trkpt>
      <trkpt lat="64.03759" lon="14.08897">
        <time>2026-02-24T13:11:00Z</time>
      </trkpt>
      <trkpt lat="64.05954" lon="14.13197">
        <time>2026-02-24T14:11:00Z</time>
      </trkpt>
      <trkpt lat="64.07627" lon="14.13994">
        <time>2026-02-25T10:42:00Z</time>
      </trkpt>
      <trkpt lat="64.12741" lon="14.16204">
        <time>2026-02-25T12:42:00Z</time>
      </trkpt>
      <trkpt lat="64.15319" lon="14.22111">
        <time>2026-02-25T15:42:00Z</time>
      </trkpt>
      <trkpt lat="64.15761" lon="14.23328">
        <time>2026-02-25T16:42:00Z</time>
      </trkpt>
      <trkpt lat="64.15759" lon="14.23343">
        <time>2026-02-25T17:30:00Z</time>
      </trkpt>
      <trkpt lat="64.15791" lon="14.23615">
        <time>2026-02-26T09:00:00Z</time>
      </trkpt>
      <trkpt lat="64.17857" lon="14.2534">
        <time>2026-02-26T10:00:00Z</time>
      </trkpt>
      <trkpt lat="64.22317" lon="14.29106">
        <time>2026-02-26T13:00:00Z</time>
      </trkpt>
      <trkpt lat="64.24667" lon="14.32488">
        <time>2026-02-26T14:00:00Z</time>
      </trkpt>
      <trkpt lat="64.25028" lon="14.34842">
        <time>2026-02-26T15:00:00Z</time>
      </trkpt>
      <trkpt lat="64.2649" lon="14.38447">
        <time>2026-02-26T16:00:00Z</time>
      </trkpt>
      <trkpt lat="64.27204" lon="14.42743">
        <time>2026-02-26T16:58:00Z</time>
      </trkpt>
      <trkpt lat="64.27198" lon="14.42743">
        <time>2026-02-26T17:00:00Z</time>
      </trkpt>
      <trkpt lat="64.27196" lon="14.42747">
        <time>2026-02-26T18:00:00Z</time>
      </trkpt>
      <trkpt lat="64.27461" lon="14.4118">
        <time>2026-02-27T09:24:00Z</time>
      </trkpt>
      <trkpt lat="64.29485" lon="14.39095">
        <time>2026-02-27T10:24:00Z</time>
      </trkpt>
      <trkpt lat="64.30433" lon="14.38636">
        <time>2026-02-27T11:24:00Z</time>
      </trkpt>
      <trkpt lat="64.3187" lon="14.39101">
        <time>2026-02-27T12:24:00Z</time>
      </trkpt>
      <trkpt lat="64.32441" lon="14.39749">
        <time>2026-02-27T13:24:00Z</time>
      </trkpt>
      <trkpt lat="64.34741" lon="14.39839">
        <time>2026-02-27T14:24:00Z</time>
      </trkpt>
      <trkpt lat="64.37479" lon="14.3802">
        <time>2026-02-27T15:24:00Z</time>
      </trkpt>
      <trkpt lat="64.39224" lon="14.31477">
        <time>2026-02-27T16:24:00Z</time>
      </trkpt>
      <trkpt lat="64.40772" lon="14.27819">
        <time>2026-02-27T17:24:00Z</time>
      </trkpt>
      <trkpt lat="64.40767" lon="14.27808">
        <time>2026-02-27T17:48:00Z</time>
      </trkpt>
      <trkpt lat="64.4105" lon="14.26525">
        <time>2026-02-28T09:00:00Z</time>
      </trkpt>
      <trkpt lat="64.43698" lon="14.18697">
        <time>2026-02-28T10:00:00Z</time>
      </trkpt>
      <trkpt lat="64.45368" lon="14.16189">
        <time>2026-02-28T11:00:00Z</time>
      </trkpt>
      <trkpt lat="64.48127" lon="14.12637">
        <time>2026-02-28T12:00:00Z</time>
      </trkpt>
      <trkpt lat="64.50668" lon="14.14708">
        <time>2026-02-28T13:00:00Z</time>
      </trkpt>
      <trkpt lat="64.50605" lon="14.14682">
        <time>2026-02-28T14:00:00Z</time>
      </trkpt>
      <trkpt lat="64.50595" lon="14.14663">
        <time>2026-02-28T15:00:00Z</time>
      </trkpt>
      <trkpt lat="64.50593" lon="14.14633">
        <time>2026-02-28T16:00:00Z</time>
      </trkpt>
      <trkpt lat="64.50598" lon="14.14685">
        <time>2026-02-28T17:00:00Z</time>
      </trkpt>
      <trkpt lat="64.50603" lon="14.14685">
        <time>2026-02-28T18:00:00Z</time>
      </trkpt>
      <trkpt lat="64.50609" lon="14.14682">
        <time>2026-02-28T19:00:00Z</time>
      </trkpt>
      <trkpt lat="64.50618" lon="14.14657">
        <time>2026-02-28T20:01:00Z</time>
      </trkpt>
      <trkpt lat="64.50433" lon="14.15019">
        <time>2026-03-02T08:22:00Z</time>
      </trkpt>
      <trkpt lat="64.52982" lon="14.15365">
        <time>2026-03-02T09:22:00Z</time>
      </trkpt>
      <trkpt lat="64.56226" lon="14.13768">
        <time>2026-03-02T10:22:00Z</time>
      </trkpt>
      <trkpt lat="64.60404" lon="14.11992">
        <time>2026-03-02T11:22:00Z</time>
      </trkpt>
      <trkpt lat="64.62501" lon="14.12225">
        <time>2026-03-02T12:22:00Z</time>
      </trkpt>
      <trkpt lat="64.65059" lon="14.1367">
        <time>2026-03-02T13:22:00Z</time>
      </trkpt>
      <trkpt lat="64.67246" lon="14.1771">
        <time>2026-03-02T14:22:00Z</time>
      </trkpt>
      <trkpt lat="64.68002" lon="14.20276">
        <time>2026-03-02T16:09:00Z</time>
      </trkpt>
      <trkpt lat="64.68004" lon="14.20283">
        <time>2026-03-02T16:10:00Z</time>
      </trkpt>
      <trkpt lat="64.68003" lon="14.20285">
        <time>2026-03-03T07:12:00Z</time>
      </trkpt>
      <trkpt lat="64.70025" lon="14.19184">
        <time>2026-03-03T08:12:00Z</time>
      </trkpt>
      <trkpt lat="64.72992" lon="14.16504">
        <time>2026-03-03T09:12:00Z</time>
      </trkpt>
      <trkpt lat="64.75864" lon="14.18931">
        <time>2026-03-03T10:12:00Z</time>
      </trkpt>
      <trkpt lat="64.77816" lon="14.19688">
        <time>2026-03-03T11:12:00Z</time>
      </trkpt>
      <trkpt lat="64.77815" lon="14.19691">
        <time>2026-03-03T12:12:00Z</time>
      </trkpt>
      <trkpt lat="64.79836" lon="14.20875">
        <time>2026-03-03T13:12:00Z</time>
      </trkpt>
      <trkpt lat="64.81116" lon="14.21422">
        <time>2026-03-03T14:12:00Z</time>
      </trkpt>
      <trkpt lat="64.82593" lon="14.2563">
        <time>2026-03-03T15:12:00Z</time>
      </trkpt>
      <trkpt lat="64.84398" lon="14.28975">
        <time>2026-03-03T16:13:00Z</time>
      </trkpt>
      <trkpt lat="64.85083" lon="14.3225">
        <time>2026-03-03T17:13:00Z</time>
      </trkpt>
      <trkpt lat="64.85665" lon="14.35095">
        <time>2026-03-03T18:54:00Z</time>
      </trkpt>
      <trkpt lat="64.85666" lon="14.35095">
        <time>2026-03-03T18:54:00Z</time>
      </trkpt>
      <trkpt lat="64.85971" lon="14.35331">
        <time>2026-03-04T11:36:00Z</time>
      </trkpt>
      <trkpt lat="64.87267" lon="14.39483">
        <time>2026-03-04T12:36:00Z</time>
      </trkpt>
      <trkpt lat="64.88296" lon="14.39968">
        <time>2026-03-04T13:38:00Z</time>
      </trkpt>
      <trkpt lat="64.89155" lon="14.49796">
        <time>2026-03-04T15:38:00Z</time>
      </trkpt>
      <trkpt lat="64.89039" lon="14.56435">
        <time>2026-03-04T16:38:00Z</time>
      </trkpt>
      <trkpt lat="64.89294" lon="14.58289">
        <time>2026-03-04T17:24:00Z</time>
      </trkpt>
      <trkpt lat="64.89289" lon="14.58256">
        <time>2026-03-04T17:38:00Z</time>
      </trkpt>
      <trkpt lat="64.893" lon="14.5825">
        <time>2026-03-05T08:27:00Z</time>
      </trkpt>
      <trkpt lat="64.91916" lon="14.54907">
        <time>2026-03-05T09:27:00Z</time>
      </trkpt>
      <trkpt lat="64.92698" lon="14.57179">
        <time>2026-03-05T10:27:00Z</time>
      </trkpt>
      <trkpt lat="64.94189" lon="14.6028">
        <time>2026-03-05T11:27:00Z</time>
      </trkpt>
      <trkpt lat="64.94532" lon="14.62353">
        <time>2026-03-05T12:27:00Z</time>
      </trkpt>
      <trkpt lat="64.9583" lon="14.67224">
        <time>2026-03-05T13:27:00Z</time>
      </trkpt>
      <trkpt lat="64.98398" lon="14.71775">
        <time>2026-03-05T14:27:00Z</time>
      </trkpt>
      <trkpt lat="64.98399" lon="14.7179">
        <time>2026-03-05T15:06:00Z</time>
      </trkpt>
      <trkpt lat="64.98405" lon="14.71788">
        <time>2026-03-05T15:27:00Z</time>
      </trkpt>
      <trkpt lat="64.98403" lon="14.71786">
        <time>2026-03-06T08:22:00Z</time>
      </trkpt>
      <trkpt lat="65.01653" lon="14.73365">
        <time>2026-03-06T09:22:00Z</time>
      </trkpt>
      <trkpt lat="65.05073" lon="14.7639">
        <time>2026-03-06T10:22:00Z</time>
      </trkpt>
      <trkpt lat="65.06071" lon="14.796">
        <time>2026-03-06T11:25:00Z</time>
      </trkpt>
      <trkpt lat="65.06333" lon="14.80918">
        <time>2026-03-06T12:25:00Z</time>
      </trkpt>
      <trkpt lat="65.05826" lon="14.87866">
        <time>2026-03-07T09:22:00Z</time>
      </trkpt>
      <trkpt lat="65.05722" lon="14.97185">
        <time>2026-03-07T10:22:00Z</time>
      </trkpt>
      <trkpt lat="65.0615" lon="15.05599">
        <time>2026-03-07T11:22:00Z</time>
      </trkpt>
      <trkpt lat="65.06149" lon="15.05609">
        <time>2026-03-07T12:22:00Z</time>
      </trkpt>
      <trkpt lat="65.07013" lon="15.08141">
        <time>2026-03-07T13:22:00Z</time>
      </trkpt>
      <trkpt lat="65.10236" lon="15.08073">
        <time>2026-03-07T14:23:00Z</time>
      </trkpt>
      <trkpt lat="65.12059" lon="15.05774">
        <time>2026-03-07T15:23:00Z</time>
      </trkpt>
      <trkpt lat="65.15223" lon="15.04483">
        <time>2026-03-07T16:23:00Z</time>
      </trkpt>
      <trkpt lat="65.18077" lon="15.07193">
        <time>2026-03-07T17:23:00Z</time>
      </trkpt>
      <trkpt lat="65.1808" lon="15.07195">
        <time>2026-03-07T18:14:00Z</time>
      </trkpt>
      <trkpt lat="65.18086" lon="15.07195">
        <time>2026-03-08T08:04:00Z</time>
      </trkpt>
      <trkpt lat="65.20611" lon="15.0562">
        <time>2026-03-08T09:04:00Z</time>
      </trkpt>
      <trkpt lat="65.24617" lon="15.02601">
        <time>2026-03-08T10:04:00Z</time>
      </trkpt>
      <trkpt lat="65.28336" lon="15.02122">
        <time>2026-03-08T11:04:00Z</time>
      </trkpt>
      <trkpt lat="65.30894" lon="15.03227">
        <time>2026-03-08T12:04:00Z</time>
      </trkpt>
      <trkpt lat="65.32816" lon="15.06635">
        <time>2026-03-08T13:04:00Z</time>
      </trkpt>
      <trkpt lat="65.3478" lon="15.11585">
        <time>2026-03-08T14:04:00Z</time>
      </trkpt>
      <trkpt lat="65.3727" lon="15.08375">
        <time>2026-03-08T15:04:00Z</time>
      </trkpt>
      <trkpt lat="65.39798" lon="15.03107">
        <time>2026-03-08T16:04:00Z</time>
      </trkpt>
      <trkpt lat="65.40019" lon="15.04745">
        <time>2026-03-08T17:04:00Z</time>
      </trkpt>
      <trkpt lat="65.40024" lon="15.04702">
        <time>2026-03-08T17:12:00Z</time>
      </trkpt>
      <trkpt lat="65.4002" lon="15.04727">
        <time>2026-03-09T08:29:00Z</time>
      </trkpt>
      <trkpt lat="65.41216" lon="15.13128">
        <time>2026-03-09T09:29:00Z</time>
      </trkpt>
      <trkpt lat="65.4292" lon="15.21554">
        <time>2026-03-09T10:29:00Z</time>
      </trkpt>
      <trkpt lat="65.43227" lon="15.22351">
        <time>2026-03-09T11:29:00Z</time>
      </trkpt>
      <trkpt lat="65.43226" lon="15.22361">
        <time>2026-03-09T12:29:00Z</time>
      </trkpt>
      <trkpt lat="65.43222" lon="15.22353">
        <time>2026-03-10T07:04:00Z</time>
      </trkpt>
      <trkpt lat="65.4411" lon="15.23456">
        <time>2026-03-10T08:04:00Z</time>
      </trkpt>
      <trkpt lat="65.47604" lon="15.30734">
        <time>2026-03-10T09:04:00Z</time>
      </trkpt>
      <trkpt lat="65.49899" lon="15.34684">
        <time>2026-03-10T10:04:00Z</time>
      </trkpt>
      <trkpt lat="65.52879" lon="15.33187">
        <time>2026-03-10T11:04:00Z</time>
      </trkpt>
      <trkpt lat="65.55518" lon="15.34517">
        <time>2026-03-10T12:04:00Z</time>
      </trkpt>
      <trkpt lat="65.55775" lon="15.34916">
        <time>2026-03-10T13:04:00Z</time>
      </trkpt>
      <trkpt lat="65.57482" lon="15.35905">
        <time>2026-03-10T14:04:00Z</time>
      </trkpt>
      <trkpt lat="65.6016" lon="15.36998">
        <time>2026-03-10T15:05:00Z</time>
      </trkpt>
      <trkpt lat="65.63098" lon="15.34942">
        <time>2026-03-10T16:05:00Z</time>
      </trkpt>
      <trkpt lat="65.63531" lon="15.33654">
        <time>2026-03-10T16:22:00Z</time>
      </trkpt>
      <trkpt lat="65.63534" lon="15.33648">
        <time>2026-03-10T17:05:00Z</time>
      </trkpt>
      <trkpt lat="65.63533" lon="15.33659">
        <time>2026-03-11T08:04:00Z</time>
      </trkpt>
      <trkpt lat="65.63537" lon="15.33657">
        <time>2026-03-11T08:04:00Z</time>
      </trkpt>
      <trkpt lat="65.65475" lon="15.2932">
        <time>2026-03-11T09:04:00Z</time>
      </trkpt>
      <trkpt lat="65.67349" lon="15.2423">
        <time>2026-03-11T10:04:00Z</time>
      </trkpt>
      <trkpt lat="65.69073" lon="15.18889">
        <time>2026-03-11T11:04:00Z</time>
      </trkpt>
      <trkpt lat="65.69546" lon="15.24432">
        <time>2026-03-11T12:04:00Z</time>
      </trkpt>
      <trkpt lat="65.70996" lon="15.2432">
        <time>2026-03-11T13:04:00Z</time>
      </trkpt>
      <trkpt lat="65.71184" lon="15.25119">
        <time>2026-03-11T14:05:00Z</time>
      </trkpt>
      <trkpt lat="65.71258" lon="15.24921">
        <time>2026-03-11T15:05:00Z</time>
      </trkpt>
      <trkpt lat="65.71165" lon="15.25146">
        <time>2026-03-13T07:28:00Z</time>
      </trkpt>
      <trkpt lat="65.71291" lon="15.32135">
        <time>2026-03-13T08:28:00Z</time>
      </trkpt>
      <trkpt lat="65.72914" lon="15.33534">
        <time>2026-03-13T09:28:00Z</time>
      </trkpt>
      <trkpt lat="65.74854" lon="15.34835">
        <time>2026-03-13T10:28:00Z</time>
      </trkpt>
      <trkpt lat="65.76299" lon="15.35002">
        <time>2026-03-13T11:28:00Z</time>
      </trkpt>
      <trkpt lat="65.78833" lon="15.35322">
        <time>2026-03-13T12:28:00Z</time>
      </trkpt>
      <trkpt lat="65.81794" lon="15.35362">
        <time>2026-03-13T13:29:00Z</time>
      </trkpt>
      <trkpt lat="65.84606" lon="15.33266">
        <time>2026-03-13T14:29:00Z</time>
      </trkpt>
      <trkpt lat="65.85928" lon="15.40901">
        <time>2026-03-13T15:29:00Z</time>
      </trkpt>
      <trkpt lat="65.86197" lon="15.49647">
        <time>2026-03-13T16:29:00Z</time>
      </trkpt>
      <trkpt lat="65.86591" lon="15.49231">
        <time>2026-03-13T17:15:00Z</time>
      </trkpt>
      <trkpt lat="65.86586" lon="15.49213">
        <time>2026-03-13T17:15:00Z</time>
      </trkpt>
      <trkpt lat="65.86718" lon="15.5007">
        <time>2026-03-14T08:52:00Z</time>
      </trkpt>
      <trkpt lat="65.8964" lon="15.48701">
        <time>2026-03-14T09:52:00Z</time>
      </trkpt>
      <trkpt lat="65.92441" lon="15.46962">
        <time>2026-03-14T10:52:00Z</time>
      </trkpt>
      <trkpt lat="65.9569" lon="15.47799">
        <time>2026-03-14T11:52:00Z</time>
      </trkpt>
      <trkpt lat="65.98891" lon="15.49718">
        <time>2026-03-14T12:52:00Z</time>
      </trkpt>
      <trkpt lat="65.98878" lon="15.497">
        <time>2026-03-14T13:52:00Z</time>
      </trkpt>
      <trkpt lat="65.98884" lon="15.497">
        <time>2026-03-14T14:52:00Z</time>
      </trkpt>
      <trkpt lat="65.98885" lon="15.49728">
        <time>2026-03-14T15:52:00Z</time>
      </trkpt>
      <trkpt lat="65.98881" lon="15.49711">
        <time>2026-03-14T16:53:00Z</time>
      </trkpt>
      <trkpt lat="65.98914" lon="15.49718">
        <time>2026-03-14T17:54:00Z</time>
      </trkpt>
      <trkpt lat="65.98883" lon="15.49696">
        <time>2026-03-14T18:17:00Z</time>
      </trkpt>
      <trkpt lat="65.9884" lon="15.49484">
        <time>2026-03-14T18:54:00Z</time>
      </trkpt>
      <trkpt lat="65.9888" lon="15.49681">
        <time>2026-03-15T07:58:00Z</time>
      </trkpt>
      <trkpt lat="66.00335" lon="15.51945">
        <time>2026-03-15T08:58:00Z</time>
      </trkpt>
      <trkpt lat="65.99892" lon="15.5688">
        <time>2026-03-15T09:58:00Z</time>
      </trkpt>
      <trkpt lat="65.97224" lon="15.59507">
        <time>2026-03-15T10:58:00Z</time>
      </trkpt>
      <trkpt lat="65.96802" lon="15.62277">
        <time>2026-03-15T11:58:00Z</time>
      </trkpt>
      <trkpt lat="65.96271" lon="15.71521">
        <time>2026-03-15T12:58:00Z</time>
      </trkpt>
      <trkpt lat="65.97229" lon="15.76441">
        <time>2026-03-15T13:58:00Z</time>
      </trkpt>
      <trkpt lat="65.97234" lon="15.76396">
        <time>2026-03-15T14:32:00Z</time>
      </trkpt>
      <trkpt lat="65.97229" lon="15.76435">
        <time>2026-03-15T14:58:00Z</time>
      </trkpt>
      <trkpt lat="65.97257" lon="15.76405">
        <time>2026-03-16T06:36:00Z</time>
      </trkpt>
      <trkpt lat="65.97441" lon="15.85968">
        <time>2026-03-16T07:36:00Z</time>
      </trkpt>
      <trkpt lat="65.96407" lon="15.96197">
        <time>2026-03-16T08:36:00Z</time>
      </trkpt>
      <trkpt lat="65.96239" lon="16.0698">
        <time>2026-03-16T09:36:00Z</time>
      </trkpt>
      <trkpt lat="65.95403" lon="16.15831">
        <time>2026-03-16T10:36:00Z</time>
      </trkpt>
      <trkpt lat="65.95719" lon="16.20509">
        <time>2026-03-16T11:36:00Z</time>
      </trkpt>
      <trkpt lat="65.95674" lon="16.20539">
        <time>2026-03-16T12:36:00Z</time>
      </trkpt>
      <trkpt lat="65.95753" lon="16.207">
        <time>2026-03-16T14:16:00Z</time>
      </trkpt>
      <trkpt lat="65.95735" lon="16.208">
        <time>2026-03-17T08:10:00Z</time>
      </trkpt>
      <trkpt lat="65.97859" lon="16.20826">
        <time>2026-03-17T09:10:00Z</time>
      </trkpt>
      <trkpt lat="66.02504" lon="16.19404">
        <time>2026-03-17T10:10:00Z</time>
      </trkpt>
      <trkpt lat="66.03736" lon="16.23223">
        <time>2026-03-17T11:10:00Z</time>
      </trkpt>
      <trkpt lat="66.04433" lon="16.26358">
        <time>2026-03-17T12:10:00Z</time>
      </trkpt>
      <trkpt lat="66.0639" lon="16.27036">
        <time>2026-03-17T13:10:00Z</time>
      </trkpt>
      <trkpt lat="66.09995" lon="16.3119">
        <time>2026-03-17T14:10:00Z</time>
      </trkpt>
      <trkpt lat="66.14481" lon="16.35568">
        <time>2026-03-17T15:10:00Z</time>
      </trkpt>
      <trkpt lat="66.18095" lon="16.36894">
        <time>2026-03-17T16:10:00Z</time>
      </trkpt>
      <trkpt lat="66.20996" lon="16.37713">
        <time>2026-03-17T17:10:00Z</time>
      </trkpt>
      <trkpt lat="66.21061" lon="16.37651">
        <time>2026-03-17T18:04:00Z</time>
      </trkpt>
      <trkpt lat="66.21" lon="16.37705">
        <time>2026-03-18T06:59:00Z</time>
      </trkpt>
      <trkpt lat="66.2401" lon="16.38475">
        <time>2026-03-18T07:59:00Z</time>
      </trkpt>
      <trkpt lat="66.26735" lon="16.40614">
        <time>2026-03-18T08:59:00Z</time>
      </trkpt>
      <trkpt lat="66.2835" lon="16.4915">
        <time>2026-03-18T09:59:00Z</time>
      </trkpt>
      <trkpt lat="66.2845" lon="16.58652">
        <time>2026-03-18T10:59:00Z</time>
      </trkpt>
      <trkpt lat="66.27825" lon="16.65441">
        <time>2026-03-18T11:59:00Z</time>
      </trkpt>
      <trkpt lat="66.27823" lon="16.65424">
        <time>2026-03-18T12:59:00Z</time>
      </trkpt>
      <trkpt lat="66.27923" lon="16.6539">
        <time>2026-03-19T09:52:00Z</time>
      </trkpt>
      <trkpt lat="66.29976" lon="16.67666">
        <time>2026-03-19T10:52:00Z</time>
      </trkpt>
      <trkpt lat="66.3248" lon="16.7467">
        <time>2026-03-19T11:52:00Z</time>
      </trkpt>
      <trkpt lat="66.3414" lon="16.80584">
        <time>2026-03-19T12:52:00Z</time>
      </trkpt>
      <trkpt lat="66.35098" lon="16.83485">
        <time>2026-03-19T13:53:00Z</time>
      </trkpt>
      <trkpt lat="66.36716" lon="16.91823">
        <time>2026-03-19T14:53:00Z</time>
      </trkpt>
      <trkpt lat="66.3909" lon="16.96398">
        <time>2026-03-19T15:53:00Z</time>
      </trkpt>
      <trkpt lat="66.3857" lon="16.97368">
        <time>2026-03-19T16:53:00Z</time>
      </trkpt>
      <trkpt lat="66.3957" lon="17.02792">
        <time>2026-03-19T17:53:00Z</time>
      </trkpt>
      <trkpt lat="66.39572" lon="17.02799">
        <time>2026-03-19T18:05:00Z</time>
      </trkpt>
      <trkpt lat="66.3957" lon="17.02795">
        <time>2026-03-19T18:31:00Z</time>
      </trkpt>
      <trkpt lat="66.40015" lon="17.09833">
        <time>2026-03-20T08:48:00Z</time>
      </trkpt>
      <trkpt lat="66.40684" lon="17.18832">
        <time>2026-03-20T09:48:00Z</time>
      </trkpt>
      <trkpt lat="66.42426" lon="17.18727">
        <time>2026-03-20T10:48:00Z</time>
      </trkpt>
      <trkpt lat="66.4376" lon="17.2351">
        <time>2026-03-20T11:48:00Z</time>
      </trkpt>
      <trkpt lat="66.4591" lon="17.24203">
        <time>2026-03-20T12:48:00Z</time>
      </trkpt>
      <trkpt lat="66.49417" lon="17.23162">
        <time>2026-03-20T13:48:00Z</time>
      </trkpt>
      <trkpt lat="66.51732" lon="17.24302">
        <time>2026-03-20T14:48:00Z</time>
      </trkpt>
      <trkpt lat="66.55326" lon="17.23104">
        <time>2026-03-20T15:48:00Z</time>
      </trkpt>
      <trkpt lat="66.55352" lon="17.23113">
        <time>2026-03-20T16:48:00Z</time>
      </trkpt>
      <trkpt lat="66.55359" lon="17.23076">
        <time>2026-03-20T17:14:00Z</time>
      </trkpt>
      <trkpt lat="66.55359" lon="17.23076">
        <time>2026-03-20T17:15:00Z</time>
      </trkpt>
      <trkpt lat="66.55352" lon="17.23111">
        <time>2026-03-21T07:45:00Z</time>
      </trkpt>
      <trkpt lat="66.55352" lon="17.23113">
        <time>2026-03-21T07:46:00Z</time>
      </trkpt>
      <trkpt lat="66.56291" lon="17.2893">
        <time>2026-03-21T08:46:00Z</time>
      </trkpt>
      <trkpt lat="66.55495" lon="17.36974">
        <time>2026-03-21T09:46:00Z</time>
      </trkpt>
      <trkpt lat="66.56852" lon="17.39845">
        <time>2026-03-21T10:46:00Z</time>
      </trkpt>
      <trkpt lat="66.59753" lon="17.39515">
        <time>2026-03-21T11:46:00Z</time>
      </trkpt>
      <trkpt lat="66.61506" lon="17.37161">
        <time>2026-03-21T12:46:00Z</time>
      </trkpt>
      <trkpt lat="66.64316" lon="17.40163">
        <time>2026-03-21T13:46:00Z</time>
      </trkpt>
      <trkpt lat="66.6619" lon="17.41843">
        <time>2026-03-21T14:46:00Z</time>
      </trkpt>
      <trkpt lat="66.68278" lon="17.42839">
        <time>2026-03-21T15:46:00Z</time>
      </trkpt>
      <trkpt lat="66.71556" lon="17.39127">
        <time>2026-03-21T16:46:00Z</time>
      </trkpt>
      <trkpt lat="66.72613" lon="17.39562">
        <time>2026-03-21T17:46:00Z</time>
      </trkpt>
      <trkpt lat="66.72615" lon="17.39554">
        <time>2026-03-21T18:11:00Z</time>
      </trkpt>
      <trkpt lat="66.72612" lon="17.39554">
        <time>2026-03-21T18:12:00Z</time>
      </trkpt>
      <trkpt lat="66.72606" lon="17.39545">
        <time>2026-03-22T07:31:00Z</time>
      </trkpt>
      <trkpt lat="66.747" lon="17.42998">
        <time>2026-03-22T08:31:00Z</time>
      </trkpt>
      <trkpt lat="66.76703" lon="17.49358">
        <time>2026-03-22T09:31:00Z</time>
      </trkpt>
      <trkpt lat="66.78701" lon="17.55173">
        <time>2026-03-22T10:31:00Z</time>
      </trkpt>
      <trkpt lat="66.79362" lon="17.53894">
        <time>2026-03-22T11:31:00Z</time>
      </trkpt>
      <trkpt lat="66.81325" lon="17.55368">
        <time>2026-03-22T12:32:00Z</time>
      </trkpt>
      <trkpt lat="66.84494" lon="17.58921">
        <time>2026-03-22T13:32:00Z</time>
      </trkpt>
      <trkpt lat="66.86243" lon="17.59831">
        <time>2026-03-22T14:32:00Z</time>
      </trkpt>
      <trkpt lat="66.88358" lon="17.65365">
        <time>2026-03-22T15:32:00Z</time>
      </trkpt>
      <trkpt lat="66.92576" lon="17.71946">
        <time>2026-03-22T17:32:00Z</time>
      </trkpt>
      <trkpt lat="66.95235" lon="17.71923">
        <time>2026-03-22T18:32:00Z</time>
      </trkpt>
      <trkpt lat="66.95467" lon="17.72068">
        <time>2026-03-24T08:33:00Z</time>
      </trkpt>
      <trkpt lat="66.97045" lon="17.74738">
        <time>2026-03-24T09:33:00Z</time>
      </trkpt>
      <trkpt lat="66.99383" lon="17.78647">
        <time>2026-03-24T10:33:00Z</time>
      </trkpt>
      <trkpt lat="67.02421" lon="17.82724">
        <time>2026-03-24T11:33:00Z</time>
      </trkpt>
      <trkpt lat="67.03027" lon="17.9087">
        <time>2026-03-24T12:33:00Z</time>
      </trkpt>
      <trkpt lat="67.0422" lon="17.95487">
        <time>2026-03-24T13:33:00Z</time>
      </trkpt>
      <trkpt lat="67.04742" lon="18.04268">
        <time>2026-03-24T14:33:00Z</time>
      </trkpt>
      <trkpt lat="67.05636" lon="18.13164">
        <time>2026-03-24T15:33:00Z</time>
      </trkpt>
      <trkpt lat="67.06053" lon="18.20758">
        <time>2026-03-24T16:33:00Z</time>
      </trkpt>
      <trkpt lat="67.06167" lon="18.23309">
        <time>2026-03-24T17:33:00Z</time>
      </trkpt>
      <trkpt lat="67.06168" lon="18.23299">
        <time>2026-03-24T18:28:00Z</time>
      </trkpt>
      <trkpt lat="67.06165" lon="18.23297">
        <time>2026-03-24T18:29:00Z</time>
      </trkpt>
      <trkpt lat="67.06185" lon="18.23279">
        <time>2026-03-25T07:40:00Z</time>
      </trkpt>
      <trkpt lat="67.07536" lon="18.27423">
        <time>2026-03-25T08:40:00Z</time>
      </trkpt>
      <trkpt lat="67.09556" lon="18.27442">
        <time>2026-03-25T09:40:00Z</time>
      </trkpt>
      <trkpt lat="67.12812" lon="18.30176">
        <time>2026-03-25T10:40:00Z</time>
      </trkpt>
      <trkpt lat="67.14869" lon="18.30601">
        <time>2026-03-25T11:40:00Z</time>
      </trkpt>
      <trkpt lat="67.14871" lon="18.30601">
        <time>2026-03-25T12:40:00Z</time>
      </trkpt>
      <trkpt lat="67.1483" lon="18.32779">
        <time>2026-03-25T13:40:00Z</time>
      </trkpt>
      <trkpt lat="67.16262" lon="18.34684">
        <time>2026-03-25T14:40:00Z</time>
      </trkpt>
      <trkpt lat="67.18646" lon="18.43467">
        <time>2026-03-25T15:40:00Z</time>
      </trkpt>
      <trkpt lat="67.22702" lon="18.43261">
        <time>2026-03-25T16:40:00Z</time>
      </trkpt>
      <trkpt lat="67.23245" lon="18.44083">
        <time>2026-03-25T17:40:00Z</time>
      </trkpt>
      <trkpt lat="67.23236" lon="18.44083">
        <time>2026-03-25T18:40:00Z</time>
      </trkpt>
      <trkpt lat="67.23209" lon="18.44076">
        <time>2026-03-26T08:32:00Z</time>
      </trkpt>
      <trkpt lat="67.24039" lon="18.45222">
        <time>2026-03-26T09:32:00Z</time>
      </trkpt>
      <trkpt lat="67.26965" lon="18.46634">
        <time>2026-03-26T10:32:00Z</time>
      </trkpt>
      <trkpt lat="67.29547" lon="18.48325">
        <time>2026-03-26T11:33:00Z</time>
      </trkpt>
      <trkpt lat="67.32359" lon="18.49983">
        <time>2026-03-26T12:33:00Z</time>
      </trkpt>
      <trkpt lat="67.32701" lon="18.5046">
        <time>2026-03-26T13:33:00Z</time>
      </trkpt>
      <trkpt lat="67.35835" lon="18.50423">
        <time>2026-03-26T14:33:00Z</time>
      </trkpt>
      <trkpt lat="67.37931" lon="18.53307">
        <time>2026-03-26T15:33:00Z</time>
      </trkpt>
      <trkpt lat="67.37933" lon="18.53312">
        <time>2026-03-26T16:21:00Z</time>
      </trkpt>
      <trkpt lat="67.37933" lon="18.53312">
        <time>2026-03-26T16:33:00Z</time>
      </trkpt>
      <trkpt lat="67.39491" lon="18.52363">
        <time>2026-03-26T21:29:00Z</time>
      </trkpt>
      <trkpt lat="67.3945" lon="18.52099">
        <time>2026-03-26T21:30:00Z</time>
      </trkpt>
      <trkpt lat="67.3944" lon="18.5205">
        <time>2026-03-26T21:36:00Z</time>
      </trkpt>
      <trkpt lat="67.39603" lon="18.51507">
        <time>2026-03-27T11:06:00Z</time>
      </trkpt>
      <trkpt lat="67.41534" lon="18.462">
        <time>2026-03-27T12:06:00Z</time>
      </trkpt>
      <trkpt lat="67.42524" lon="18.44025">
        <time>2026-03-27T13:06:00Z</time>
      </trkpt>
      <trkpt lat="67.45003" lon="18.3933">
        <time>2026-03-27T14:06:00Z</time>
      </trkpt>
      <trkpt lat="67.47476" lon="18.36452">
        <time>2026-03-27T15:06:00Z</time>
      </trkpt>
      <trkpt lat="67.48887" lon="18.36787">
        <time>2026-03-27T16:06:00Z</time>
      </trkpt>
      <trkpt lat="67.50614" lon="18.44291">
        <time>2026-03-27T17:06:00Z</time>
      </trkpt>
      <trkpt lat="67.51266" lon="18.44029">
        <time>2026-03-27T18:06:00Z</time>
      </trkpt>
      <trkpt lat="67.51264" lon="18.4404">
        <time>2026-03-27T18:36:00Z</time>
      </trkpt>
      <trkpt lat="67.51263" lon="18.44031">
        <time>2026-03-27T22:36:00Z</time>
      </trkpt>
      <trkpt lat="67.51271" lon="18.4402">
        <time>2026-03-28T02:36:00Z</time>
      </trkpt>
      <trkpt lat="67.51262" lon="18.44055">
        <time>2026-03-28T06:36:00Z</time>
      </trkpt>
      <trkpt lat="67.51264" lon="18.44031">
        <time>2026-03-28T07:04:00Z</time>
      </trkpt>
      <trkpt lat="67.53442" lon="18.48739">
        <time>2026-03-28T08:04:00Z</time>
      </trkpt>
      <trkpt lat="67.56208" lon="18.4346">
        <time>2026-03-28T09:04:00Z</time>
      </trkpt>
      <trkpt lat="67.59824" lon="18.37931">
        <time>2026-03-28T10:04:00Z</time>
      </trkpt>
      <trkpt lat="67.62307" lon="18.36208">
        <time>2026-03-28T11:05:00Z</time>
      </trkpt>
      <trkpt lat="67.63789" lon="18.3182">
        <time>2026-03-28T12:05:00Z</time>
      </trkpt>
      <trkpt lat="67.64724" lon="18.29837">
        <time>2026-03-28T13:05:00Z</time>
      </trkpt>
      <trkpt lat="67.66872" lon="18.21769">
        <time>2026-03-28T14:05:00Z</time>
      </trkpt>
      <trkpt lat="67.69182" lon="18.16025">
        <time>2026-03-28T15:05:00Z</time>
      </trkpt>
      <trkpt lat="67.69418" lon="18.1572">
        <time>2026-03-28T16:05:00Z</time>
      </trkpt>
      <trkpt lat="67.6942" lon="18.15685">
        <time>2026-03-28T17:05:00Z</time>
      </trkpt>
      <trkpt lat="67.69428" lon="18.15696">
        <time>2026-03-28T18:05:00Z</time>
      </trkpt>
      <trkpt lat="67.6941" lon="18.15694">
        <time>2026-03-28T19:05:00Z</time>
      </trkpt>
      <trkpt lat="67.69411" lon="18.15685">
        <time>2026-03-28T19:35:00Z</time>
      </trkpt>
      <trkpt lat="67.69441" lon="18.15713">
        <time>2026-03-28T19:36:00Z</time>
      </trkpt>
      <trkpt lat="67.69405" lon="18.15724">
        <time>2026-03-29T08:55:00Z</time>
      </trkpt>
      <trkpt lat="67.70853" lon="18.12042">
        <time>2026-03-29T09:55:00Z</time>
      </trkpt>
      <trkpt lat="67.70207" lon="18.15834">
        <time>2026-03-29T10:55:00Z</time>
      </trkpt>
      <trkpt lat="67.71702" lon="18.21378">
        <time>2026-03-29T11:55:00Z</time>
      </trkpt>
      <trkpt lat="67.74498" lon="18.29772">
        <time>2026-03-29T12:56:00Z</time>
      </trkpt>
      <trkpt lat="67.74665" lon="18.29543">
        <time>2026-03-29T13:56:00Z</time>
      </trkpt>
      <trkpt lat="67.7647" lon="18.28457">
        <time>2026-03-29T14:56:00Z</time>
      </trkpt>
      <trkpt lat="67.79559" lon="18.2953">
        <time>2026-03-29T15:56:00Z</time>
      </trkpt>
      <trkpt lat="67.83446" lon="18.30865">
        <time>2026-03-29T16:56:00Z</time>
      </trkpt>
      <trkpt lat="67.85135" lon="18.31551">
        <time>2026-03-29T17:56:00Z</time>
      </trkpt>
      <trkpt lat="67.851" lon="18.31543">
        <time>2026-03-29T18:57:00Z</time>
      </trkpt>
      <trkpt lat="67.85125" lon="18.31547">
        <time>2026-03-29T19:57:00Z</time>
      </trkpt>
      <trkpt lat="67.85129" lon="18.31534">
        <time>2026-03-29T20:57:00Z</time>
      </trkpt>
      <trkpt lat="67.85119" lon="18.3153">
        <time>2026-03-29T21:57:00Z</time>
      </trkpt>
      <trkpt lat="67.85131" lon="18.31526">
        <time>2026-03-29T22:57:00Z</time>
      </trkpt>
      <trkpt lat="67.85119" lon="18.31558">
        <time>2026-03-29T23:57:00Z</time>
      </trkpt>
      <trkpt lat="67.85121" lon="18.31564">
        <time>2026-03-30T00:57:00Z</time>
      </trkpt>
      <trkpt lat="67.85115" lon="18.31564">
        <time>2026-03-30T01:57:00Z</time>
      </trkpt>
      <trkpt lat="67.85126" lon="18.31551">
        <time>2026-03-30T02:57:00Z</time>
      </trkpt>
      <trkpt lat="67.85115" lon="18.3156">
        <time>2026-03-30T03:57:00Z</time>
      </trkpt>
      <trkpt lat="67.85124" lon="18.31568">
        <time>2026-03-30T04:57:00Z</time>
      </trkpt>
      <trkpt lat="67.85121" lon="18.31547">
        <time>2026-03-30T05:57:00Z</time>
      </trkpt>
      <trkpt lat="67.85126" lon="18.31541">
        <time>2026-03-30T06:57:00Z</time>
      </trkpt>
      <trkpt lat="67.85119" lon="18.31553">
        <time>2026-03-30T08:02:00Z</time>
      </trkpt>
      <trkpt lat="67.88298" lon="18.3112">
        <time>2026-03-30T09:02:00Z</time>
      </trkpt>
      <trkpt lat="67.91051" lon="18.31047">
        <time>2026-03-30T10:02:00Z</time>
      </trkpt>
      <trkpt lat="67.94561" lon="18.28324">
        <time>2026-03-30T11:02:00Z</time>
      </trkpt>
      <trkpt lat="67.94631" lon="18.28253">
        <time>2026-03-30T12:02:00Z</time>
      </trkpt>
      <trkpt lat="67.97892" lon="18.26279">
        <time>2026-03-30T13:02:00Z</time>
      </trkpt>
      <trkpt lat="68.00775" lon="18.24326">
        <time>2026-03-30T14:02:00Z</time>
      </trkpt>
      <trkpt lat="68.0313" lon="18.24779">
        <time>2026-03-30T15:02:00Z</time>
      </trkpt>
      <trkpt lat="68.05161" lon="18.2417">
        <time>2026-03-30T15:48:00Z</time>
      </trkpt>
      <trkpt lat="68.05162" lon="18.24172">
        <time>2026-03-30T15:49:00Z</time>
      </trkpt>
      <trkpt lat="68.05165" lon="18.24151">
        <time>2026-03-31T07:29:00Z</time>
      </trkpt>
      <trkpt lat="68.09572" lon="18.30139">
        <time>2026-03-31T08:29:00Z</time>
      </trkpt>
      <trkpt lat="68.13043" lon="18.41021">
        <time>2026-03-31T09:29:00Z</time>
      </trkpt>
      <trkpt lat="68.16382" lon="18.4528">
        <time>2026-03-31T10:29:00Z</time>
      </trkpt>
      <trkpt lat="68.1961" lon="18.53148">
        <time>2026-03-31T11:29:00Z</time>
      </trkpt>
      <trkpt lat="68.22023" lon="18.56777">
        <time>2026-03-31T12:30:00Z</time>
      </trkpt>
      <trkpt lat="68.25064" lon="18.60058">
        <time>2026-03-31T13:30:00Z</time>
      </trkpt>
      <trkpt lat="68.26945" lon="18.57013">
        <time>2026-03-31T14:30:00Z</time>
      </trkpt>
      <trkpt lat="68.29261" lon="18.62049">
        <time>2026-03-31T15:30:00Z</time>
      </trkpt>
      <trkpt lat="68.31284" lon="18.70141">
        <time>2026-03-31T16:30:00Z</time>
      </trkpt>
      <trkpt lat="68.31504" lon="18.72797">
        <time>2026-03-31T17:30:00Z</time>
      </trkpt>
      <trkpt lat="68.3152" lon="18.72812">
        <time>2026-03-31T18:13:00Z</time>
      </trkpt>
      <trkpt lat="68.31517" lon="18.7281">
        <time>2026-03-31T18:13:00Z</time>
      </trkpt>
      <trkpt lat="68.31506" lon="18.7281">
        <time>2026-04-01T06:22:00Z</time>
      </trkpt>
      <trkpt lat="68.32877" lon="18.75806">
        <time>2026-04-01T07:22:00Z</time>
      </trkpt>
      <trkpt lat="68.35565" lon="18.76981">
        <time>2026-04-01T08:23:00Z</time>
      </trkpt>
      <trkpt lat="68.35876" lon="18.78267">
        <time>2026-04-01T09:44:00Z</time>
      </trkpt>
      <trkpt lat="68.35823" lon="18.78335">
        <time>2026-04-01T10:42:00Z</time>
      </trkpt>
      <trkpt lat="68.35831" lon="18.78327">
        <time>2026-04-01T10:43:00Z</time>
      </trkpt>
      <trkpt lat="68.35829" lon="18.78333">
        <time>2026-04-01T10:44:00Z</time>
      </trkpt>
      <trkpt lat="68.35906" lon="18.78479">
        <time>2026-04-02T18:58:00Z</time>
      </trkpt>
      <trkpt lat="68.3589" lon="18.78533">
        <time>2026-04-03T08:44:00Z</time>
      </trkpt>
      <trkpt lat="68.37025" lon="18.83232">
        <time>2026-04-03T09:44:00Z</time>
      </trkpt>
      <trkpt lat="68.37072" lon="18.96684">
        <time>2026-04-03T10:44:00Z</time>
      </trkpt>
      <trkpt lat="68.36726" lon="19.10687">
        <time>2026-04-03T11:44:00Z</time>
      </trkpt>
      <trkpt lat="68.35215" lon="19.22933">
        <time>2026-04-03T12:44:00Z</time>
      </trkpt>
      <trkpt lat="68.35078" lon="19.23352">
        <time>2026-04-03T13:44:00Z</time>
      </trkpt>
      <trkpt lat="68.34046" lon="19.36539">
        <time>2026-04-03T14:44:00Z</time>
      </trkpt>
      <trkpt lat="68.31627" lon="19.48006">
        <time>2026-04-03T15:44:00Z</time>
      </trkpt>
      <trkpt lat="68.30211" lon="19.57162">
        <time>2026-04-03T16:44:00Z</time>
      </trkpt>
      <trkpt lat="68.30912" lon="19.65424">
        <time>2026-04-03T17:44:00Z</time>
      </trkpt>
      <trkpt lat="68.30582" lon="19.72796">
        <time>2026-04-03T18:44:00Z</time>
      </trkpt>
      <trkpt lat="68.30585" lon="19.72805">
        <time>2026-04-03T19:32:00Z</time>
      </trkpt>
      <trkpt lat="68.30585" lon="19.72803">
        <time>2026-04-03T19:32:00Z</time>
      </trkpt>
      <trkpt lat="68.30559" lon="19.72942">
        <time>2026-04-04T08:32:00Z</time>
      </trkpt>
      <trkpt lat="68.31325" lon="19.83233">
        <time>2026-04-04T09:32:00Z</time>
      </trkpt>
      <trkpt lat="68.29396" lon="19.88049">
        <time>2026-04-04T10:32:00Z</time>
      </trkpt>
      <trkpt lat="68.29353" lon="19.90364">
        <time>2026-04-04T11:32:00Z</time>
      </trkpt>
      <trkpt lat="68.32411" lon="19.94992">
        <time>2026-04-04T12:32:00Z</time>
      </trkpt>
      <trkpt lat="68.32953" lon="19.9525">
        <time>2026-04-04T13:32:00Z</time>
      </trkpt>
      <trkpt lat="68.35316" lon="19.98754">
        <time>2026-04-04T14:32:00Z</time>
      </trkpt>
      <trkpt lat="68.37106" lon="20.05526">
        <time>2026-04-04T15:32:00Z</time>
      </trkpt>
      <trkpt lat="68.39367" lon="20.06225">
        <time>2026-04-04T16:32:00Z</time>
      </trkpt>
      <trkpt lat="68.4091" lon="20.07817">
        <time>2026-04-04T17:13:00Z</time>
      </trkpt>
      <trkpt lat="68.40908" lon="20.07813">
        <time>2026-04-04T17:13:00Z</time>
      </trkpt>
      <trkpt lat="68.40908" lon="20.07824">
        <time>2026-04-04T17:58:00Z</time>
      </trkpt>
      <trkpt lat="68.40922" lon="20.078">
        <time>2026-04-05T07:56:00Z</time>
      </trkpt>
      <trkpt lat="68.42228" lon="20.13997">
        <time>2026-04-05T08:56:00Z</time>
      </trkpt>
      <trkpt lat="68.45333" lon="20.20394">
        <time>2026-04-05T09:56:00Z</time>
      </trkpt>
      <trkpt lat="68.47551" lon="20.22984">
        <time>2026-04-05T10:56:00Z</time>
      </trkpt>
      <trkpt lat="68.48399" lon="20.24602">
        <time>2026-04-05T11:56:00Z</time>
      </trkpt>
      <trkpt lat="68.51376" lon="20.29316">
        <time>2026-04-05T12:56:00Z</time>
      </trkpt>
      <trkpt lat="68.54806" lon="20.3017">
        <time>2026-04-05T13:56:00Z</time>
      </trkpt>
      <trkpt lat="68.56612" lon="20.34524">
        <time>2026-04-05T14:56:00Z</time>
      </trkpt>
      <trkpt lat="68.58194" lon="20.38959">
        <time>2026-04-05T15:56:00Z</time>
      </trkpt>
      <trkpt lat="68.59558" lon="20.41592">
        <time>2026-04-05T16:56:00Z</time>
      </trkpt>
      <trkpt lat="68.59561" lon="20.41592">
        <time>2026-04-05T17:29:00Z</time>
      </trkpt>
      <trkpt lat="68.59561" lon="20.41592">
        <time>2026-04-05T17:29:00Z</time>
      </trkpt>
      <trkpt lat="68.59563" lon="20.4159">
        <time>2026-04-06T07:05:00Z</time>
      </trkpt>
      <trkpt lat="68.62329" lon="20.42433">
        <time>2026-04-06T08:05:00Z</time>
      </trkpt>
      <trkpt lat="68.65766" lon="20.45278">
        <time>2026-04-06T09:05:00Z</time>
      </trkpt>
      <trkpt lat="68.69928" lon="20.50439">
        <time>2026-04-06T10:05:00Z</time>
      </trkpt>
      <trkpt lat="68.72076" lon="20.51583">
        <time>2026-04-06T11:05:00Z</time>
      </trkpt>
      <trkpt lat="68.73815" lon="20.55668">
        <time>2026-04-06T12:05:00Z</time>
      </trkpt>
      <trkpt lat="68.7381" lon="20.55694">
        <time>2026-04-06T13:13:00Z</time>
      </trkpt>
      <trkpt lat="68.76058" lon="20.62758">
        <time>2026-04-06T14:13:00Z</time>
      </trkpt>
      <trkpt lat="68.77491" lon="20.67184">
        <time>2026-04-06T15:13:00Z</time>
      </trkpt>
      <trkpt lat="68.79051" lon="20.75514">
        <time>2026-04-06T16:13:00Z</time>
      </trkpt>
      <trkpt lat="68.80302" lon="20.80836">
        <time>2026-04-06T17:13:00Z</time>
      </trkpt>
      <trkpt lat="68.83005" lon="20.73888">
        <time>2026-04-06T18:13:00Z</time>
      </trkpt>
      <trkpt lat="68.85499" lon="20.71699">
        <time>2026-04-06T19:13:00Z</time>
      </trkpt>
      <trkpt lat="68.85493" lon="20.71691">
        <time>2026-04-06T19:32:00Z</time>
      </trkpt>
      <trkpt lat="68.85494" lon="20.71695">
        <time>2026-04-06T19:46:00Z</time>
      </trkpt>
      <trkpt lat="68.85499" lon="20.7168">
        <time>2026-04-07T07:00:00Z</time>
      </trkpt>
      <trkpt lat="68.86493" lon="20.63062">
        <time>2026-04-07T08:00:00Z</time>
      </trkpt>
      <trkpt lat="68.87611" lon="20.531">
        <time>2026-04-07T09:00:00Z</time>
      </trkpt>
      <trkpt lat="68.89292" lon="20.46061">
        <time>2026-04-07T10:00:00Z</time>
      </trkpt>
      <trkpt lat="68.92298" lon="20.39146">
        <time>2026-04-07T11:00:00Z</time>
      </trkpt>
      <trkpt lat="68.93895" lon="20.37521">
        <time>2026-04-07T12:00:00Z</time>
      </trkpt>
      <trkpt lat="68.97135" lon="20.35234">
        <time>2026-04-07T13:00:00Z</time>
      </trkpt>
      <trkpt lat="68.97414" lon="20.36871">
        <time>2026-04-07T14:00:00Z</time>
      </trkpt>
      <trkpt lat="68.97414" lon="20.36869">
        <time>2026-04-08T05:31:00Z</time>
      </trkpt>
      <trkpt lat="68.98226" lon="20.41585">
        <time>2026-04-08T06:31:00Z</time>
      </trkpt>
      <trkpt lat="69.00315" lon="20.47669">
        <time>2026-04-08T07:31:00Z</time>
      </trkpt>
      <trkpt lat="69.04599" lon="20.51823">
        <time>2026-04-08T08:31:00Z</time>
      </trkpt>
      <trkpt lat="69.05988" lon="20.54876">
        <time>2026-04-08T09:31:00Z</time>
      </trkpt>
      <trkpt lat="69.05187" lon="20.59376">
        <time>2026-04-08T10:31:00Z</time>
      </trkpt>
      <trkpt lat="69.04562" lon="20.65034">
        <time>2026-04-08T11:31:00Z</time>
      </trkpt>
      <trkpt lat="69.04563" lon="20.76935">
        <time>2026-04-08T12:31:00Z</time>
      </trkpt>
      <trkpt lat="69.04677" lon="20.80119">
        <time>2026-04-08T13:31:00Z</time>
      </trkpt>
      <trkpt lat="69.04686" lon="20.80126">
        <time>2026-04-08T14:31:00Z</time>
      </trkpt>
      <trkpt lat="69.04687" lon="20.80115">
        <time>2026-04-08T15:31:00Z</time>
      </trkpt>
      <trkpt lat="69.0469" lon="20.80119">
        <time>2026-04-08T16:31:00Z</time>
      </trkpt>
    </trkseg>
  </trk>
</gpx>
