<?xml version="1.0" encoding="UTF-8"?>
<gpx xmlns="http://www.topografix.com/GPX/1/1" version="1.1" creator="VitaBandet">
  <metadata>
    <name>Viktor 's Band</name>
  </metadata>
  <trk>
    <name>Viktor 's Band</name>
    <trkseg>
      <trkpt lat="62.09883" lon="12.31252">
        <time>2025-02-11T09:00:00Z</time>
      </trkpt>
      <trkpt lat="62.09817" lon="12.31876">
        <time>2025-02-11T09:30:00Z</time>
      </trkpt>
      <trkpt lat="62.10427" lon="12.33236">
        <time>2025-02-11T10:00:00Z</time>
      </trkpt>
      <trkpt lat="62.11293" lon="12.33863">
        <time>2025-02-11T10:30:00Z</time>
      </trkpt>
      <trkpt lat="62.13301" lon="12.36088">
        <time>2025-02-11T11:00:00Z</time>
      </trkpt>
      <trkpt lat="62.15481" lon="12.37337">
        <time>2025-02-11T11:30:00Z</time>
      </trkpt>
      <trkpt lat="62.18423" lon="12.39013">
        <time>2025-02-11T12:00:00Z</time>
      </trkpt>
      <trkpt lat="62.18726" lon="12.38925">
        <time>2025-02-11T12:30:00Z</time>
      </trkpt>
      <trkpt lat="62.18726" lon="12.38933">
        <time>2025-02-11T13:00:00Z</time>
      </trkpt>
      <trkpt lat="62.20509" lon="12.37886">
        <time>2025-02-11T13:30:00Z</time>
      </trkpt>
      <trkpt lat="62.21877" lon="12.35298">
        <time>2025-02-11T14:00:00Z</time>
      </trkpt>
      <trkpt lat="62.22863" lon="12.35277">
        <time>2025-02-11T14:30:00Z</time>
      </trkpt>
      <trkpt lat="62.24378" lon="12.34738">
        <time>2025-02-11T15:00:00Z</time>
      </trkpt>
      <trkpt lat="62.25546" lon="12.34936">
        <time>2025-02-11T15:30:00Z</time>
      </trkpt>
      <trkpt lat="62.25552" lon="12.34899">
        <time>2025-02-11T16:00:00Z</time>
      </trkpt>
      <trkpt lat="62.25545" lon="12.34899">
        <time>2025-02-12T09:06:00Z</time>
      </trkpt>
      <trkpt lat="62.25937" lon="12.36822">
        <time>2025-02-12T09:36:00Z</time>
      </trkpt>
      <trkpt lat="62.27363" lon="12.39021">
        <time>2025-02-12T10:06:00Z</time>
      </trkpt>
      <trkpt lat="62.28062" lon="12.39768">
        <time>2025-02-12T10:36:00Z</time>
      </trkpt>
      <trkpt lat="62.29236" lon="12.4124">
        <time>2025-02-12T11:06:00Z</time>
      </trkpt>
      <trkpt lat="62.30005" lon="12.43478">
        <time>2025-02-12T11:37:00Z</time>
      </trkpt>
      <trkpt lat="62.31" lon="12.4303">
        <time>2025-02-12T12:07:00Z</time>
      </trkpt>
      <trkpt lat="62.3123" lon="12.42869">
        <time>2025-02-12T12:37:00Z</time>
      </trkpt>
      <trkpt lat="62.32981" lon="12.41071">
        <time>2025-02-12T13:07:00Z</time>
      </trkpt>
      <trkpt lat="62.33683" lon="12.39412">
        <time>2025-02-12T13:37:00Z</time>
      </trkpt>
      <trkpt lat="62.3485" lon="12.36084">
        <time>2025-02-12T14:07:00Z</time>
      </trkpt>
      <trkpt lat="62.35525" lon="12.34535">
        <time>2025-02-12T14:37:00Z</time>
      </trkpt>
      <trkpt lat="62.36251" lon="12.34135">
        <time>2025-02-12T15:07:00Z</time>
      </trkpt>
      <trkpt lat="62.37715" lon="12.31887">
        <time>2025-02-12T15:37:00Z</time>
      </trkpt>
      <trkpt lat="62.38712" lon="12.29537">
        <time>2025-02-12T16:07:00Z</time>
      </trkpt>
      <trkpt lat="62.38795" lon="12.28797">
        <time>2025-02-12T16:37:00Z</time>
      </trkpt>
      <trkpt lat="62.388" lon="12.28805">
        <time>2025-02-13T07:50:00Z</time>
      </trkpt>
      <trkpt lat="62.39583" lon="12.28076">
        <time>2025-02-13T08:20:00Z</time>
      </trkpt>
      <trkpt lat="62.41158" lon="12.27771">
        <time>2025-02-13T08:50:00Z</time>
      </trkpt>
      <trkpt lat="62.42393" lon="12.29061">
        <time>2025-02-13T09:20:00Z</time>
      </trkpt>
      <trkpt lat="62.43997" lon="12.28992">
        <time>2025-02-13T09:50:00Z</time>
      </trkpt>
      <trkpt lat="62.44691" lon="12.28666">
        <time>2025-02-13T10:20:00Z</time>
      </trkpt>
      <trkpt lat="62.46001" lon="12.28378">
        <time>2025-02-13T10:50:00Z</time>
      </trkpt>
      <trkpt lat="62.46746" lon="12.28438">
        <time>2025-02-13T11:22:00Z</time>
      </trkpt>
      <trkpt lat="62.46754" lon="12.28426">
        <time>2025-02-13T11:52:00Z</time>
      </trkpt>
      <trkpt lat="62.47283" lon="12.28908">
        <time>2025-02-13T12:22:00Z</time>
      </trkpt>
      <trkpt lat="62.48124" lon="12.27288">
        <time>2025-02-13T12:52:00Z</time>
      </trkpt>
      <trkpt lat="62.48888" lon="12.26941">
        <time>2025-02-13T13:22:00Z</time>
      </trkpt>
      <trkpt lat="62.5127" lon="12.27926">
        <time>2025-02-13T13:52:00Z</time>
      </trkpt>
      <trkpt lat="62.52773" lon="12.2973">
        <time>2025-02-13T14:23:00Z</time>
      </trkpt>
      <trkpt lat="62.54162" lon="12.31299">
        <time>2025-02-13T14:53:00Z</time>
      </trkpt>
      <trkpt lat="62.5488" lon="12.30095">
        <time>2025-02-13T15:23:00Z</time>
      </trkpt>
      <trkpt lat="62.55751" lon="12.26288">
        <time>2025-02-13T15:53:00Z</time>
      </trkpt>
      <trkpt lat="62.56947" lon="12.23462">
        <time>2025-02-13T16:23:00Z</time>
      </trkpt>
      <trkpt lat="62.57417" lon="12.22638">
        <time>2025-02-13T17:00:00Z</time>
      </trkpt>
      <trkpt lat="62.58005" lon="12.20169">
        <time>2025-02-13T17:30:00Z</time>
      </trkpt>
      <trkpt lat="62.59353" lon="12.1807">
        <time>2025-02-13T18:00:00Z</time>
      </trkpt>
      <trkpt lat="62.60305" lon="12.17216">
        <time>2025-02-13T18:30:00Z</time>
      </trkpt>
      <trkpt lat="62.60491" lon="12.18081">
        <time>2025-02-13T19:01:00Z</time>
      </trkpt>
      <trkpt lat="62.6049" lon="12.18064">
        <time>2025-02-15T09:26:00Z</time>
      </trkpt>
      <trkpt lat="62.60441" lon="12.19343">
        <time>2025-02-15T09:56:00Z</time>
      </trkpt>
      <trkpt lat="62.6073" lon="12.22501">
        <time>2025-02-15T10:26:00Z</time>
      </trkpt>
      <trkpt lat="62.61205" lon="12.26123">
        <time>2025-02-15T10:56:00Z</time>
      </trkpt>
      <trkpt lat="62.6144" lon="12.29825">
        <time>2025-02-15T11:26:00Z</time>
      </trkpt>
      <trkpt lat="62.61427" lon="12.32612">
        <time>2025-02-15T11:56:00Z</time>
      </trkpt>
      <trkpt lat="62.61431" lon="12.3261">
        <time>2025-02-15T12:26:00Z</time>
      </trkpt>
      <trkpt lat="62.62358" lon="12.35223">
        <time>2025-02-15T12:56:00Z</time>
      </trkpt>
      <trkpt lat="62.63484" lon="12.35934">
        <time>2025-02-15T13:26:00Z</time>
      </trkpt>
      <trkpt lat="62.64172" lon="12.4045">
        <time>2025-02-15T13:56:00Z</time>
      </trkpt>
      <trkpt lat="62.6415" lon="12.4194">
        <time>2025-02-15T14:26:00Z</time>
      </trkpt>
      <trkpt lat="62.64244" lon="12.43821">
        <time>2025-02-15T14:56:00Z</time>
      </trkpt>
      <trkpt lat="62.6465" lon="12.44761">
        <time>2025-02-15T15:26:00Z</time>
      </trkpt>
      <trkpt lat="62.63761" lon="12.46772">
        <time>2025-02-15T15:56:00Z</time>
      </trkpt>
      <trkpt lat="62.63745" lon="12.46939">
        <time>2025-02-15T16:26:00Z</time>
      </trkpt>
      <trkpt lat="62.63744" lon="12.46937">
        <time>2025-02-16T08:08:00Z</time>
      </trkpt>
      <trkpt lat="62.63999" lon="12.48149">
        <time>2025-02-16T08:38:00Z</time>
      </trkpt>
      <trkpt lat="62.64272" lon="12.51505">
        <time>2025-02-16T09:08:00Z</time>
      </trkpt>
      <trkpt lat="62.63715" lon="12.55623">
        <time>2025-02-16T09:38:00Z</time>
      </trkpt>
      <trkpt lat="62.63146" lon="12.58743">
        <time>2025-02-16T10:08:00Z</time>
      </trkpt>
      <trkpt lat="62.63157" lon="12.63464">
        <time>2025-02-16T10:38:00Z</time>
      </trkpt>
      <trkpt lat="62.64067" lon="12.66346">
        <time>2025-02-16T11:08:00Z</time>
      </trkpt>
      <trkpt lat="62.65158" lon="12.66989">
        <time>2025-02-16T11:38:00Z</time>
      </trkpt>
      <trkpt lat="62.65613" lon="12.68562">
        <time>2025-02-16T12:08:00Z</time>
      </trkpt>
      <trkpt lat="62.67832" lon="12.67674">
        <time>2025-02-16T12:38:00Z</time>
      </trkpt>
      <trkpt lat="62.68813" lon="12.67966">
        <time>2025-02-16T13:08:00Z</time>
      </trkpt>
      <trkpt lat="62.69705" lon="12.68489">
        <time>2025-02-16T13:38:00Z</time>
      </trkpt>
      <trkpt lat="62.70014" lon="12.70328">
        <time>2025-02-16T14:08:00Z</time>
      </trkpt>
      <trkpt lat="62.7001" lon="12.70324">
        <time>2025-02-16T14:38:00Z</time>
      </trkpt>
      <trkpt lat="62.70015" lon="12.70322">
        <time>2025-02-16T17:35:00Z</time>
      </trkpt>
      <trkpt lat="62.70006" lon="12.70328">
        <time>2025-02-17T07:53:00Z</time>
      </trkpt>
      <trkpt lat="62.7077" lon="12.71008">
        <time>2025-02-17T08:23:00Z</time>
      </trkpt>
      <trkpt lat="62.71937" lon="12.72049">
        <time>2025-02-17T08:53:00Z</time>
      </trkpt>
      <trkpt lat="62.73235" lon="12.74002">
        <time>2025-02-17T09:23:00Z</time>
      </trkpt>
      <trkpt lat="62.7479" lon="12.75755">
        <time>2025-02-17T09:53:00Z</time>
      </trkpt>
      <trkpt lat="62.77045" lon="12.77145">
        <time>2025-02-17T10:23:00Z</time>
      </trkpt>
      <trkpt lat="62.78746" lon="12.76263">
        <time>2025-02-17T10:53:00Z</time>
      </trkpt>
      <trkpt lat="62.79926" lon="12.77201">
        <time>2025-02-17T11:23:00Z</time>
      </trkpt>
      <trkpt lat="62.81174" lon="12.75695">
        <time>2025-02-17T11:53:00Z</time>
      </trkpt>
      <trkpt lat="62.82098" lon="12.76508">
        <time>2025-02-17T12:23:00Z</time>
      </trkpt>
      <trkpt lat="62.83035" lon="12.79347">
        <time>2025-02-17T12:53:00Z</time>
      </trkpt>
      <trkpt lat="62.84967" lon="12.79579">
        <time>2025-02-17T13:23:00Z</time>
      </trkpt>
      <trkpt lat="62.8508" lon="12.79098">
        <time>2025-02-17T13:55:00Z</time>
      </trkpt>
      <trkpt lat="62.85062" lon="12.79094">
        <time>2025-02-17T14:25:00Z</time>
      </trkpt>
      <trkpt lat="62.85131" lon="12.78963">
        <time>2025-02-17T16:30:00Z</time>
      </trkpt>
      <trkpt lat="62.85052" lon="12.79081">
        <time>2025-02-18T07:32:00Z</time>
      </trkpt>
      <trkpt lat="62.85335" lon="12.7795">
        <time>2025-02-18T08:02:00Z</time>
      </trkpt>
      <trkpt lat="62.86526" lon="12.7665">
        <time>2025-02-18T08:32:00Z</time>
      </trkpt>
      <trkpt lat="62.8822" lon="12.75416">
        <time>2025-02-18T09:02:00Z</time>
      </trkpt>
      <trkpt lat="62.88959" lon="12.73648">
        <time>2025-02-18T09:32:00Z</time>
      </trkpt>
      <trkpt lat="62.90371" lon="12.73225">
        <time>2025-02-18T10:02:00Z</time>
      </trkpt>
      <trkpt lat="62.92252" lon="12.73424">
        <time>2025-02-18T10:33:00Z</time>
      </trkpt>
      <trkpt lat="62.93036" lon="12.72637">
        <time>2025-02-18T11:03:00Z</time>
      </trkpt>
      <trkpt lat="62.93714" lon="12.72349">
        <time>2025-02-18T11:33:00Z</time>
      </trkpt>
      <trkpt lat="62.94741" lon="12.7286">
        <time>2025-02-18T12:03:00Z</time>
      </trkpt>
      <trkpt lat="62.96086" lon="12.74454">
        <time>2025-02-18T12:33:00Z</time>
      </trkpt>
      <trkpt lat="62.97936" lon="12.75796">
        <time>2025-02-18T13:03:00Z</time>
      </trkpt>
      <trkpt lat="62.99016" lon="12.74903">
        <time>2025-02-18T13:33:00Z</time>
      </trkpt>
      <trkpt lat="63.0051" lon="12.74446">
        <time>2025-02-18T14:03:00Z</time>
      </trkpt>
      <trkpt lat="63.02246" lon="12.76444">
        <time>2025-02-18T14:33:00Z</time>
      </trkpt>
      <trkpt lat="63.03637" lon="12.79021">
        <time>2025-02-18T15:03:00Z</time>
      </trkpt>
      <trkpt lat="63.04093" lon="12.80001">
        <time>2025-02-18T15:34:00Z</time>
      </trkpt>
      <trkpt lat="63.04049" lon="12.80023">
        <time>2025-02-18T16:04:00Z</time>
      </trkpt>
      <trkpt lat="63.04088" lon="12.79997">
        <time>2025-02-19T08:12:00Z</time>
      </trkpt>
      <trkpt lat="63.05435" lon="12.79332">
        <time>2025-02-19T08:42:00Z</time>
      </trkpt>
      <trkpt lat="63.07251" lon="12.81083">
        <time>2025-02-19T09:12:00Z</time>
      </trkpt>
      <trkpt lat="63.08636" lon="12.81958">
        <time>2025-02-19T09:42:00Z</time>
      </trkpt>
      <trkpt lat="63.09313" lon="12.81267">
        <time>2025-02-19T10:12:00Z</time>
      </trkpt>
      <trkpt lat="63.11184" lon="12.8254">
        <time>2025-02-19T10:42:00Z</time>
      </trkpt>
      <trkpt lat="63.11683" lon="12.86095">
        <time>2025-02-19T11:12:00Z</time>
      </trkpt>
      <trkpt lat="63.12423" lon="12.8655">
        <time>2025-02-19T11:42:00Z</time>
      </trkpt>
      <trkpt lat="63.12919" lon="12.87213">
        <time>2025-02-19T12:12:00Z</time>
      </trkpt>
      <trkpt lat="63.13664" lon="12.89631">
        <time>2025-02-19T12:42:00Z</time>
      </trkpt>
      <trkpt lat="63.14364" lon="12.93354">
        <time>2025-02-19T13:12:00Z</time>
      </trkpt>
      <trkpt lat="63.14656" lon="12.96431">
        <time>2025-02-19T13:42:00Z</time>
      </trkpt>
      <trkpt lat="63.151" lon="12.98238">
        <time>2025-02-19T14:12:00Z</time>
      </trkpt>
      <trkpt lat="63.15639" lon="13.02409">
        <time>2025-02-19T14:42:00Z</time>
      </trkpt>
      <trkpt lat="63.16587" lon="13.0595">
        <time>2025-02-19T15:30:00Z</time>
      </trkpt>
      <trkpt lat="63.16654" lon="13.05991">
        <time>2025-02-20T08:04:00Z</time>
      </trkpt>
      <trkpt lat="63.18422" lon="13.06368">
        <time>2025-02-20T08:34:00Z</time>
      </trkpt>
      <trkpt lat="63.20327" lon="13.04881">
        <time>2025-02-20T09:04:00Z</time>
      </trkpt>
      <trkpt lat="63.21174" lon="13.05347">
        <time>2025-02-20T09:34:00Z</time>
      </trkpt>
      <trkpt lat="63.21903" lon="13.05656">
        <time>2025-02-20T10:04:00Z</time>
      </trkpt>
      <trkpt lat="63.22317" lon="13.06928">
        <time>2025-02-20T10:34:00Z</time>
      </trkpt>
      <trkpt lat="63.24271" lon="13.08995">
        <time>2025-02-20T11:04:00Z</time>
      </trkpt>
      <trkpt lat="63.2507" lon="13.10911">
        <time>2025-02-20T11:34:00Z</time>
      </trkpt>
      <trkpt lat="63.25002" lon="13.11096">
        <time>2025-02-20T12:04:00Z</time>
      </trkpt>
      <trkpt lat="63.24622" lon="13.15484">
        <time>2025-02-20T12:34:00Z</time>
      </trkpt>
      <trkpt lat="63.25442" lon="13.17138">
        <time>2025-02-20T13:04:00Z</time>
      </trkpt>
      <trkpt lat="63.26273" lon="13.19485">
        <time>2025-02-20T13:34:00Z</time>
      </trkpt>
      <trkpt lat="63.29172" lon="13.21417">
        <time>2025-02-20T14:04:00Z</time>
      </trkpt>
      <trkpt lat="63.30365" lon="13.19902">
        <time>2025-02-20T14:34:00Z</time>
      </trkpt>
      <trkpt lat="63.3019" lon="13.21417">
        <time>2025-02-20T15:05:00Z</time>
      </trkpt>
      <trkpt lat="63.30753" lon="13.2314">
        <time>2025-02-20T15:35:00Z</time>
      </trkpt>
      <trkpt lat="63.30855" lon="13.2305">
        <time>2025-02-20T16:05:00Z</time>
      </trkpt>
      <trkpt lat="63.30849" lon="13.23026">
        <time>2025-02-20T16:35:00Z</time>
      </trkpt>
      <trkpt lat="63.30848" lon="13.23045">
        <time>2025-02-21T08:26:00Z</time>
      </trkpt>
      <trkpt lat="63.31207" lon="13.24766">
        <time>2025-02-21T08:56:00Z</time>
      </trkpt>
      <trkpt lat="63.31733" lon="13.23822">
        <time>2025-02-21T09:26:00Z</time>
      </trkpt>
      <trkpt lat="63.32798" lon="13.24496">
        <time>2025-02-21T09:57:00Z</time>
      </trkpt>
      <trkpt lat="63.33679" lon="13.26545">
        <time>2025-02-21T10:27:00Z</time>
      </trkpt>
      <trkpt lat="63.33951" lon="13.26554">
        <time>2025-02-21T10:57:00Z</time>
      </trkpt>
      <trkpt lat="63.35459" lon="13.2603">
        <time>2025-02-21T11:27:00Z</time>
      </trkpt>
      <trkpt lat="63.36576" lon="13.23631">
        <time>2025-02-21T11:57:00Z</time>
      </trkpt>
      <trkpt lat="63.37749" lon="13.22191">
        <time>2025-02-21T12:27:00Z</time>
      </trkpt>
      <trkpt lat="63.37735" lon="13.22198">
        <time>2025-02-21T12:57:00Z</time>
      </trkpt>
      <trkpt lat="63.38165" lon="13.21788">
        <time>2025-02-21T13:27:00Z</time>
      </trkpt>
      <trkpt lat="63.39283" lon="13.20073">
        <time>2025-02-21T13:57:00Z</time>
      </trkpt>
      <trkpt lat="63.40216" lon="13.20616">
        <time>2025-02-21T14:27:00Z</time>
      </trkpt>
      <trkpt lat="63.40462" lon="13.20927">
        <time>2025-02-21T15:13:00Z</time>
      </trkpt>
      <trkpt lat="63.41121" lon="13.2203">
        <time>2025-02-21T15:43:00Z</time>
      </trkpt>
      <trkpt lat="63.41252" lon="13.21438">
        <time>2025-02-21T16:13:00Z</time>
      </trkpt>
      <trkpt lat="63.41258" lon="13.21425">
        <time>2025-02-21T16:43:00Z</time>
      </trkpt>
      <trkpt lat="63.4125" lon="13.21432">
        <time>2025-02-22T07:54:00Z</time>
      </trkpt>
      <trkpt lat="63.41977" lon="13.22271">
        <time>2025-02-22T08:24:00Z</time>
      </trkpt>
      <trkpt lat="63.44545" lon="13.22957">
        <time>2025-02-22T08:54:00Z</time>
      </trkpt>
      <trkpt lat="63.45765" lon="13.21717">
        <time>2025-02-22T09:24:00Z</time>
      </trkpt>
      <trkpt lat="63.47218" lon="13.22678">
        <time>2025-02-22T09:54:00Z</time>
      </trkpt>
      <trkpt lat="63.47344" lon="13.23035">
        <time>2025-02-22T11:01:00Z</time>
      </trkpt>
      <trkpt lat="63.4768" lon="13.23869">
        <time>2025-02-22T11:31:00Z</time>
      </trkpt>
      <trkpt lat="63.46903" lon="13.27257">
        <time>2025-02-22T12:01:00Z</time>
      </trkpt>
      <trkpt lat="63.46888" lon="13.27496">
        <time>2025-02-22T12:31:00Z</time>
      </trkpt>
      <trkpt lat="63.47145" lon="13.27487">
        <time>2025-02-22T13:01:00Z</time>
      </trkpt>
      <trkpt lat="63.47148" lon="13.27474">
        <time>2025-02-22T13:31:00Z</time>
      </trkpt>
      <trkpt lat="63.47144" lon="13.27457">
        <time>2025-02-23T09:48:00Z</time>
      </trkpt>
      <trkpt lat="63.48154" lon="13.27408">
        <time>2025-02-23T10:18:00Z</time>
      </trkpt>
      <trkpt lat="63.49519" lon="13.26976">
        <time>2025-02-23T10:48:00Z</time>
      </trkpt>
      <trkpt lat="63.51183" lon="13.25215">
        <time>2025-02-23T11:18:00Z</time>
      </trkpt>
      <trkpt lat="63.52132" lon="13.25912">
        <time>2025-02-23T11:48:00Z</time>
      </trkpt>
      <trkpt lat="63.5362" lon="13.26255">
        <time>2025-02-23T12:18:00Z</time>
      </trkpt>
      <trkpt lat="63.54969" lon="13.26178">
        <time>2025-02-23T12:48:00Z</time>
      </trkpt>
      <trkpt lat="63.55309" lon="13.25444">
        <time>2025-02-23T13:18:00Z</time>
      </trkpt>
      <trkpt lat="63.56619" lon="13.24925">
        <time>2025-02-23T13:48:00Z</time>
      </trkpt>
      <trkpt lat="63.57787" lon="13.2265">
        <time>2025-02-23T14:18:00Z</time>
      </trkpt>
      <trkpt lat="63.5885" lon="13.19408">
        <time>2025-02-23T14:48:00Z</time>
      </trkpt>
      <trkpt lat="63.60152" lon="13.17992">
        <time>2025-02-23T15:19:00Z</time>
      </trkpt>
      <trkpt lat="63.61631" lon="13.21026">
        <time>2025-02-23T15:49:00Z</time>
      </trkpt>
      <trkpt lat="63.62159" lon="13.21588">
        <time>2025-02-23T16:19:00Z</time>
      </trkpt>
      <trkpt lat="63.6216" lon="13.21608">
        <time>2025-02-23T16:49:00Z</time>
      </trkpt>
      <trkpt lat="63.62155" lon="13.21599">
        <time>2025-02-24T07:34:00Z</time>
      </trkpt>
      <trkpt lat="63.6227" lon="13.21689">
        <time>2025-02-24T08:04:00Z</time>
      </trkpt>
      <trkpt lat="63.63571" lon="13.22938">
        <time>2025-02-24T08:34:00Z</time>
      </trkpt>
      <trkpt lat="63.63999" lon="13.26515">
        <time>2025-02-24T09:04:00Z</time>
      </trkpt>
      <trkpt lat="63.6467" lon="13.28691">
        <time>2025-02-24T09:34:00Z</time>
      </trkpt>
      <trkpt lat="63.6576" lon="13.28985">
        <time>2025-02-24T10:04:00Z</time>
      </trkpt>
      <trkpt lat="63.673" lon="13.31137">
        <time>2025-02-24T10:36:00Z</time>
      </trkpt>
      <trkpt lat="63.68229" lon="13.33836">
        <time>2025-02-24T11:06:00Z</time>
      </trkpt>
      <trkpt lat="63.68713" lon="13.37544">
        <time>2025-02-24T11:38:00Z</time>
      </trkpt>
      <trkpt lat="63.68722" lon="13.3831">
        <time>2025-02-24T12:08:00Z</time>
      </trkpt>
      <trkpt lat="63.68837" lon="13.42864">
        <time>2025-02-24T12:38:00Z</time>
      </trkpt>
      <trkpt lat="63.69309" lon="13.45561">
        <time>2025-02-24T13:08:00Z</time>
      </trkpt>
      <trkpt lat="63.69009" lon="13.49561">
        <time>2025-02-24T13:38:00Z</time>
      </trkpt>
      <trkpt lat="63.69098" lon="13.52348">
        <time>2025-02-24T14:08:00Z</time>
      </trkpt>
      <trkpt lat="63.69257" lon="13.54298">
        <time>2025-02-24T14:38:00Z</time>
      </trkpt>
      <trkpt lat="63.6908" lon="13.57914">
        <time>2025-02-24T15:08:00Z</time>
      </trkpt>
      <trkpt lat="63.69523" lon="13.62208">
        <time>2025-02-24T15:38:00Z</time>
      </trkpt>
      <trkpt lat="63.69636" lon="13.62596">
        <time>2025-02-24T16:08:00Z</time>
      </trkpt>
      <trkpt lat="63.69642" lon="13.62579">
        <time>2025-02-26T08:11:00Z</time>
      </trkpt>
      <trkpt lat="63.70804" lon="13.60721">
        <time>2025-02-26T08:41:00Z</time>
      </trkpt>
      <trkpt lat="63.7211" lon="13.6157">
        <time>2025-02-26T09:11:00Z</time>
      </trkpt>
      <trkpt lat="63.73612" lon="13.62409">
        <time>2025-02-26T09:41:00Z</time>
      </trkpt>
      <trkpt lat="63.74756" lon="13.63242">
        <time>2025-02-26T10:11:00Z</time>
      </trkpt>
      <trkpt lat="63.75467" lon="13.65602">
        <time>2025-02-26T10:41:00Z</time>
      </trkpt>
      <trkpt lat="63.75011" lon="13.68759">
        <time>2025-02-26T11:11:00Z</time>
      </trkpt>
      <trkpt lat="63.7445" lon="13.73887">
        <time>2025-02-26T11:41:00Z</time>
      </trkpt>
      <trkpt lat="63.74446" lon="13.73889">
        <time>2025-02-26T12:11:00Z</time>
      </trkpt>
      <trkpt lat="63.75057" lon="13.76327">
        <time>2025-02-26T12:41:00Z</time>
      </trkpt>
      <trkpt lat="63.7625" lon="13.7876">
        <time>2025-02-26T13:11:00Z</time>
      </trkpt>
      <trkpt lat="63.76744" lon="13.80558">
        <time>2025-02-26T13:41:00Z</time>
      </trkpt>
      <trkpt lat="63.7763" lon="13.82719">
        <time>2025-02-26T14:11:00Z</time>
      </trkpt>
      <trkpt lat="63.78017" lon="13.82193">
        <time>2025-02-26T14:41:00Z</time>
      </trkpt>
      <trkpt lat="63.77965" lon="13.81764">
        <time>2025-02-26T15:11:00Z</time>
      </trkpt>
      <trkpt lat="63.78124" lon="13.8214">
        <time>2025-02-26T15:41:00Z</time>
      </trkpt>
      <trkpt lat="63.78584" lon="13.83116">
        <time>2025-02-26T16:11:00Z</time>
      </trkpt>
      <trkpt lat="63.78587" lon="13.83101">
        <time>2025-02-26T16:41:00Z</time>
      </trkpt>
      <trkpt lat="63.78586" lon="13.83125">
        <time>2025-02-26T20:41:00Z</time>
      </trkpt>
      <trkpt lat="63.78587" lon="13.83125">
        <time>2025-02-27T00:41:00Z</time>
      </trkpt>
      <trkpt lat="63.78589" lon="13.83123">
        <time>2025-02-27T04:41:00Z</time>
      </trkpt>
      <trkpt lat="63.79023" lon="13.83794">
        <time>2025-02-27T08:11:00Z</time>
      </trkpt>
      <trkpt lat="63.80801" lon="13.83176">
        <time>2025-02-27T08:41:00Z</time>
      </trkpt>
      <trkpt lat="63.83007" lon="13.82148">
        <time>2025-02-27T09:12:00Z</time>
      </trkpt>
      <trkpt lat="63.82197" lon="13.82949">
        <time>2025-02-27T09:42:00Z</time>
      </trkpt>
      <trkpt lat="63.82919" lon="13.86944">
        <time>2025-02-27T10:12:00Z</time>
      </trkpt>
      <trkpt lat="63.84799" lon="13.87845">
        <time>2025-02-27T10:42:00Z</time>
      </trkpt>
      <trkpt lat="63.86273" lon="13.87723">
        <time>2025-02-27T11:12:00Z</time>
      </trkpt>
      <trkpt lat="63.88079" lon="13.86019">
        <time>2025-02-27T11:42:00Z</time>
      </trkpt>
      <trkpt lat="63.88913" lon="13.8571">
        <time>2025-02-27T12:13:00Z</time>
      </trkpt>
      <trkpt lat="63.89216" lon="13.86058">
        <time>2025-02-27T12:43:00Z</time>
      </trkpt>
      <trkpt lat="63.90684" lon="13.86689">
        <time>2025-02-27T13:13:00Z</time>
      </trkpt>
      <trkpt lat="63.9273" lon="13.8744">
        <time>2025-02-27T13:43:00Z</time>
      </trkpt>
      <trkpt lat="63.94383" lon="13.91094">
        <time>2025-02-27T14:13:00Z</time>
      </trkpt>
      <trkpt lat="63.95846" lon="13.94611">
        <time>2025-02-27T14:44:00Z</time>
      </trkpt>
      <trkpt lat="63.9618" lon="13.95053">
        <time>2025-02-27T15:14:00Z</time>
      </trkpt>
      <trkpt lat="63.96173" lon="13.95055">
        <time>2025-02-27T15:44:00Z</time>
      </trkpt>
      <trkpt lat="63.96177" lon="13.95042">
        <time>2025-02-28T07:58:00Z</time>
      </trkpt>
      <trkpt lat="63.97558" lon="13.96561">
        <time>2025-02-28T08:28:00Z</time>
      </trkpt>
      <trkpt lat="63.99479" lon="13.9848">
        <time>2025-02-28T08:58:00Z</time>
      </trkpt>
      <trkpt lat="64.00044" lon="14.00274">
        <time>2025-02-28T09:28:00Z</time>
      </trkpt>
      <trkpt lat="64.00774" lon="14.02188">
        <time>2025-02-28T09:58:00Z</time>
      </trkpt>
      <trkpt lat="64.01948" lon="14.02381">
        <time>2025-02-28T10:28:00Z</time>
      </trkpt>
      <trkpt lat="64.02562" lon="14.0461">
        <time>2025-02-28T10:58:00Z</time>
      </trkpt>
      <trkpt lat="64.03415" lon="14.08893">
        <time>2025-02-28T11:28:00Z</time>
      </trkpt>
      <trkpt lat="64.04755" lon="14.10288">
        <time>2025-02-28T11:58:00Z</time>
      </trkpt>
      <trkpt lat="64.04928" lon="14.1003">
        <time>2025-02-28T12:28:00Z</time>
      </trkpt>
      <trkpt lat="64.06435" lon="14.0903">
        <time>2025-02-28T12:58:00Z</time>
      </trkpt>
      <trkpt lat="64.06453" lon="14.12399">
        <time>2025-02-28T13:28:00Z</time>
      </trkpt>
      <trkpt lat="64.06724" lon="14.14107">
        <time>2025-02-28T13:58:00Z</time>
      </trkpt>
      <trkpt lat="64.06694" lon="14.14116">
        <time>2025-02-28T14:55:00Z</time>
      </trkpt>
      <trkpt lat="64.071" lon="14.14916">
        <time>2025-02-28T15:58:00Z</time>
      </trkpt>
      <trkpt lat="64.07623" lon="14.1694">
        <time>2025-02-28T16:28:00Z</time>
      </trkpt>
      <trkpt lat="64.08493" lon="14.18815">
        <time>2025-02-28T16:58:00Z</time>
      </trkpt>
      <trkpt lat="64.09445" lon="14.19886">
        <time>2025-02-28T17:28:00Z</time>
      </trkpt>
      <trkpt lat="64.09446" lon="14.19877">
        <time>2025-02-28T17:58:00Z</time>
      </trkpt>
      <trkpt lat="64.09446" lon="14.19875">
        <time>2025-03-01T06:53:00Z</time>
      </trkpt>
      <trkpt lat="64.10022" lon="14.20523">
        <time>2025-03-01T07:23:00Z</time>
      </trkpt>
      <trkpt lat="64.11779" lon="14.21036">
        <time>2025-03-01T07:53:00Z</time>
      </trkpt>
      <trkpt lat="64.12996" lon="14.22045">
        <time>2025-03-01T08:23:00Z</time>
      </trkpt>
      <trkpt lat="64.1382" lon="14.21051">
        <time>2025-03-01T08:53:00Z</time>
      </trkpt>
      <trkpt lat="64.14319" lon="14.22051">
        <time>2025-03-01T09:23:00Z</time>
      </trkpt>
      <trkpt lat="64.15045" lon="14.23643">
        <time>2025-03-01T09:53:00Z</time>
      </trkpt>
      <trkpt lat="64.15983" lon="14.24169">
        <time>2025-03-01T10:23:00Z</time>
      </trkpt>
      <trkpt lat="64.16936" lon="14.24727">
        <time>2025-03-01T10:53:00Z</time>
      </trkpt>
      <trkpt lat="64.17539" lon="14.24602">
        <time>2025-03-01T11:23:00Z</time>
      </trkpt>
      <trkpt lat="64.18557" lon="14.2504">
        <time>2025-03-01T11:53:00Z</time>
      </trkpt>
      <trkpt lat="64.19763" lon="14.24961">
        <time>2025-03-01T12:23:00Z</time>
      </trkpt>
      <trkpt lat="64.20812" lon="14.27842">
        <time>2025-03-01T12:53:00Z</time>
      </trkpt>
      <trkpt lat="64.20998" lon="14.27336">
        <time>2025-03-01T13:23:00Z</time>
      </trkpt>
      <trkpt lat="64.22206" lon="14.28096">
        <time>2025-03-01T13:53:00Z</time>
      </trkpt>
      <trkpt lat="64.23438" lon="14.3025">
        <time>2025-03-01T14:23:00Z</time>
      </trkpt>
      <trkpt lat="64.24569" lon="14.31864">
        <time>2025-03-01T14:53:00Z</time>
      </trkpt>
      <trkpt lat="64.25604" lon="14.3287">
        <time>2025-03-01T15:23:00Z</time>
      </trkpt>
      <trkpt lat="64.26711" lon="14.31926">
        <time>2025-03-01T15:53:00Z</time>
      </trkpt>
      <trkpt lat="64.28617" lon="14.3004">
        <time>2025-03-01T16:23:00Z</time>
      </trkpt>
      <trkpt lat="64.30271" lon="14.28928">
        <time>2025-03-01T16:53:00Z</time>
      </trkpt>
      <trkpt lat="64.30267" lon="14.28924">
        <time>2025-03-01T17:23:00Z</time>
      </trkpt>
      <trkpt lat="64.30267" lon="14.2896">
        <time>2025-03-02T10:20:00Z</time>
      </trkpt>
      <trkpt lat="64.30834" lon="14.29154">
        <time>2025-03-02T10:50:00Z</time>
      </trkpt>
      <trkpt lat="64.31793" lon="14.281">
        <time>2025-03-02T11:20:00Z</time>
      </trkpt>
      <trkpt lat="64.33145" lon="14.28776">
        <time>2025-03-02T11:50:00Z</time>
      </trkpt>
      <trkpt lat="64.34292" lon="14.29456">
        <time>2025-03-02T12:20:00Z</time>
      </trkpt>
      <trkpt lat="64.35" lon="14.30741">
        <time>2025-03-02T12:50:00Z</time>
      </trkpt>
      <trkpt lat="64.35507" lon="14.30181">
        <time>2025-03-02T13:20:00Z</time>
      </trkpt>
      <trkpt lat="64.36044" lon="14.30447">
        <time>2025-03-02T13:50:00Z</time>
      </trkpt>
      <trkpt lat="64.36774" lon="14.30192">
        <time>2025-03-02T14:20:00Z</time>
      </trkpt>
      <trkpt lat="64.38024" lon="14.31048">
        <time>2025-03-02T14:51:00Z</time>
      </trkpt>
      <trkpt lat="64.39033" lon="14.32445">
        <time>2025-03-02T15:21:00Z</time>
      </trkpt>
      <trkpt lat="64.40209" lon="14.31031">
        <time>2025-03-02T15:51:00Z</time>
      </trkpt>
      <trkpt lat="64.40686" lon="14.29261">
        <time>2025-03-02T16:21:00Z</time>
      </trkpt>
      <trkpt lat="64.40689" lon="14.29241">
        <time>2025-03-02T16:51:00Z</time>
      </trkpt>
      <trkpt lat="64.40698" lon="14.29248">
        <time>2025-03-02T17:39:00Z</time>
      </trkpt>
      <trkpt lat="64.40668" lon="14.29282">
        <time>2025-03-03T07:52:00Z</time>
      </trkpt>
      <trkpt lat="64.41567" lon="14.27716">
        <time>2025-03-03T08:22:00Z</time>
      </trkpt>
      <trkpt lat="64.41903" lon="14.24703">
        <time>2025-03-03T08:52:00Z</time>
      </trkpt>
      <trkpt lat="64.4336" lon="14.2071">
        <time>2025-03-03T09:22:00Z</time>
      </trkpt>
      <trkpt lat="64.44484" lon="14.17485">
        <time>2025-03-03T09:52:00Z</time>
      </trkpt>
      <trkpt lat="64.44932" lon="14.16322">
        <time>2025-03-03T10:22:00Z</time>
      </trkpt>
      <trkpt lat="64.46253" lon="14.16399">
        <time>2025-03-03T10:52:00Z</time>
      </trkpt>
      <trkpt lat="64.4722" lon="14.14852">
        <time>2025-03-03T11:22:00Z</time>
      </trkpt>
      <trkpt lat="64.48209" lon="14.13781">
        <time>2025-03-03T11:52:00Z</time>
      </trkpt>
      <trkpt lat="64.49226" lon="14.13852">
        <time>2025-03-03T12:22:00Z</time>
      </trkpt>
      <trkpt lat="64.5035" lon="14.14659">
        <time>2025-03-03T12:52:00Z</time>
      </trkpt>
      <trkpt lat="64.50605" lon="14.14693">
        <time>2025-03-03T13:22:00Z</time>
      </trkpt>
      <trkpt lat="64.50602" lon="14.14841">
        <time>2025-03-04T11:36:00Z</time>
      </trkpt>
      <trkpt lat="64.5067" lon="14.15779">
        <time>2025-03-04T12:06:00Z</time>
      </trkpt>
      <trkpt lat="64.50319" lon="14.18845">
        <time>2025-03-04T12:36:00Z</time>
      </trkpt>
      <trkpt lat="64.50088" lon="14.21429">
        <time>2025-03-04T13:06:00Z</time>
      </trkpt>
      <trkpt lat="64.50588" lon="14.24407">
        <time>2025-03-04T13:36:00Z</time>
      </trkpt>
      <trkpt lat="64.50837" lon="14.25203">
        <time>2025-03-04T14:06:00Z</time>
      </trkpt>
      <trkpt lat="64.52205" lon="14.25227">
        <time>2025-03-04T14:36:00Z</time>
      </trkpt>
      <trkpt lat="64.53089" lon="14.23845">
        <time>2025-03-04T15:06:00Z</time>
      </trkpt>
      <trkpt lat="64.54973" lon="14.22652">
        <time>2025-03-04T15:36:00Z</time>
      </trkpt>
      <trkpt lat="64.56121" lon="14.2369">
        <time>2025-03-04T16:06:00Z</time>
      </trkpt>
      <trkpt lat="64.56753" lon="14.24952">
        <time>2025-03-04T16:36:00Z</time>
      </trkpt>
      <trkpt lat="64.56774" lon="14.25068">
        <time>2025-03-04T17:06:00Z</time>
      </trkpt>
      <trkpt lat="64.56767" lon="14.25074">
        <time>2025-03-04T19:52:00Z</time>
      </trkpt>
      <trkpt lat="64.56775" lon="14.25081">
        <time>2025-03-05T07:45:00Z</time>
      </trkpt>
      <trkpt lat="64.56804" lon="14.25609">
        <time>2025-03-05T08:15:00Z</time>
      </trkpt>
      <trkpt lat="64.57374" lon="14.26787">
        <time>2025-03-05T08:45:00Z</time>
      </trkpt>
      <trkpt lat="64.58361" lon="14.27003">
        <time>2025-03-05T09:15:00Z</time>
      </trkpt>
      <trkpt lat="64.59201" lon="14.25862">
        <time>2025-03-05T09:45:00Z</time>
      </trkpt>
      <trkpt lat="64.59442" lon="14.25961">
        <time>2025-03-05T10:15:00Z</time>
      </trkpt>
      <trkpt lat="64.60355" lon="14.26289">
        <time>2025-03-05T10:45:00Z</time>
      </trkpt>
      <trkpt lat="64.6036" lon="14.26297">
        <time>2025-03-05T11:15:00Z</time>
      </trkpt>
      <trkpt lat="64.61428" lon="14.27563">
        <time>2025-03-05T11:46:00Z</time>
      </trkpt>
      <trkpt lat="64.62956" lon="14.27621">
        <time>2025-03-05T12:16:00Z</time>
      </trkpt>
      <trkpt lat="64.64033" lon="14.27205">
        <time>2025-03-05T12:46:00Z</time>
      </trkpt>
      <trkpt lat="64.65743" lon="14.28675">
        <time>2025-03-05T13:16:00Z</time>
      </trkpt>
      <trkpt lat="64.66612" lon="14.27682">
        <time>2025-03-05T13:46:00Z</time>
      </trkpt>
      <trkpt lat="64.67198" lon="14.24388">
        <time>2025-03-05T14:16:00Z</time>
      </trkpt>
      <trkpt lat="64.67242" lon="14.21349">
        <time>2025-03-05T14:46:00Z</time>
      </trkpt>
      <trkpt lat="64.67954" lon="14.20624">
        <time>2025-03-05T15:16:00Z</time>
      </trkpt>
      <trkpt lat="64.68614" lon="14.19712">
        <time>2025-03-05T15:49:00Z</time>
      </trkpt>
      <trkpt lat="64.69542" lon="14.19991">
        <time>2025-03-05T16:19:00Z</time>
      </trkpt>
      <trkpt lat="64.70694" lon="14.20394">
        <time>2025-03-05T16:50:00Z</time>
      </trkpt>
      <trkpt lat="64.71186" lon="14.20276">
        <time>2025-03-05T17:20:00Z</time>
      </trkpt>
      <trkpt lat="64.7117" lon="14.20261">
        <time>2025-03-05T17:50:00Z</time>
      </trkpt>
      <trkpt lat="64.71184" lon="14.20272">
        <time>2025-03-06T08:39:00Z</time>
      </trkpt>
      <trkpt lat="64.7289" lon="14.2065">
        <time>2025-03-06T09:09:00Z</time>
      </trkpt>
      <trkpt lat="64.74458" lon="14.20641">
        <time>2025-03-06T09:39:00Z</time>
      </trkpt>
      <trkpt lat="64.7515" lon="14.22407">
        <time>2025-03-06T10:09:00Z</time>
      </trkpt>
      <trkpt lat="64.76433" lon="14.23092">
        <time>2025-03-06T10:39:00Z</time>
      </trkpt>
      <trkpt lat="64.7724" lon="14.23017">
        <time>2025-03-06T11:09:00Z</time>
      </trkpt>
      <trkpt lat="64.78203" lon="14.23465">
        <time>2025-03-06T11:39:00Z</time>
      </trkpt>
      <trkpt lat="64.78957" lon="14.23506">
        <time>2025-03-06T12:09:00Z</time>
      </trkpt>
      <trkpt lat="64.79478" lon="14.23572">
        <time>2025-03-06T12:40:00Z</time>
      </trkpt>
      <trkpt lat="64.8002" lon="14.22864">
        <time>2025-03-06T13:10:00Z</time>
      </trkpt>
      <trkpt lat="64.81123" lon="14.24059">
        <time>2025-03-06T13:40:00Z</time>
      </trkpt>
      <trkpt lat="64.8137" lon="14.24386">
        <time>2025-03-06T14:10:00Z</time>
      </trkpt>
      <trkpt lat="64.8184" lon="14.24321">
        <time>2025-03-06T14:40:00Z</time>
      </trkpt>
      <trkpt lat="64.82443" lon="14.25458">
        <time>2025-03-06T15:10:00Z</time>
      </trkpt>
      <trkpt lat="64.8328" lon="14.26104">
        <time>2025-03-06T15:40:00Z</time>
      </trkpt>
      <trkpt lat="64.84252" lon="14.28538">
        <time>2025-03-06T16:10:00Z</time>
      </trkpt>
      <trkpt lat="64.84615" lon="14.29744">
        <time>2025-03-06T16:40:00Z</time>
      </trkpt>
      <trkpt lat="64.84614" lon="14.29746">
        <time>2025-03-06T17:10:00Z</time>
      </trkpt>
      <trkpt lat="64.84614" lon="14.29741">
        <time>2025-03-07T07:23:00Z</time>
      </trkpt>
      <trkpt lat="64.84944" lon="14.31156">
        <time>2025-03-07T07:53:00Z</time>
      </trkpt>
      <trkpt lat="64.84715" lon="14.35029">
        <time>2025-03-07T08:23:00Z</time>
      </trkpt>
      <trkpt lat="64.85224" lon="14.32964">
        <time>2025-03-07T08:53:00Z</time>
      </trkpt>
      <trkpt lat="64.8558" lon="14.34938">
        <time>2025-03-07T09:23:00Z</time>
      </trkpt>
      <trkpt lat="64.86563" lon="14.3714">
        <time>2025-03-07T09:53:00Z</time>
      </trkpt>
      <trkpt lat="64.87083" lon="14.39554">
        <time>2025-03-07T10:23:00Z</time>
      </trkpt>
      <trkpt lat="64.87827" lon="14.40384">
        <time>2025-03-07T10:53:00Z</time>
      </trkpt>
      <trkpt lat="64.88587" lon="14.40897">
        <time>2025-03-07T11:23:00Z</time>
      </trkpt>
      <trkpt lat="64.8884" lon="14.44236">
        <time>2025-03-07T11:53:00Z</time>
      </trkpt>
      <trkpt lat="64.89152" lon="14.46588">
        <time>2025-03-07T12:23:00Z</time>
      </trkpt>
      <trkpt lat="64.89272" lon="14.47305">
        <time>2025-03-07T12:53:00Z</time>
      </trkpt>
      <trkpt lat="64.8988" lon="14.49888">
        <time>2025-03-07T13:23:00Z</time>
      </trkpt>
      <trkpt lat="64.90489" lon="14.50802">
        <time>2025-03-07T13:53:00Z</time>
      </trkpt>
      <trkpt lat="64.91047" lon="14.52956">
        <time>2025-03-07T14:23:00Z</time>
      </trkpt>
      <trkpt lat="64.91938" lon="14.55068">
        <time>2025-03-07T14:53:00Z</time>
      </trkpt>
      <trkpt lat="64.92451" lon="14.56744">
        <time>2025-03-07T15:23:00Z</time>
      </trkpt>
      <trkpt lat="64.92914" lon="14.57572">
        <time>2025-03-07T15:53:00Z</time>
      </trkpt>
      <trkpt lat="64.93905" lon="14.59611">
        <time>2025-03-07T16:23:00Z</time>
      </trkpt>
      <trkpt lat="64.94213" lon="14.60829">
        <time>2025-03-07T16:54:00Z</time>
      </trkpt>
      <trkpt lat="64.9422" lon="14.60816">
        <time>2025-03-07T17:24:00Z</time>
      </trkpt>
      <trkpt lat="64.94216" lon="14.60823">
        <time>2025-03-07T19:32:00Z</time>
      </trkpt>
      <trkpt lat="64.94845" lon="14.63258">
        <time>2025-03-08T10:15:00Z</time>
      </trkpt>
      <trkpt lat="64.95714" lon="14.67058">
        <time>2025-03-08T10:45:00Z</time>
      </trkpt>
      <trkpt lat="64.96874" lon="14.68751">
        <time>2025-03-08T11:15:00Z</time>
      </trkpt>
      <trkpt lat="64.98431" lon="14.71914">
        <time>2025-03-08T11:45:00Z</time>
      </trkpt>
      <trkpt lat="64.984" lon="14.71805">
        <time>2025-03-08T12:40:00Z</time>
      </trkpt>
      <trkpt lat="64.99878" lon="14.72397">
        <time>2025-03-08T13:10:00Z</time>
      </trkpt>
      <trkpt lat="65.02903" lon="14.73335">
        <time>2025-03-08T13:40:00Z</time>
      </trkpt>
      <trkpt lat="65.05" lon="14.75242">
        <time>2025-03-08T14:10:00Z</time>
      </trkpt>
      <trkpt lat="65.04988" lon="14.75307">
        <time>2025-03-08T14:41:00Z</time>
      </trkpt>
      <trkpt lat="65.05129" lon="14.7706">
        <time>2025-03-08T15:11:00Z</time>
      </trkpt>
      <trkpt lat="65.05987" lon="14.80871">
        <time>2025-03-08T15:41:00Z</time>
      </trkpt>
      <trkpt lat="65.06329" lon="14.80918">
        <time>2025-03-08T16:11:00Z</time>
      </trkpt>
      <trkpt lat="65.06308" lon="14.80884">
        <time>2025-03-10T07:47:00Z</time>
      </trkpt>
      <trkpt lat="65.06161" lon="14.85092">
        <time>2025-03-10T08:17:00Z</time>
      </trkpt>
      <trkpt lat="65.05662" lon="14.90059">
        <time>2025-03-10T08:47:00Z</time>
      </trkpt>
      <trkpt lat="65.05604" lon="14.90767">
        <time>2025-03-10T09:17:00Z</time>
      </trkpt>
      <trkpt lat="65.05538" lon="14.95513">
        <time>2025-03-10T09:47:00Z</time>
      </trkpt>
      <trkpt lat="65.0581" lon="14.98751">
        <time>2025-03-10T10:17:00Z</time>
      </trkpt>
      <trkpt lat="65.06118" lon="15.04202">
        <time>2025-03-10T10:47:00Z</time>
      </trkpt>
      <trkpt lat="65.06638" lon="15.07071">
        <time>2025-03-10T11:17:00Z</time>
      </trkpt>
      <trkpt lat="65.07951" lon="15.08738">
        <time>2025-03-10T11:47:00Z</time>
      </trkpt>
      <trkpt lat="65.08802" lon="15.0871">
        <time>2025-03-10T12:17:00Z</time>
      </trkpt>
      <trkpt lat="65.10045" lon="15.0856">
        <time>2025-03-10T12:47:00Z</time>
      </trkpt>
      <trkpt lat="65.11589" lon="15.06927">
        <time>2025-03-10T13:17:00Z</time>
      </trkpt>
      <trkpt lat="65.12849" lon="15.04556">
        <time>2025-03-10T13:47:00Z</time>
      </trkpt>
      <trkpt lat="65.1417" lon="15.04109">
        <time>2025-03-10T14:17:00Z</time>
      </trkpt>
      <trkpt lat="65.15269" lon="15.05247">
        <time>2025-03-10T14:47:00Z</time>
      </trkpt>
      <trkpt lat="65.17314" lon="15.07536">
        <time>2025-03-10T15:17:00Z</time>
      </trkpt>
      <trkpt lat="65.18299" lon="15.07575">
        <time>2025-03-10T15:47:00Z</time>
      </trkpt>
      <trkpt lat="65.2029" lon="15.06004">
        <time>2025-03-10T16:18:00Z</time>
      </trkpt>
      <trkpt lat="65.21916" lon="15.04996">
        <time>2025-03-10T16:48:00Z</time>
      </trkpt>
      <trkpt lat="65.22158" lon="15.05187">
        <time>2025-03-10T17:18:00Z</time>
      </trkpt>
      <trkpt lat="65.22152" lon="15.05146">
        <time>2025-03-10T17:48:00Z</time>
      </trkpt>
      <trkpt lat="65.2215" lon="15.05159">
        <time>2025-03-11T07:24:00Z</time>
      </trkpt>
      <trkpt lat="65.2369" lon="15.03472">
        <time>2025-03-11T07:54:00Z</time>
      </trkpt>
      <trkpt lat="65.25819" lon="15.02253">
        <time>2025-03-11T08:24:00Z</time>
      </trkpt>
      <trkpt lat="65.27707" lon="15.01959">
        <time>2025-03-11T08:54:00Z</time>
      </trkpt>
      <trkpt lat="65.28951" lon="15.02311">
        <time>2025-03-11T09:25:00Z</time>
      </trkpt>
      <trkpt lat="65.30812" lon="15.03049">
        <time>2025-03-11T09:55:00Z</time>
      </trkpt>
      <trkpt lat="65.32371" lon="15.06111">
        <time>2025-03-11T10:25:00Z</time>
      </trkpt>
      <trkpt lat="65.3329" lon="15.06957">
        <time>2025-03-11T10:55:00Z</time>
      </trkpt>
      <trkpt lat="65.33996" lon="15.10223">
        <time>2025-03-11T11:25:00Z</time>
      </trkpt>
      <trkpt lat="65.33986" lon="15.10246">
        <time>2025-03-11T11:55:00Z</time>
      </trkpt>
      <trkpt lat="65.34685" lon="15.09429">
        <time>2025-03-11T12:25:00Z</time>
      </trkpt>
      <trkpt lat="65.3598" lon="15.09774">
        <time>2025-03-11T12:55:00Z</time>
      </trkpt>
      <trkpt lat="65.36455" lon="15.11851">
        <time>2025-03-11T13:25:00Z</time>
      </trkpt>
      <trkpt lat="65.37195" lon="15.13963">
        <time>2025-03-11T13:55:00Z</time>
      </trkpt>
      <trkpt lat="65.38079" lon="15.14072">
        <time>2025-03-11T14:25:00Z</time>
      </trkpt>
      <trkpt lat="65.39425" lon="15.1345">
        <time>2025-03-11T14:55:00Z</time>
      </trkpt>
      <trkpt lat="65.40553" lon="15.15602">
        <time>2025-03-11T15:25:00Z</time>
      </trkpt>
      <trkpt lat="65.41624" lon="15.18201">
        <time>2025-03-11T15:55:00Z</time>
      </trkpt>
      <trkpt lat="65.42998" lon="15.21677">
        <time>2025-03-11T16:25:00Z</time>
      </trkpt>
      <trkpt lat="65.4381" lon="15.23698">
        <time>2025-03-11T16:55:00Z</time>
      </trkpt>
      <trkpt lat="65.43773" lon="15.23898">
        <time>2025-03-11T17:26:00Z</time>
      </trkpt>
      <trkpt lat="65.43765" lon="15.23908">
        <time>2025-03-11T17:56:00Z</time>
      </trkpt>
      <trkpt lat="65.43775" lon="15.23896">
        <time>2025-03-12T07:12:00Z</time>
      </trkpt>
      <trkpt lat="65.4462" lon="15.23769">
        <time>2025-03-12T07:42:00Z</time>
      </trkpt>
      <trkpt lat="65.47234" lon="15.2964">
        <time>2025-03-12T08:12:00Z</time>
      </trkpt>
      <trkpt lat="65.4959" lon="15.34187">
        <time>2025-03-12T08:42:00Z</time>
      </trkpt>
      <trkpt lat="65.51646" lon="15.3315">
        <time>2025-03-12T09:12:00Z</time>
      </trkpt>
      <trkpt lat="65.53935" lon="15.322">
        <time>2025-03-12T09:42:00Z</time>
      </trkpt>
      <trkpt lat="65.55825" lon="15.29919">
        <time>2025-03-12T10:12:00Z</time>
      </trkpt>
      <trkpt lat="65.55897" lon="15.26938">
        <time>2025-03-12T10:42:00Z</time>
      </trkpt>
      <trkpt lat="65.56692" lon="15.20784">
        <time>2025-03-12T11:12:00Z</time>
      </trkpt>
      <trkpt lat="65.57593" lon="15.19503">
        <time>2025-03-12T11:42:00Z</time>
      </trkpt>
      <trkpt lat="65.57897" lon="15.19149">
        <time>2025-03-12T12:12:00Z</time>
      </trkpt>
      <trkpt lat="65.59551" lon="15.20226">
        <time>2025-03-12T12:42:00Z</time>
      </trkpt>
      <trkpt lat="65.62461" lon="15.16147">
        <time>2025-03-12T13:12:00Z</time>
      </trkpt>
      <trkpt lat="65.64104" lon="15.1522">
        <time>2025-03-12T13:42:00Z</time>
      </trkpt>
      <trkpt lat="65.65849" lon="15.12688">
        <time>2025-03-12T14:12:00Z</time>
      </trkpt>
      <trkpt lat="65.67103" lon="15.13044">
        <time>2025-03-12T14:42:00Z</time>
      </trkpt>
      <trkpt lat="65.6856" lon="15.12268">
        <time>2025-03-12T15:13:00Z</time>
      </trkpt>
      <trkpt lat="65.70258" lon="15.10523">
        <time>2025-03-12T15:43:00Z</time>
      </trkpt>
      <trkpt lat="65.71135" lon="15.0971">
        <time>2025-03-12T16:13:00Z</time>
      </trkpt>
      <trkpt lat="65.72167" lon="15.09948">
        <time>2025-03-12T16:43:00Z</time>
      </trkpt>
      <trkpt lat="65.72207" lon="15.10002">
        <time>2025-03-12T17:13:00Z</time>
      </trkpt>
      <trkpt lat="65.7221" lon="15.10002">
        <time>2025-03-13T06:43:00Z</time>
      </trkpt>
      <trkpt lat="65.72237" lon="15.10004">
        <time>2025-03-13T07:13:00Z</time>
      </trkpt>
      <trkpt lat="65.72124" lon="15.11253">
        <time>2025-03-13T07:43:00Z</time>
      </trkpt>
      <trkpt lat="65.73627" lon="15.11446">
        <time>2025-03-13T08:13:00Z</time>
      </trkpt>
      <trkpt lat="65.75411" lon="15.12959">
        <time>2025-03-13T08:43:00Z</time>
      </trkpt>
      <trkpt lat="65.76581" lon="15.11847">
        <time>2025-03-13T09:13:00Z</time>
      </trkpt>
      <trkpt lat="65.78557" lon="15.09985">
        <time>2025-03-13T09:43:00Z</time>
      </trkpt>
      <trkpt lat="65.78829" lon="15.096">
        <time>2025-03-13T10:13:00Z</time>
      </trkpt>
      <trkpt lat="65.80324" lon="15.07641">
        <time>2025-03-13T10:43:00Z</time>
      </trkpt>
      <trkpt lat="65.81474" lon="15.08302">
        <time>2025-03-13T11:13:00Z</time>
      </trkpt>
      <trkpt lat="65.81736" lon="15.0907">
        <time>2025-03-13T11:46:00Z</time>
      </trkpt>
      <trkpt lat="65.8172" lon="15.09122">
        <time>2025-03-13T12:43:00Z</time>
      </trkpt>
      <trkpt lat="65.81747" lon="15.091">
        <time>2025-03-14T09:25:00Z</time>
      </trkpt>
      <trkpt lat="65.81494" lon="15.10465">
        <time>2025-03-14T09:55:00Z</time>
      </trkpt>
      <trkpt lat="65.81883" lon="15.11675">
        <time>2025-03-14T10:25:00Z</time>
      </trkpt>
      <trkpt lat="65.82949" lon="15.10298">
        <time>2025-03-14T10:55:00Z</time>
      </trkpt>
      <trkpt lat="65.836" lon="15.09523">
        <time>2025-03-14T11:25:00Z</time>
      </trkpt>
      <trkpt lat="65.85475" lon="15.09394">
        <time>2025-03-14T11:55:00Z</time>
      </trkpt>
      <trkpt lat="65.86593" lon="15.11038">
        <time>2025-03-14T12:25:00Z</time>
      </trkpt>
      <trkpt lat="65.87316" lon="15.1275">
        <time>2025-03-14T12:55:00Z</time>
      </trkpt>
      <trkpt lat="65.88439" lon="15.15461">
        <time>2025-03-14T13:25:00Z</time>
      </trkpt>
      <trkpt lat="65.88499" lon="15.15821">
        <time>2025-03-14T14:14:00Z</time>
      </trkpt>
      <trkpt lat="65.88633" lon="15.19786">
        <time>2025-03-14T14:44:00Z</time>
      </trkpt>
      <trkpt lat="65.87851" lon="15.24915">
        <time>2025-03-14T15:14:00Z</time>
      </trkpt>
      <trkpt lat="65.87376" lon="15.28902">
        <time>2025-03-14T15:48:00Z</time>
      </trkpt>
      <trkpt lat="65.87375" lon="15.28899">
        <time>2025-03-14T16:37:00Z</time>
      </trkpt>
      <trkpt lat="65.87354" lon="15.28983">
        <time>2025-03-15T09:15:00Z</time>
      </trkpt>
      <trkpt lat="65.8694" lon="15.3321">
        <time>2025-03-15T09:45:00Z</time>
      </trkpt>
      <trkpt lat="65.87608" lon="15.34654">
        <time>2025-03-15T10:15:00Z</time>
      </trkpt>
      <trkpt lat="65.88592" lon="15.37755">
        <time>2025-03-15T10:45:00Z</time>
      </trkpt>
      <trkpt lat="65.89267" lon="15.39654">
        <time>2025-03-15T12:30:00Z</time>
      </trkpt>
      <trkpt lat="65.90176" lon="15.44585">
        <time>2025-03-15T13:00:00Z</time>
      </trkpt>
      <trkpt lat="65.92177" lon="15.45551">
        <time>2025-03-15T13:32:00Z</time>
      </trkpt>
      <trkpt lat="65.93655" lon="15.47048">
        <time>2025-03-15T14:02:00Z</time>
      </trkpt>
      <trkpt lat="65.95455" lon="15.47817">
        <time>2025-03-15T14:32:00Z</time>
      </trkpt>
      <trkpt lat="65.97091" lon="15.47969">
        <time>2025-03-15T15:02:00Z</time>
      </trkpt>
      <trkpt lat="65.98842" lon="15.48967">
        <time>2025-03-15T15:32:00Z</time>
      </trkpt>
      <trkpt lat="65.98897" lon="15.49724">
        <time>2025-03-15T16:27:00Z</time>
      </trkpt>
      <trkpt lat="65.98893" lon="15.49713">
        <time>2025-03-15T16:57:00Z</time>
      </trkpt>
      <trkpt lat="65.98879" lon="15.49703">
        <time>2025-03-16T07:44:00Z</time>
      </trkpt>
      <trkpt lat="66.0039" lon="15.48973">
        <time>2025-03-16T08:14:00Z</time>
      </trkpt>
      <trkpt lat="66.00339" lon="15.51896">
        <time>2025-03-16T08:44:00Z</time>
      </trkpt>
      <trkpt lat="66.00213" lon="15.55833">
        <time>2025-03-16T09:14:00Z</time>
      </trkpt>
      <trkpt lat="65.99301" lon="15.57361">
        <time>2025-03-16T09:44:00Z</time>
      </trkpt>
      <trkpt lat="65.98048" lon="15.58365">
        <time>2025-03-16T10:14:00Z</time>
      </trkpt>
      <trkpt lat="65.96875" lon="15.61305">
        <time>2025-03-16T10:44:00Z</time>
      </trkpt>
      <trkpt lat="65.97001" lon="15.6674">
        <time>2025-03-16T11:14:00Z</time>
      </trkpt>
      <trkpt lat="65.96269" lon="15.71559">
        <time>2025-03-16T11:44:00Z</time>
      </trkpt>
      <trkpt lat="65.97246" lon="15.76214">
        <time>2025-03-16T12:14:00Z</time>
      </trkpt>
      <trkpt lat="65.97227" lon="15.76454">
        <time>2025-03-16T13:22:00Z</time>
      </trkpt>
      <trkpt lat="65.96806" lon="15.80192">
        <time>2025-03-16T13:53:00Z</time>
      </trkpt>
      <trkpt lat="65.97421" lon="15.84904">
        <time>2025-03-16T14:23:00Z</time>
      </trkpt>
      <trkpt lat="65.96746" lon="15.89084">
        <time>2025-03-16T14:53:00Z</time>
      </trkpt>
      <trkpt lat="65.96048" lon="15.92929">
        <time>2025-03-16T15:23:00Z</time>
      </trkpt>
      <trkpt lat="65.96445" lon="15.98401">
        <time>2025-03-16T15:53:00Z</time>
      </trkpt>
      <trkpt lat="65.96345" lon="16.03742">
        <time>2025-03-16T16:23:00Z</time>
      </trkpt>
      <trkpt lat="65.96262" lon="16.07705">
        <time>2025-03-16T16:53:00Z</time>
      </trkpt>
      <trkpt lat="65.96223" lon="16.11314">
        <time>2025-03-16T17:23:00Z</time>
      </trkpt>
      <trkpt lat="65.96225" lon="16.11331">
        <time>2025-03-16T17:53:00Z</time>
      </trkpt>
      <trkpt lat="65.96068" lon="16.12469">
        <time>2025-03-17T07:58:00Z</time>
      </trkpt>
      <trkpt lat="65.95373" lon="16.16597">
        <time>2025-03-17T08:28:00Z</time>
      </trkpt>
      <trkpt lat="65.95649" lon="16.20835">
        <time>2025-03-17T08:58:00Z</time>
      </trkpt>
      <trkpt lat="65.95743" lon="16.20612">
        <time>2025-03-17T10:14:00Z</time>
      </trkpt>
      <trkpt lat="65.9578" lon="16.20734">
        <time>2025-03-17T15:12:00Z</time>
      </trkpt>
      <trkpt lat="65.95792" lon="16.2112">
        <time>2025-03-17T15:56:00Z</time>
      </trkpt>
      <trkpt lat="65.95721" lon="16.20532">
        <time>2025-03-17T16:26:00Z</time>
      </trkpt>
      <trkpt lat="65.95729" lon="16.20515">
        <time>2025-03-17T16:56:00Z</time>
      </trkpt>
      <trkpt lat="65.95684" lon="16.20824">
        <time>2025-03-18T10:06:00Z</time>
      </trkpt>
      <trkpt lat="65.96781" lon="16.22142">
        <time>2025-03-18T10:36:00Z</time>
      </trkpt>
      <trkpt lat="65.96781" lon="16.22142">
        <time>2025-03-18T10:36:00Z</time>
      </trkpt>
      <trkpt lat="65.98422" lon="16.20258">
        <time>2025-03-18T11:06:00Z</time>
      </trkpt>
      <trkpt lat="66.00669" lon="16.19601">
        <time>2025-03-18T11:36:00Z</time>
      </trkpt>
      <trkpt lat="66.02675" lon="16.19281">
        <time>2025-03-18T12:06:00Z</time>
      </trkpt>
      <trkpt lat="66.03907" lon="16.20547">
        <time>2025-03-18T12:36:00Z</time>
      </trkpt>
      <trkpt lat="66.03815" lon="16.24036">
        <time>2025-03-18T13:07:00Z</time>
      </trkpt>
      <trkpt lat="66.03667" lon="16.24564">
        <time>2025-03-18T13:37:00Z</time>
      </trkpt>
      <trkpt lat="66.03661" lon="16.24569">
        <time>2025-03-18T14:07:00Z</time>
      </trkpt>
      <trkpt lat="66.03687" lon="16.24641">
        <time>2025-03-19T06:55:00Z</time>
      </trkpt>
      <trkpt lat="66.04613" lon="16.26472">
        <time>2025-03-19T07:25:00Z</time>
      </trkpt>
      <trkpt lat="66.06138" lon="16.27261">
        <time>2025-03-19T07:55:00Z</time>
      </trkpt>
      <trkpt lat="66.07744" lon="16.27738">
        <time>2025-03-19T08:25:00Z</time>
      </trkpt>
      <trkpt lat="66.09863" lon="16.30954">
        <time>2025-03-19T08:55:00Z</time>
      </trkpt>
      <trkpt lat="66.11521" lon="16.3422">
        <time>2025-03-19T09:26:00Z</time>
      </trkpt>
      <trkpt lat="66.13727" lon="16.35836">
        <time>2025-03-19T09:56:00Z</time>
      </trkpt>
      <trkpt lat="66.1522" lon="16.3501">
        <time>2025-03-19T10:26:00Z</time>
      </trkpt>
      <trkpt lat="66.17197" lon="16.36143">
        <time>2025-03-19T10:56:00Z</time>
      </trkpt>
      <trkpt lat="66.19009" lon="16.37778">
        <time>2025-03-19T11:26:00Z</time>
      </trkpt>
      <trkpt lat="66.20865" lon="16.37896">
        <time>2025-03-19T11:56:00Z</time>
      </trkpt>
      <trkpt lat="66.20992" lon="16.37724">
        <time>2025-03-19T12:31:00Z</time>
      </trkpt>
      <trkpt lat="66.22047" lon="16.37525">
        <time>2025-03-19T13:01:00Z</time>
      </trkpt>
      <trkpt lat="66.23899" lon="16.38638">
        <time>2025-03-19T13:31:00Z</time>
      </trkpt>
      <trkpt lat="66.25401" lon="16.3857">
        <time>2025-03-19T14:01:00Z</time>
      </trkpt>
      <trkpt lat="66.26829" lon="16.41078">
        <time>2025-03-19T14:31:00Z</time>
      </trkpt>
      <trkpt lat="66.28353" lon="16.49258">
        <time>2025-03-19T15:01:00Z</time>
      </trkpt>
      <trkpt lat="66.29177" lon="16.52914">
        <time>2025-03-19T15:31:00Z</time>
      </trkpt>
      <trkpt lat="66.28349" lon="16.56982">
        <time>2025-03-19T16:01:00Z</time>
      </trkpt>
      <trkpt lat="66.28469" lon="16.61126">
        <time>2025-03-19T16:31:00Z</time>
      </trkpt>
      <trkpt lat="66.2786" lon="16.66014">
        <time>2025-03-19T17:02:00Z</time>
      </trkpt>
      <trkpt lat="66.28145" lon="16.66375">
        <time>2025-03-19T17:33:00Z</time>
      </trkpt>
      <trkpt lat="66.28152" lon="16.66387">
        <time>2025-03-19T18:03:00Z</time>
      </trkpt>
      <trkpt lat="66.28151" lon="16.66398">
        <time>2025-03-20T07:20:00Z</time>
      </trkpt>
      <trkpt lat="66.29351" lon="16.67383">
        <time>2025-03-20T07:50:00Z</time>
      </trkpt>
      <trkpt lat="66.30627" lon="16.68321">
        <time>2025-03-20T08:21:00Z</time>
      </trkpt>
      <trkpt lat="66.32121" lon="16.71368">
        <time>2025-03-20T08:51:00Z</time>
      </trkpt>
      <trkpt lat="66.32647" lon="16.75361">
        <time>2025-03-20T09:21:00Z</time>
      </trkpt>
      <trkpt lat="66.33153" lon="16.77037">
        <time>2025-03-20T09:51:00Z</time>
      </trkpt>
      <trkpt lat="66.33743" lon="16.79065">
        <time>2025-03-20T10:21:00Z</time>
      </trkpt>
      <trkpt lat="66.34337" lon="16.80633">
        <time>2025-03-20T10:51:00Z</time>
      </trkpt>
      <trkpt lat="66.34985" lon="16.82865">
        <time>2025-03-20T11:21:00Z</time>
      </trkpt>
      <trkpt lat="66.35099" lon="16.83405">
        <time>2025-03-20T11:52:00Z</time>
      </trkpt>
      <trkpt lat="66.35101" lon="16.83427">
        <time>2025-03-20T12:22:00Z</time>
      </trkpt>
      <trkpt lat="66.35534" lon="16.86446">
        <time>2025-03-20T12:52:00Z</time>
      </trkpt>
      <trkpt lat="66.3607" lon="16.90753">
        <time>2025-03-20T13:22:00Z</time>
      </trkpt>
      <trkpt lat="66.37909" lon="16.93053">
        <time>2025-03-20T13:52:00Z</time>
      </trkpt>
      <trkpt lat="66.38865" lon="16.96634">
        <time>2025-03-20T14:22:00Z</time>
      </trkpt>
      <trkpt lat="66.38942" lon="16.96617">
        <time>2025-03-20T15:56:00Z</time>
      </trkpt>
      <trkpt lat="66.38855" lon="17.00451">
        <time>2025-03-20T16:26:00Z</time>
      </trkpt>
      <trkpt lat="66.39537" lon="17.05975">
        <time>2025-03-20T16:56:00Z</time>
      </trkpt>
      <trkpt lat="66.40173" lon="17.11622">
        <time>2025-03-20T17:26:00Z</time>
      </trkpt>
      <trkpt lat="66.40545" lon="17.15036">
        <time>2025-03-20T17:57:00Z</time>
      </trkpt>
      <trkpt lat="66.40665" lon="17.15708">
        <time>2025-03-20T18:27:00Z</time>
      </trkpt>
      <trkpt lat="66.40661" lon="17.15712">
        <time>2025-03-20T18:57:00Z</time>
      </trkpt>
      <trkpt lat="66.40642" lon="17.15787">
        <time>2025-03-21T07:24:00Z</time>
      </trkpt>
      <trkpt lat="66.41591" lon="17.18635">
        <time>2025-03-21T07:54:00Z</time>
      </trkpt>
      <trkpt lat="66.42918" lon="17.19199">
        <time>2025-03-21T08:24:00Z</time>
      </trkpt>
      <trkpt lat="66.44181" lon="17.23679">
        <time>2025-03-21T08:55:00Z</time>
      </trkpt>
      <trkpt lat="66.45949" lon="17.24214">
        <time>2025-03-21T09:25:00Z</time>
      </trkpt>
      <trkpt lat="66.47688" lon="17.23782">
        <time>2025-03-21T09:55:00Z</time>
      </trkpt>
      <trkpt lat="66.49311" lon="17.23167">
        <time>2025-03-21T10:25:00Z</time>
      </trkpt>
      <trkpt lat="66.4971" lon="17.23194">
        <time>2025-03-21T10:55:00Z</time>
      </trkpt>
      <trkpt lat="66.515" lon="17.24272">
        <time>2025-03-21T11:25:00Z</time>
      </trkpt>
      <trkpt lat="66.5331" lon="17.24143">
        <time>2025-03-21T11:55:00Z</time>
      </trkpt>
      <trkpt lat="66.54409" lon="17.2316">
        <time>2025-03-21T12:25:00Z</time>
      </trkpt>
      <trkpt lat="66.55151" lon="17.23102">
        <time>2025-03-21T12:55:00Z</time>
      </trkpt>
      <trkpt lat="66.56395" lon="17.23437">
        <time>2025-03-21T13:25:00Z</time>
      </trkpt>
      <trkpt lat="66.56527" lon="17.25048">
        <time>2025-03-21T13:55:00Z</time>
      </trkpt>
      <trkpt lat="66.56154" lon="17.29655">
        <time>2025-03-21T14:25:00Z</time>
      </trkpt>
      <trkpt lat="66.55548" lon="17.3326">
        <time>2025-03-21T14:55:00Z</time>
      </trkpt>
      <trkpt lat="66.55499" lon="17.3705">
        <time>2025-03-21T15:25:00Z</time>
      </trkpt>
      <trkpt lat="66.55508" lon="17.38161">
        <time>2025-03-21T15:55:00Z</time>
      </trkpt>
      <trkpt lat="66.55509" lon="17.38144">
        <time>2025-03-21T16:25:00Z</time>
      </trkpt>
      <trkpt lat="66.5551" lon="17.3814">
        <time>2025-03-22T07:11:00Z</time>
      </trkpt>
      <trkpt lat="66.55931" lon="17.38968">
        <time>2025-03-22T07:41:00Z</time>
      </trkpt>
      <trkpt lat="66.58035" lon="17.3974">
        <time>2025-03-22T08:11:00Z</time>
      </trkpt>
      <trkpt lat="66.59915" lon="17.39519">
        <time>2025-03-22T08:41:00Z</time>
      </trkpt>
      <trkpt lat="66.61607" lon="17.37148">
        <time>2025-03-22T09:11:00Z</time>
      </trkpt>
      <trkpt lat="66.62532" lon="17.37955">
        <time>2025-03-22T09:41:00Z</time>
      </trkpt>
      <trkpt lat="66.64433" lon="17.39994">
        <time>2025-03-22T10:11:00Z</time>
      </trkpt>
      <trkpt lat="66.66258" lon="17.41981">
        <time>2025-03-22T10:41:00Z</time>
      </trkpt>
      <trkpt lat="66.68276" lon="17.42614">
        <time>2025-03-22T11:11:00Z</time>
      </trkpt>
      <trkpt lat="66.70461" lon="17.39461">
        <time>2025-03-22T11:41:00Z</time>
      </trkpt>
      <trkpt lat="66.70885" lon="17.3894">
        <time>2025-03-22T12:11:00Z</time>
      </trkpt>
      <trkpt lat="66.71172" lon="17.38768">
        <time>2025-03-22T12:41:00Z</time>
      </trkpt>
      <trkpt lat="66.72688" lon="17.3973">
        <time>2025-03-22T13:11:00Z</time>
      </trkpt>
      <trkpt lat="66.74343" lon="17.4085">
        <time>2025-03-22T13:41:00Z</time>
      </trkpt>
      <trkpt lat="66.74801" lon="17.4342">
        <time>2025-03-22T14:11:00Z</time>
      </trkpt>
      <trkpt lat="66.75552" lon="17.46148">
        <time>2025-03-22T14:41:00Z</time>
      </trkpt>
      <trkpt lat="66.76517" lon="17.48886">
        <time>2025-03-22T15:11:00Z</time>
      </trkpt>
      <trkpt lat="66.77766" lon="17.51613">
        <time>2025-03-22T15:41:00Z</time>
      </trkpt>
      <trkpt lat="66.78455" lon="17.55402">
        <time>2025-03-22T16:11:00Z</time>
      </trkpt>
      <trkpt lat="66.7929" lon="17.5386">
        <time>2025-03-22T16:42:00Z</time>
      </trkpt>
      <trkpt lat="66.79288" lon="17.53845">
        <time>2025-03-22T17:12:00Z</time>
      </trkpt>
      <trkpt lat="66.79276" lon="17.53898">
        <time>2025-03-23T07:22:00Z</time>
      </trkpt>
      <trkpt lat="66.80149" lon="17.53868">
        <time>2025-03-23T07:52:00Z</time>
      </trkpt>
      <trkpt lat="66.81133" lon="17.5504">
        <time>2025-03-23T08:22:00Z</time>
      </trkpt>
      <trkpt lat="66.82419" lon="17.56636">
        <time>2025-03-23T08:52:00Z</time>
      </trkpt>
      <trkpt lat="66.84777" lon="17.58818">
        <time>2025-03-23T09:22:00Z</time>
      </trkpt>
      <trkpt lat="66.84951" lon="17.58975">
        <time>2025-03-23T09:52:00Z</time>
      </trkpt>
      <trkpt lat="66.86701" lon="17.60282">
        <time>2025-03-23T10:22:00Z</time>
      </trkpt>
      <trkpt lat="66.87741" lon="17.63842">
        <time>2025-03-23T10:52:00Z</time>
      </trkpt>
      <trkpt lat="66.88188" lon="17.65404">
        <time>2025-03-23T11:22:00Z</time>
      </trkpt>
      <trkpt lat="66.88597" lon="17.65595">
        <time>2025-03-23T11:52:00Z</time>
      </trkpt>
      <trkpt lat="66.90163" lon="17.67404">
        <time>2025-03-23T12:22:00Z</time>
      </trkpt>
      <trkpt lat="66.92465" lon="17.6629">
        <time>2025-03-23T12:52:00Z</time>
      </trkpt>
      <trkpt lat="66.92593" lon="17.71968">
        <time>2025-03-23T13:23:00Z</time>
      </trkpt>
      <trkpt lat="66.94677" lon="17.72457">
        <time>2025-03-23T13:53:00Z</time>
      </trkpt>
      <trkpt lat="66.95349" lon="17.71955">
        <time>2025-03-23T15:10:00Z</time>
      </trkpt>
      <trkpt lat="66.95352" lon="17.71946">
        <time>2025-03-23T15:40:00Z</time>
      </trkpt>
      <trkpt lat="66.95502" lon="17.7206">
        <time>2025-03-25T08:32:00Z</time>
      </trkpt>
      <trkpt lat="66.96456" lon="17.74105">
        <time>2025-03-25T09:02:00Z</time>
      </trkpt>
      <trkpt lat="66.98228" lon="17.76476">
        <time>2025-03-25T09:32:00Z</time>
      </trkpt>
      <trkpt lat="66.99702" lon="17.78894">
        <time>2025-03-25T10:02:00Z</time>
      </trkpt>
      <trkpt lat="67.01712" lon="17.79025">
        <time>2025-03-25T10:32:00Z</time>
      </trkpt>
      <trkpt lat="67.02279" lon="17.8128">
        <time>2025-03-25T11:02:00Z</time>
      </trkpt>
      <trkpt lat="67.03071" lon="17.87385">
        <time>2025-03-25T11:33:00Z</time>
      </trkpt>
      <trkpt lat="67.03356" lon="17.92807">
        <time>2025-03-25T12:03:00Z</time>
      </trkpt>
      <trkpt lat="67.04065" lon="17.95131">
        <time>2025-03-25T12:41:00Z</time>
      </trkpt>
      <trkpt lat="67.0428" lon="17.99339">
        <time>2025-03-25T13:11:00Z</time>
      </trkpt>
      <trkpt lat="67.04717" lon="18.05158">
        <time>2025-03-25T13:41:00Z</time>
      </trkpt>
      <trkpt lat="67.05148" lon="18.10592">
        <time>2025-03-25T14:11:00Z</time>
      </trkpt>
      <trkpt lat="67.05533" lon="18.12338">
        <time>2025-03-25T14:42:00Z</time>
      </trkpt>
      <trkpt lat="67.05687" lon="18.17067">
        <time>2025-03-25T15:12:00Z</time>
      </trkpt>
      <trkpt lat="67.06231" lon="18.21728">
        <time>2025-03-25T15:42:00Z</time>
      </trkpt>
      <trkpt lat="67.06484" lon="18.25146">
        <time>2025-03-25T16:12:00Z</time>
      </trkpt>
      <trkpt lat="67.08343" lon="18.28414">
        <time>2025-03-25T16:42:00Z</time>
      </trkpt>
      <trkpt lat="67.08791" lon="18.27972">
        <time>2025-03-25T17:12:00Z</time>
      </trkpt>
      <trkpt lat="67.08792" lon="18.27966">
        <time>2025-03-25T17:42:00Z</time>
      </trkpt>
      <trkpt lat="67.08788" lon="18.27957">
        <time>2025-03-26T07:04:00Z</time>
      </trkpt>
      <trkpt lat="67.09719" lon="18.27386">
        <time>2025-03-26T07:35:00Z</time>
      </trkpt>
      <trkpt lat="67.11671" lon="18.28773">
        <time>2025-03-26T08:05:00Z</time>
      </trkpt>
      <trkpt lat="67.13327" lon="18.30805">
        <time>2025-03-26T08:35:00Z</time>
      </trkpt>
      <trkpt lat="67.14648" lon="18.30888">
        <time>2025-03-26T09:05:00Z</time>
      </trkpt>
      <trkpt lat="67.14839" lon="18.32423">
        <time>2025-03-26T09:35:00Z</time>
      </trkpt>
      <trkpt lat="67.16017" lon="18.34148">
        <time>2025-03-26T10:05:00Z</time>
      </trkpt>
      <trkpt lat="67.16426" lon="18.35195">
        <time>2025-03-26T10:35:00Z</time>
      </trkpt>
      <trkpt lat="67.1729" lon="18.41304">
        <time>2025-03-26T11:05:00Z</time>
      </trkpt>
      <trkpt lat="67.19799" lon="18.43357">
        <time>2025-03-26T11:36:00Z</time>
      </trkpt>
      <trkpt lat="67.19964" lon="18.43287">
        <time>2025-03-26T12:06:00Z</time>
      </trkpt>
      <trkpt lat="67.21579" lon="18.43205">
        <time>2025-03-26T12:36:00Z</time>
      </trkpt>
      <trkpt lat="67.23368" lon="18.44664">
        <time>2025-03-26T13:06:00Z</time>
      </trkpt>
      <trkpt lat="67.24762" lon="18.46503">
        <time>2025-03-26T13:36:00Z</time>
      </trkpt>
      <trkpt lat="67.26128" lon="18.47119">
        <time>2025-03-26T14:06:00Z</time>
      </trkpt>
      <trkpt lat="67.28284" lon="18.46346">
        <time>2025-03-26T14:36:00Z</time>
      </trkpt>
      <trkpt lat="67.29959" lon="18.48715">
        <time>2025-03-26T15:07:00Z</time>
      </trkpt>
      <trkpt lat="67.31902" lon="18.49717">
        <time>2025-03-26T15:37:00Z</time>
      </trkpt>
      <trkpt lat="67.34382" lon="18.50434">
        <time>2025-03-26T16:07:00Z</time>
      </trkpt>
      <trkpt lat="67.36261" lon="18.51046">
        <time>2025-03-26T16:37:00Z</time>
      </trkpt>
      <trkpt lat="67.38822" lon="18.53236">
        <time>2025-03-26T17:07:00Z</time>
      </trkpt>
      <trkpt lat="67.39395" lon="18.52037">
        <time>2025-03-26T17:45:00Z</time>
      </trkpt>
      <trkpt lat="67.39399" lon="18.52031">
        <time>2025-03-26T20:25:00Z</time>
      </trkpt>
      <trkpt lat="67.39404" lon="18.52016">
        <time>2025-03-27T09:08:00Z</time>
      </trkpt>
      <trkpt lat="67.40809" lon="18.49003">
        <time>2025-03-27T09:38:00Z</time>
      </trkpt>
      <trkpt lat="67.42153" lon="18.44656">
        <time>2025-03-27T10:08:00Z</time>
      </trkpt>
      <trkpt lat="67.43869" lon="18.41315">
        <time>2025-03-27T10:39:00Z</time>
      </trkpt>
      <trkpt lat="67.45069" lon="18.3916">
        <time>2025-03-27T11:09:00Z</time>
      </trkpt>
      <trkpt lat="67.46403" lon="18.37186">
        <time>2025-03-27T11:39:00Z</time>
      </trkpt>
      <trkpt lat="67.47824" lon="18.36216">
        <time>2025-03-27T12:09:00Z</time>
      </trkpt>
      <trkpt lat="67.48487" lon="18.35798">
        <time>2025-03-27T12:39:00Z</time>
      </trkpt>
      <trkpt lat="67.50036" lon="18.3921">
        <time>2025-03-27T13:14:00Z</time>
      </trkpt>
      <trkpt lat="67.50622" lon="18.44171">
        <time>2025-03-27T13:44:00Z</time>
      </trkpt>
      <trkpt lat="67.51881" lon="18.45767">
        <time>2025-03-27T14:14:00Z</time>
      </trkpt>
      <trkpt lat="67.53298" lon="18.48666">
        <time>2025-03-27T14:44:00Z</time>
      </trkpt>
      <trkpt lat="67.54533" lon="18.46546">
        <time>2025-03-27T15:14:00Z</time>
      </trkpt>
      <trkpt lat="67.56024" lon="18.43787">
        <time>2025-03-27T15:44:00Z</time>
      </trkpt>
      <trkpt lat="67.57402" lon="18.40199">
        <time>2025-03-27T16:15:00Z</time>
      </trkpt>
      <trkpt lat="67.58966" lon="18.37332">
        <time>2025-03-27T16:45:00Z</time>
      </trkpt>
      <trkpt lat="67.5956" lon="18.36896">
        <time>2025-03-27T17:15:00Z</time>
      </trkpt>
      <trkpt lat="67.59561" lon="18.36884">
        <time>2025-03-27T17:45:00Z</time>
      </trkpt>
      <trkpt lat="67.59527" lon="18.37113">
        <time>2025-03-28T07:07:00Z</time>
      </trkpt>
      <trkpt lat="67.60933" lon="18.36903">
        <time>2025-03-28T07:37:00Z</time>
      </trkpt>
      <trkpt lat="67.62494" lon="18.35714">
        <time>2025-03-28T08:07:00Z</time>
      </trkpt>
      <trkpt lat="67.63534" lon="18.32212">
        <time>2025-03-28T08:37:00Z</time>
      </trkpt>
      <trkpt lat="67.64497" lon="18.30472">
        <time>2025-03-28T09:07:00Z</time>
      </trkpt>
      <trkpt lat="67.65917" lon="18.25305">
        <time>2025-03-28T09:37:00Z</time>
      </trkpt>
      <trkpt lat="67.67203" lon="18.20709">
        <time>2025-03-28T10:07:00Z</time>
      </trkpt>
      <trkpt lat="67.68784" lon="18.16673">
        <time>2025-03-28T10:37:00Z</time>
      </trkpt>
      <trkpt lat="67.69487" lon="18.15587">
        <time>2025-03-28T11:12:00Z</time>
      </trkpt>
      <trkpt lat="67.69465" lon="18.15561">
        <time>2025-03-28T12:01:00Z</time>
      </trkpt>
      <trkpt lat="67.69627" lon="18.17025">
        <time>2025-03-28T13:01:00Z</time>
      </trkpt>
      <trkpt lat="67.70378" lon="18.18149">
        <time>2025-03-28T13:31:00Z</time>
      </trkpt>
      <trkpt lat="67.7247" lon="18.22573">
        <time>2025-03-28T14:01:00Z</time>
      </trkpt>
      <trkpt lat="67.7348" lon="18.25801">
        <time>2025-03-28T14:31:00Z</time>
      </trkpt>
      <trkpt lat="67.74433" lon="18.29687">
        <time>2025-03-28T15:01:00Z</time>
      </trkpt>
      <trkpt lat="67.75542" lon="18.2923">
        <time>2025-03-28T15:31:00Z</time>
      </trkpt>
      <trkpt lat="67.76497" lon="18.28459">
        <time>2025-03-28T16:01:00Z</time>
      </trkpt>
      <trkpt lat="67.76512" lon="18.28451">
        <time>2025-03-28T16:31:00Z</time>
      </trkpt>
      <trkpt lat="67.76587" lon="18.28401">
        <time>2025-03-29T07:13:00Z</time>
      </trkpt>
      <trkpt lat="67.78065" lon="18.28702">
        <time>2025-03-29T07:43:00Z</time>
      </trkpt>
      <trkpt lat="67.79286" lon="18.29567">
        <time>2025-03-29T08:13:00Z</time>
      </trkpt>
      <trkpt lat="67.80914" lon="18.29807">
        <time>2025-03-29T08:43:00Z</time>
      </trkpt>
      <trkpt lat="67.82743" lon="18.31358">
        <time>2025-03-29T09:13:00Z</time>
      </trkpt>
      <trkpt lat="67.83481" lon="18.31408">
        <time>2025-03-29T09:43:00Z</time>
      </trkpt>
      <trkpt lat="67.85038" lon="18.31566">
        <time>2025-03-29T10:13:00Z</time>
      </trkpt>
      <trkpt lat="67.85005" lon="18.31579">
        <time>2025-03-29T11:34:00Z</time>
      </trkpt>
      <trkpt lat="67.851" lon="18.31652">
        <time>2025-03-29T13:43:00Z</time>
      </trkpt>
      <trkpt lat="67.86567" lon="18.30693">
        <time>2025-03-29T14:13:00Z</time>
      </trkpt>
      <trkpt lat="67.88382" lon="18.32322">
        <time>2025-03-29T14:43:00Z</time>
      </trkpt>
      <trkpt lat="67.90227" lon="18.3159">
        <time>2025-03-29T15:13:00Z</time>
      </trkpt>
      <trkpt lat="67.91998" lon="18.30371">
        <time>2025-03-29T15:43:00Z</time>
      </trkpt>
      <trkpt lat="67.93973" lon="18.28878">
        <time>2025-03-29T16:13:00Z</time>
      </trkpt>
      <trkpt lat="67.94636" lon="18.28228">
        <time>2025-03-29T17:00:00Z</time>
      </trkpt>
      <trkpt lat="67.94634" lon="18.28221">
        <time>2025-03-29T17:39:00Z</time>
      </trkpt>
      <trkpt lat="67.94617" lon="18.28234">
        <time>2025-03-30T07:09:00Z</time>
      </trkpt>
      <trkpt lat="67.9608" lon="18.27481">
        <time>2025-03-30T07:39:00Z</time>
      </trkpt>
      <trkpt lat="67.97816" lon="18.26318">
        <time>2025-03-30T08:09:00Z</time>
      </trkpt>
      <trkpt lat="67.99427" lon="18.25442">
        <time>2025-03-30T08:41:00Z</time>
      </trkpt>
      <trkpt lat="68.00884" lon="18.24219">
        <time>2025-03-30T09:17:00Z</time>
      </trkpt>
      <trkpt lat="68.01642" lon="18.24312">
        <time>2025-03-30T09:47:00Z</time>
      </trkpt>
      <trkpt lat="68.01974" lon="18.24717">
        <time>2025-03-30T10:32:00Z</time>
      </trkpt>
      <trkpt lat="68.04347" lon="18.24543">
        <time>2025-03-30T11:02:00Z</time>
      </trkpt>
      <trkpt lat="68.05154" lon="18.24174">
        <time>2025-03-30T12:01:00Z</time>
      </trkpt>
      <trkpt lat="68.07205" lon="18.26861">
        <time>2025-03-30T12:31:00Z</time>
      </trkpt>
      <trkpt lat="68.0886" lon="18.28605">
        <time>2025-03-30T13:01:00Z</time>
      </trkpt>
      <trkpt lat="68.10054" lon="18.31487">
        <time>2025-03-30T13:31:00Z</time>
      </trkpt>
      <trkpt lat="68.11141" lon="18.35641">
        <time>2025-03-30T14:01:00Z</time>
      </trkpt>
      <trkpt lat="68.12469" lon="18.39787">
        <time>2025-03-30T14:31:00Z</time>
      </trkpt>
      <trkpt lat="68.1372" lon="18.41877">
        <time>2025-03-30T15:01:00Z</time>
      </trkpt>
      <trkpt lat="68.1493" lon="18.43551">
        <time>2025-03-30T15:32:00Z</time>
      </trkpt>
      <trkpt lat="68.16764" lon="18.4608">
        <time>2025-03-30T16:03:00Z</time>
      </trkpt>
      <trkpt lat="68.17369" lon="18.47705">
        <time>2025-03-30T16:33:00Z</time>
      </trkpt>
      <trkpt lat="68.17376" lon="18.477">
        <time>2025-03-30T17:03:00Z</time>
      </trkpt>
      <trkpt lat="68.17378" lon="18.4769">
        <time>2025-03-31T07:06:00Z</time>
      </trkpt>
      <trkpt lat="68.18643" lon="18.49614">
        <time>2025-03-31T07:36:00Z</time>
      </trkpt>
      <trkpt lat="68.19816" lon="18.5305">
        <time>2025-03-31T08:06:00Z</time>
      </trkpt>
      <trkpt lat="68.2103" lon="18.55507">
        <time>2025-03-31T08:36:00Z</time>
      </trkpt>
      <trkpt lat="68.22571" lon="18.57852">
        <time>2025-03-31T09:06:00Z</time>
      </trkpt>
      <trkpt lat="68.23835" lon="18.60251">
        <time>2025-03-31T09:36:00Z</time>
      </trkpt>
      <trkpt lat="68.2604" lon="18.58453">
        <time>2025-03-31T10:06:00Z</time>
      </trkpt>
      <trkpt lat="68.27198" lon="18.57056">
        <time>2025-03-31T10:36:00Z</time>
      </trkpt>
      <trkpt lat="68.28602" lon="18.59069">
        <time>2025-03-31T11:52:00Z</time>
      </trkpt>
      <trkpt lat="68.29682" lon="18.63311">
        <time>2025-03-31T12:22:00Z</time>
      </trkpt>
      <trkpt lat="68.31122" lon="18.68302">
        <time>2025-03-31T12:52:00Z</time>
      </trkpt>
      <trkpt lat="68.31523" lon="18.73048">
        <time>2025-03-31T13:24:00Z</time>
      </trkpt>
      <trkpt lat="68.32705" lon="18.78542">
        <time>2025-03-31T13:54:00Z</time>
      </trkpt>
      <trkpt lat="68.34792" lon="18.79179">
        <time>2025-03-31T14:24:00Z</time>
      </trkpt>
      <trkpt lat="68.35851" lon="18.78449">
        <time>2025-03-31T15:29:00Z</time>
      </trkpt>
      <trkpt lat="68.36201" lon="18.80024">
        <time>2025-04-02T09:19:00Z</time>
      </trkpt>
      <trkpt lat="68.37134" lon="18.87539">
        <time>2025-04-02T09:49:00Z</time>
      </trkpt>
      <trkpt lat="68.37127" lon="18.9424">
        <time>2025-04-02T10:19:00Z</time>
      </trkpt>
      <trkpt lat="68.37071" lon="19.01282">
        <time>2025-04-02T10:49:00Z</time>
      </trkpt>
      <trkpt lat="68.36988" lon="19.0802">
        <time>2025-04-02T11:19:00Z</time>
      </trkpt>
      <trkpt lat="68.35777" lon="19.14751">
        <time>2025-04-02T11:49:00Z</time>
      </trkpt>
      <trkpt lat="68.34117" lon="19.2427">
        <time>2025-04-02T12:19:00Z</time>
      </trkpt>
      <trkpt lat="68.31776" lon="19.36947">
        <time>2025-04-02T12:49:00Z</time>
      </trkpt>
      <trkpt lat="68.30155" lon="19.47884">
        <time>2025-04-02T13:20:00Z</time>
      </trkpt>
      <trkpt lat="68.30194" lon="19.56375">
        <time>2025-04-02T13:50:00Z</time>
      </trkpt>
      <trkpt lat="68.3019" lon="19.56399">
        <time>2025-04-02T14:20:00Z</time>
      </trkpt>
      <trkpt lat="68.30214" lon="19.64606">
        <time>2025-04-02T14:50:00Z</time>
      </trkpt>
      <trkpt lat="68.3035" lon="19.71788">
        <time>2025-04-02T15:20:00Z</time>
      </trkpt>
      <trkpt lat="68.30977" lon="19.81159">
        <time>2025-04-02T15:50:00Z</time>
      </trkpt>
      <trkpt lat="68.303" lon="19.84341">
        <time>2025-04-02T16:20:00Z</time>
      </trkpt>
      <trkpt lat="68.29191" lon="19.88742">
        <time>2025-04-02T16:50:00Z</time>
      </trkpt>
      <trkpt lat="68.29539" lon="19.89866">
        <time>2025-04-02T17:20:00Z</time>
      </trkpt>
      <trkpt lat="68.30897" lon="19.93617">
        <time>2025-04-02T17:50:00Z</time>
      </trkpt>
      <trkpt lat="68.32282" lon="19.94821">
        <time>2025-04-02T18:20:00Z</time>
      </trkpt>
      <trkpt lat="68.32281" lon="19.94814">
        <time>2025-04-02T18:50:00Z</time>
      </trkpt>
      <trkpt lat="68.32278" lon="19.94797">
        <time>2025-04-03T07:15:00Z</time>
      </trkpt>
      <trkpt lat="68.3334" lon="19.95806">
        <time>2025-04-03T07:45:00Z</time>
      </trkpt>
      <trkpt lat="68.34769" lon="19.97215">
        <time>2025-04-03T08:15:00Z</time>
      </trkpt>
      <trkpt lat="68.36218" lon="20.02494">
        <time>2025-04-03T08:45:00Z</time>
      </trkpt>
      <trkpt lat="68.37049" lon="20.05219">
        <time>2025-04-03T09:15:00Z</time>
      </trkpt>
      <trkpt lat="68.38444" lon="20.07227">
        <time>2025-04-03T09:45:00Z</time>
      </trkpt>
      <trkpt lat="68.39557" lon="20.0612">
        <time>2025-04-03T10:16:00Z</time>
      </trkpt>
      <trkpt lat="68.41159" lon="20.08075">
        <time>2025-04-03T10:46:00Z</time>
      </trkpt>
      <trkpt lat="68.41266" lon="20.08146">
        <time>2025-04-03T11:16:00Z</time>
      </trkpt>
      <trkpt lat="68.42021" lon="20.11444">
        <time>2025-04-03T11:46:00Z</time>
      </trkpt>
      <trkpt lat="68.42665" lon="20.15853">
        <time>2025-04-03T12:17:00Z</time>
      </trkpt>
      <trkpt lat="68.45739" lon="20.20902">
        <time>2025-04-03T12:47:00Z</time>
      </trkpt>
      <trkpt lat="68.47545" lon="20.2301">
        <time>2025-04-03T13:19:00Z</time>
      </trkpt>
      <trkpt lat="68.47555" lon="20.22984">
        <time>2025-04-03T13:49:00Z</time>
      </trkpt>
      <trkpt lat="68.47544" lon="20.22995">
        <time>2025-04-04T07:36:00Z</time>
      </trkpt>
      <trkpt lat="68.48911" lon="20.25887">
        <time>2025-04-04T08:06:00Z</time>
      </trkpt>
      <trkpt lat="68.50808" lon="20.29292">
        <time>2025-04-04T08:36:00Z</time>
      </trkpt>
      <trkpt lat="68.52937" lon="20.29327">
        <time>2025-04-04T09:06:00Z</time>
      </trkpt>
      <trkpt lat="68.54807" lon="20.30151">
        <time>2025-04-04T09:36:00Z</time>
      </trkpt>
      <trkpt lat="68.56371" lon="20.33914">
        <time>2025-04-04T10:06:00Z</time>
      </trkpt>
      <trkpt lat="68.57696" lon="20.37026">
        <time>2025-04-04T10:36:00Z</time>
      </trkpt>
      <trkpt lat="68.59262" lon="20.41006">
        <time>2025-04-04T11:06:00Z</time>
      </trkpt>
      <trkpt lat="68.60979" lon="20.41326">
        <time>2025-04-04T11:36:00Z</time>
      </trkpt>
      <trkpt lat="68.62594" lon="20.42753">
        <time>2025-04-04T12:06:00Z</time>
      </trkpt>
      <trkpt lat="68.64378" lon="20.4357">
        <time>2025-04-04T12:36:00Z</time>
      </trkpt>
      <trkpt lat="68.64689" lon="20.43924">
        <time>2025-04-04T13:06:00Z</time>
      </trkpt>
      <trkpt lat="68.66908" lon="20.46527">
        <time>2025-04-04T13:36:00Z</time>
      </trkpt>
      <trkpt lat="68.68787" lon="20.49057">
        <time>2025-04-04T14:06:00Z</time>
      </trkpt>
      <trkpt lat="68.71044" lon="20.51705">
        <time>2025-04-04T14:37:00Z</time>
      </trkpt>
      <trkpt lat="68.71738" lon="20.51956">
        <time>2025-04-04T15:07:00Z</time>
      </trkpt>
      <trkpt lat="68.72993" lon="20.55348">
        <time>2025-04-04T15:37:00Z</time>
      </trkpt>
      <trkpt lat="68.74208" lon="20.59342">
        <time>2025-04-04T16:07:00Z</time>
      </trkpt>
      <trkpt lat="68.75568" lon="20.6229">
        <time>2025-04-04T16:37:00Z</time>
      </trkpt>
      <trkpt lat="68.75575" lon="20.62822">
        <time>2025-04-04T17:07:00Z</time>
      </trkpt>
      <trkpt lat="68.75581" lon="20.62829">
        <time>2025-04-04T17:37:00Z</time>
      </trkpt>
      <trkpt lat="68.75576" lon="20.62824">
        <time>2025-04-05T07:19:00Z</time>
      </trkpt>
      <trkpt lat="68.76385" lon="20.66086">
        <time>2025-04-05T07:49:00Z</time>
      </trkpt>
      <trkpt lat="68.77747" lon="20.69182">
        <time>2025-04-05T08:19:00Z</time>
      </trkpt>
      <trkpt lat="68.79202" lon="20.68202">
        <time>2025-04-05T08:49:00Z</time>
      </trkpt>
      <trkpt lat="68.80737" lon="20.66762">
        <time>2025-04-05T09:19:00Z</time>
      </trkpt>
      <trkpt lat="68.82379" lon="20.64983">
        <time>2025-04-05T09:49:00Z</time>
      </trkpt>
      <trkpt lat="68.84016" lon="20.64582">
        <time>2025-04-05T10:19:00Z</time>
      </trkpt>
      <trkpt lat="68.86054" lon="20.61945">
        <time>2025-04-05T10:49:00Z</time>
      </trkpt>
      <trkpt lat="68.86617" lon="20.59737">
        <time>2025-04-05T11:22:00Z</time>
      </trkpt>
      <trkpt lat="68.86971" lon="20.58788">
        <time>2025-04-05T11:52:00Z</time>
      </trkpt>
      <trkpt lat="68.87595" lon="20.53357">
        <time>2025-04-05T12:22:00Z</time>
      </trkpt>
      <trkpt lat="68.88181" lon="20.48832">
        <time>2025-04-05T12:52:00Z</time>
      </trkpt>
      <trkpt lat="68.89659" lon="20.45358">
        <time>2025-04-05T13:22:00Z</time>
      </trkpt>
      <trkpt lat="68.90912" lon="20.41764">
        <time>2025-04-05T13:52:00Z</time>
      </trkpt>
      <trkpt lat="68.92673" lon="20.38476">
        <time>2025-04-05T14:22:00Z</time>
      </trkpt>
      <trkpt lat="68.93858" lon="20.37521">
        <time>2025-04-05T14:52:00Z</time>
      </trkpt>
      <trkpt lat="68.95488" lon="20.35895">
        <time>2025-04-05T15:22:00Z</time>
      </trkpt>
      <trkpt lat="68.97406" lon="20.36886">
        <time>2025-04-05T15:52:00Z</time>
      </trkpt>
      <trkpt lat="68.9737" lon="20.36871">
        <time>2025-04-05T16:37:00Z</time>
      </trkpt>
      <trkpt lat="68.97415" lon="20.36869">
        <time>2025-04-06T06:51:00Z</time>
      </trkpt>
      <trkpt lat="68.97943" lon="20.37509">
        <time>2025-04-06T07:21:00Z</time>
      </trkpt>
      <trkpt lat="68.98118" lon="20.4051">
        <time>2025-04-06T07:51:00Z</time>
      </trkpt>
      <trkpt lat="68.98819" lon="20.43834">
        <time>2025-04-06T08:21:00Z</time>
      </trkpt>
      <trkpt lat="69.00062" lon="20.46808">
        <time>2025-04-06T08:52:00Z</time>
      </trkpt>
      <trkpt lat="69.00966" lon="20.48879">
        <time>2025-04-06T09:22:00Z</time>
      </trkpt>
      <trkpt lat="69.0253" lon="20.51508">
        <time>2025-04-06T09:53:00Z</time>
      </trkpt>
      <trkpt lat="69.04835" lon="20.52252">
        <time>2025-04-06T10:23:00Z</time>
      </trkpt>
      <trkpt lat="69.05995" lon="20.54891">
        <time>2025-04-06T10:53:00Z</time>
      </trkpt>
      <trkpt lat="69.05994" lon="20.54872">
        <time>2025-04-06T11:23:00Z</time>
      </trkpt>
    </trkseg>
  </trk>
</gpx>
