<?xml version="1.0" encoding="UTF-8"?>
<gpx xmlns="http://www.topografix.com/GPX/1/1" version="1.1" creator="VitaBandet">
  <metadata>
    <name>Jonathans Band</name>
  </metadata>
  <trk>
    <name>Jonathans Band</name>
    <trkseg>
      <trkpt lat="62.18855" lon="12.42603">
        <time>2026-01-07T09:08:00Z</time>
      </trkpt>
      <trkpt lat="62.19572" lon="12.44841">
        <time>2026-01-07T11:52:00Z</time>
      </trkpt>
      <trkpt lat="62.21778" lon="12.49568">
        <time>2026-01-07T15:52:00Z</time>
      </trkpt>
      <trkpt lat="62.21764" lon="12.4957">
        <time>2026-01-07T16:46:00Z</time>
      </trkpt>
      <trkpt lat="62.21781" lon="12.49559">
        <time>2026-01-08T06:47:00Z</time>
      </trkpt>
      <trkpt lat="62.21781" lon="12.49572">
        <time>2026-01-08T07:18:00Z</time>
      </trkpt>
      <trkpt lat="62.21783" lon="12.49589">
        <time>2026-01-08T08:24:00Z</time>
      </trkpt>
      <trkpt lat="62.23138" lon="12.50179">
        <time>2026-01-08T10:24:00Z</time>
      </trkpt>
      <trkpt lat="62.2392" lon="12.50327">
        <time>2026-01-08T12:24:00Z</time>
      </trkpt>
      <trkpt lat="62.2462" lon="12.51342">
        <time>2026-01-08T14:24:00Z</time>
      </trkpt>
      <trkpt lat="62.2544" lon="12.51553">
        <time>2026-01-08T16:24:00Z</time>
      </trkpt>
      <trkpt lat="62.25436" lon="12.51535">
        <time>2026-01-08T16:30:00Z</time>
      </trkpt>
      <trkpt lat="62.25432" lon="12.51574">
        <time>2026-01-09T06:50:00Z</time>
      </trkpt>
      <trkpt lat="62.26005" lon="12.51005">
        <time>2026-01-09T08:50:00Z</time>
      </trkpt>
      <trkpt lat="62.26337" lon="12.50561">
        <time>2026-01-09T09:50:00Z</time>
      </trkpt>
      <trkpt lat="62.26589" lon="12.50192">
        <time>2026-01-09T10:50:00Z</time>
      </trkpt>
      <trkpt lat="62.27083" lon="12.49682">
        <time>2026-01-09T11:50:00Z</time>
      </trkpt>
      <trkpt lat="62.27463" lon="12.48976">
        <time>2026-01-09T12:50:00Z</time>
      </trkpt>
      <trkpt lat="62.2779" lon="12.4822">
        <time>2026-01-09T13:50:00Z</time>
      </trkpt>
      <trkpt lat="62.28317" lon="12.4783">
        <time>2026-01-09T14:50:00Z</time>
      </trkpt>
      <trkpt lat="62.28904" lon="12.4751">
        <time>2026-01-09T15:50:00Z</time>
      </trkpt>
      <trkpt lat="62.28918" lon="12.47055">
        <time>2026-01-09T16:50:00Z</time>
      </trkpt>
      <trkpt lat="62.29365" lon="12.47012">
        <time>2026-01-09T17:50:00Z</time>
      </trkpt>
      <trkpt lat="62.29814" lon="12.47057">
        <time>2026-01-09T18:50:00Z</time>
      </trkpt>
      <trkpt lat="62.30125" lon="12.46776">
        <time>2026-01-09T19:50:00Z</time>
      </trkpt>
      <trkpt lat="62.30282" lon="12.47019">
        <time>2026-01-09T20:50:00Z</time>
      </trkpt>
      <trkpt lat="62.30286" lon="12.47019">
        <time>2026-01-09T21:50:00Z</time>
      </trkpt>
      <trkpt lat="62.30277" lon="12.47025">
        <time>2026-01-09T22:27:00Z</time>
      </trkpt>
      <trkpt lat="62.30311" lon="12.47006">
        <time>2026-01-10T09:27:00Z</time>
      </trkpt>
      <trkpt lat="62.30786" lon="12.47135">
        <time>2026-01-10T10:27:00Z</time>
      </trkpt>
      <trkpt lat="62.32383" lon="12.45416">
        <time>2026-01-10T12:27:00Z</time>
      </trkpt>
      <trkpt lat="62.33409" lon="12.46635">
        <time>2026-01-10T14:27:00Z</time>
      </trkpt>
      <trkpt lat="62.35429" lon="12.47128">
        <time>2026-01-10T16:27:00Z</time>
      </trkpt>
      <trkpt lat="62.35586" lon="12.4727">
        <time>2026-01-10T17:05:00Z</time>
      </trkpt>
      <trkpt lat="62.35852" lon="12.476">
        <time>2026-01-11T07:01:00Z</time>
      </trkpt>
      <trkpt lat="62.37015" lon="12.56138">
        <time>2026-01-11T11:01:00Z</time>
      </trkpt>
      <trkpt lat="62.38398" lon="12.66009">
        <time>2026-01-11T15:01:00Z</time>
      </trkpt>
      <trkpt lat="62.47902" lon="12.6674">
        <time>2026-01-11T19:01:00Z</time>
      </trkpt>
      <trkpt lat="62.54471" lon="12.54471">
        <time>2026-01-11T22:40:00Z</time>
      </trkpt>
      <trkpt lat="62.54542" lon="12.54417">
        <time>2026-01-14T07:40:00Z</time>
      </trkpt>
      <trkpt lat="62.64745" lon="12.66077">
        <time>2026-01-14T11:40:00Z</time>
      </trkpt>
      <trkpt lat="62.74712" lon="12.74684">
        <time>2026-01-14T15:40:00Z</time>
      </trkpt>
      <trkpt lat="62.85135" lon="12.78881">
        <time>2026-01-14T19:40:00Z</time>
      </trkpt>
      <trkpt lat="62.85029" lon="12.78727">
        <time>2026-01-14T21:10:00Z</time>
      </trkpt>
      <trkpt lat="62.85028" lon="12.78716">
        <time>2026-01-15T06:53:00Z</time>
      </trkpt>
      <trkpt lat="62.89744" lon="12.73377">
        <time>2026-01-15T10:53:00Z</time>
      </trkpt>
      <trkpt lat="62.9547" lon="12.73693">
        <time>2026-01-15T14:53:00Z</time>
      </trkpt>
      <trkpt lat="63.04075" lon="12.79969">
        <time>2026-01-15T18:53:00Z</time>
      </trkpt>
      <trkpt lat="63.04043" lon="12.79928">
        <time>2026-01-15T19:03:00Z</time>
      </trkpt>
      <trkpt lat="63.04036" lon="12.79973">
        <time>2026-01-16T08:55:00Z</time>
      </trkpt>
      <trkpt lat="63.13343" lon="12.88078">
        <time>2026-01-16T12:55:00Z</time>
      </trkpt>
      <trkpt lat="63.149" lon="12.96712">
        <time>2026-01-16T15:06:00Z</time>
      </trkpt>
      <trkpt lat="63.14883" lon="12.96717">
        <time>2026-01-17T09:16:00Z</time>
      </trkpt>
      <trkpt lat="63.20753" lon="13.16198">
        <time>2026-01-17T13:16:00Z</time>
      </trkpt>
      <trkpt lat="63.31547" lon="13.23713">
        <time>2026-01-17T17:16:00Z</time>
      </trkpt>
      <trkpt lat="63.31608" lon="13.23612">
        <time>2026-01-17T17:50:00Z</time>
      </trkpt>
      <trkpt lat="63.31464" lon="13.26318">
        <time>2026-01-19T08:54:00Z</time>
      </trkpt>
      <trkpt lat="63.34113" lon="13.48604">
        <time>2026-01-19T12:54:00Z</time>
      </trkpt>
      <trkpt lat="63.31601" lon="13.58631">
        <time>2026-01-19T16:44:00Z</time>
      </trkpt>
      <trkpt lat="63.31041" lon="13.68377">
        <time>2026-01-20T07:45:00Z</time>
      </trkpt>
      <trkpt lat="63.39305" lon="13.82">
        <time>2026-01-20T11:45:00Z</time>
      </trkpt>
      <trkpt lat="63.47066" lon="13.8364">
        <time>2026-01-20T15:45:00Z</time>
      </trkpt>
      <trkpt lat="63.50192" lon="13.8939">
        <time>2026-01-20T18:56:00Z</time>
      </trkpt>
      <trkpt lat="63.50173" lon="13.89377">
        <time>2026-01-21T07:29:00Z</time>
      </trkpt>
      <trkpt lat="63.55955" lon="13.84867">
        <time>2026-01-21T11:29:00Z</time>
      </trkpt>
      <trkpt lat="63.6609" lon="13.84545">
        <time>2026-01-21T15:29:00Z</time>
      </trkpt>
      <trkpt lat="63.69755" lon="13.87214">
        <time>2026-01-21T19:29:00Z</time>
      </trkpt>
      <trkpt lat="63.69758" lon="13.87221">
        <time>2026-01-21T23:29:00Z</time>
      </trkpt>
      <trkpt lat="63.69754" lon="13.87221">
        <time>2026-01-22T03:29:00Z</time>
      </trkpt>
      <trkpt lat="63.69757" lon="13.87219">
        <time>2026-01-22T07:29:00Z</time>
      </trkpt>
      <trkpt lat="63.75181" lon="13.85742">
        <time>2026-01-22T11:29:00Z</time>
      </trkpt>
      <trkpt lat="63.77992" lon="13.90699">
        <time>2026-01-22T15:29:00Z</time>
      </trkpt>
      <trkpt lat="63.77788" lon="14.03117">
        <time>2026-01-23T08:37:00Z</time>
      </trkpt>
      <trkpt lat="63.88375" lon="14.14833">
        <time>2026-01-23T12:37:00Z</time>
      </trkpt>
      <trkpt lat="63.96957" lon="14.16157">
        <time>2026-01-23T16:37:00Z</time>
      </trkpt>
      <trkpt lat="63.9764" lon="14.20515">
        <time>2026-01-23T18:21:00Z</time>
      </trkpt>
      <trkpt lat="63.97795" lon="14.20575">
        <time>2026-01-24T08:33:00Z</time>
      </trkpt>
      <trkpt lat="64.0672" lon="14.14077">
        <time>2026-01-24T12:34:00Z</time>
      </trkpt>
      <trkpt lat="64.06619" lon="14.14406">
        <time>2026-01-24T18:39:00Z</time>
      </trkpt>
      <trkpt lat="64.06626" lon="14.14444">
        <time>2026-01-24T18:40:00Z</time>
      </trkpt>
      <trkpt lat="64.06605" lon="14.14384">
        <time>2026-01-25T05:09:00Z</time>
      </trkpt>
      <trkpt lat="64.09791" lon="14.34589">
        <time>2026-01-25T09:09:00Z</time>
      </trkpt>
      <trkpt lat="64.09898" lon="14.35228">
        <time>2026-01-25T09:20:00Z</time>
      </trkpt>
      <trkpt lat="64.09903" lon="14.35222">
        <time>2026-01-25T09:21:00Z</time>
      </trkpt>
      <trkpt lat="64.10015" lon="14.35893">
        <time>2026-01-25T09:41:00Z</time>
      </trkpt>
      <trkpt lat="64.16659" lon="14.31941">
        <time>2026-01-25T13:41:00Z</time>
      </trkpt>
      <trkpt lat="64.24641" lon="14.31857">
        <time>2026-01-25T17:41:00Z</time>
      </trkpt>
      <trkpt lat="64.24639" lon="14.31851">
        <time>2026-01-26T07:58:00Z</time>
      </trkpt>
      <trkpt lat="64.27158" lon="14.42318">
        <time>2026-01-26T11:58:00Z</time>
      </trkpt>
      <trkpt lat="64.30491" lon="14.38616">
        <time>2026-01-26T15:58:00Z</time>
      </trkpt>
      <trkpt lat="64.37488" lon="14.38048">
        <time>2026-01-26T19:58:00Z</time>
      </trkpt>
      <trkpt lat="64.40231" lon="14.28709">
        <time>2026-01-27T11:06:00Z</time>
      </trkpt>
      <trkpt lat="64.49927" lon="14.1424">
        <time>2026-01-27T15:18:00Z</time>
      </trkpt>
      <trkpt lat="64.50267" lon="14.14603">
        <time>2026-01-29T09:01:00Z</time>
      </trkpt>
      <trkpt lat="64.60576" lon="14.12005">
        <time>2026-01-29T13:01:00Z</time>
      </trkpt>
      <trkpt lat="64.69134" lon="14.19538">
        <time>2026-01-29T17:01:00Z</time>
      </trkpt>
      <trkpt lat="64.72961" lon="14.20633">
        <time>2026-01-29T19:30:00Z</time>
      </trkpt>
      <trkpt lat="64.72969" lon="14.20613">
        <time>2026-01-30T09:34:00Z</time>
      </trkpt>
      <trkpt lat="64.80886" lon="14.23611">
        <time>2026-01-30T13:34:00Z</time>
      </trkpt>
      <trkpt lat="64.81857" lon="14.24186">
        <time>2026-01-30T16:28:00Z</time>
      </trkpt>
      <trkpt lat="64.81831" lon="14.24381">
        <time>2026-01-31T07:37:00Z</time>
      </trkpt>
      <trkpt lat="64.85925" lon="14.42936">
        <time>2026-01-31T11:37:00Z</time>
      </trkpt>
      <trkpt lat="64.91463" lon="14.54903">
        <time>2026-01-31T15:37:00Z</time>
      </trkpt>
      <trkpt lat="64.91913" lon="14.54913">
        <time>2026-01-31T19:37:00Z</time>
      </trkpt>
      <trkpt lat="64.91923" lon="14.54943">
        <time>2026-02-01T07:20:00Z</time>
      </trkpt>
      <trkpt lat="64.95337" lon="14.65331">
        <time>2026-02-01T11:20:00Z</time>
      </trkpt>
      <trkpt lat="65.04144" lon="14.72721">
        <time>2026-02-01T15:20:00Z</time>
      </trkpt>
      <trkpt lat="65.06564" lon="14.80079">
        <time>2026-02-03T08:35:00Z</time>
      </trkpt>
      <trkpt lat="65.11107" lon="14.74431">
        <time>2026-02-03T10:35:00Z</time>
      </trkpt>
      <trkpt lat="65.13325" lon="14.69415">
        <time>2026-02-03T12:35:00Z</time>
      </trkpt>
      <trkpt lat="65.16495" lon="14.59168">
        <time>2026-02-03T14:35:00Z</time>
      </trkpt>
      <trkpt lat="65.18247" lon="14.56697">
        <time>2026-02-03T16:36:00Z</time>
      </trkpt>
      <trkpt lat="65.18245" lon="14.5669">
        <time>2026-02-03T17:02:00Z</time>
      </trkpt>
      <trkpt lat="65.18248" lon="14.56699">
        <time>2026-02-04T08:04:00Z</time>
      </trkpt>
      <trkpt lat="65.19541" lon="14.5451">
        <time>2026-02-04T10:04:00Z</time>
      </trkpt>
      <trkpt lat="65.25014" lon="14.50457">
        <time>2026-02-04T12:04:00Z</time>
      </trkpt>
      <trkpt lat="65.25487" lon="14.53982">
        <time>2026-02-04T14:04:00Z</time>
      </trkpt>
      <trkpt lat="65.30601" lon="14.60698">
        <time>2026-02-04T16:04:00Z</time>
      </trkpt>
      <trkpt lat="65.30572" lon="14.60716">
        <time>2026-02-04T17:11:00Z</time>
      </trkpt>
      <trkpt lat="65.30572" lon="14.60701">
        <time>2026-02-05T07:42:00Z</time>
      </trkpt>
      <trkpt lat="65.30903" lon="14.71088">
        <time>2026-02-05T09:42:00Z</time>
      </trkpt>
      <trkpt lat="65.33236" lon="14.77824">
        <time>2026-02-05T11:42:00Z</time>
      </trkpt>
      <trkpt lat="65.35483" lon="14.77976">
        <time>2026-02-05T13:42:00Z</time>
      </trkpt>
      <trkpt lat="65.39262" lon="14.79386">
        <time>2026-02-05T15:42:00Z</time>
      </trkpt>
      <trkpt lat="65.4226" lon="14.81454">
        <time>2026-02-05T16:35:00Z</time>
      </trkpt>
      <trkpt lat="65.42125" lon="14.81602">
        <time>2026-02-06T07:58:00Z</time>
      </trkpt>
      <trkpt lat="65.42433" lon="14.68106">
        <time>2026-02-06T09:58:00Z</time>
      </trkpt>
      <trkpt lat="65.45425" lon="14.67664">
        <time>2026-02-06T11:58:00Z</time>
      </trkpt>
      <trkpt lat="65.47212" lon="14.68687">
        <time>2026-02-06T13:58:00Z</time>
      </trkpt>
      <trkpt lat="65.50765" lon="14.58628">
        <time>2026-02-06T15:58:00Z</time>
      </trkpt>
      <trkpt lat="65.51732" lon="14.55248">
        <time>2026-02-06T17:36:00Z</time>
      </trkpt>
      <trkpt lat="65.51637" lon="14.55328">
        <time>2026-02-07T08:20:00Z</time>
      </trkpt>
      <trkpt lat="65.54708" lon="14.58177">
        <time>2026-02-07T10:20:00Z</time>
      </trkpt>
      <trkpt lat="65.58908" lon="14.60308">
        <time>2026-02-07T12:20:00Z</time>
      </trkpt>
      <trkpt lat="65.63311" lon="14.61102">
        <time>2026-02-07T14:20:00Z</time>
      </trkpt>
      <trkpt lat="65.68725" lon="14.5878">
        <time>2026-02-07T16:20:00Z</time>
      </trkpt>
      <trkpt lat="65.71489" lon="14.61293">
        <time>2026-02-07T17:21:00Z</time>
      </trkpt>
      <trkpt lat="65.72722" lon="14.66925">
        <time>2026-02-08T09:20:00Z</time>
      </trkpt>
      <trkpt lat="65.73979" lon="14.80429">
        <time>2026-02-08T11:20:00Z</time>
      </trkpt>
      <trkpt lat="65.74712" lon="14.98438">
        <time>2026-02-08T13:20:00Z</time>
      </trkpt>
      <trkpt lat="65.74507" lon="15.09208">
        <time>2026-02-08T15:20:00Z</time>
      </trkpt>
      <trkpt lat="65.7966" lon="15.07144">
        <time>2026-02-08T17:20:00Z</time>
      </trkpt>
      <trkpt lat="65.8182" lon="15.09171">
        <time>2026-02-08T19:20:00Z</time>
      </trkpt>
      <trkpt lat="65.81721" lon="15.09122">
        <time>2026-02-08T19:34:00Z</time>
      </trkpt>
      <trkpt lat="65.88203" lon="15.14907">
        <time>2026-02-12T13:09:00Z</time>
      </trkpt>
      <trkpt lat="65.92481" lon="15.46046">
        <time>2026-02-13T11:08:00Z</time>
      </trkpt>
      <trkpt lat="65.98447" lon="15.48701">
        <time>2026-02-13T13:08:00Z</time>
      </trkpt>
      <trkpt lat="65.98741" lon="15.51842">
        <time>2026-02-13T15:08:00Z</time>
      </trkpt>
      <trkpt lat="65.97136" lon="15.86745">
        <time>2026-02-14T10:47:00Z</time>
      </trkpt>
      <trkpt lat="65.96467" lon="15.97688">
        <time>2026-02-14T12:47:00Z</time>
      </trkpt>
      <trkpt lat="65.95368" lon="16.16636">
        <time>2026-02-14T14:47:00Z</time>
      </trkpt>
      <trkpt lat="65.95787" lon="16.20921">
        <time>2026-02-15T08:09:00Z</time>
      </trkpt>
      <trkpt lat="66.00899" lon="16.19599">
        <time>2026-02-15T10:09:00Z</time>
      </trkpt>
      <trkpt lat="66.03861" lon="16.24753">
        <time>2026-02-15T12:09:00Z</time>
      </trkpt>
      <trkpt lat="66.05473" lon="16.26912">
        <time>2026-02-15T14:09:00Z</time>
      </trkpt>
      <trkpt lat="66.10749" lon="16.32441">
        <time>2026-02-15T16:09:00Z</time>
      </trkpt>
      <trkpt lat="66.10735" lon="16.32443">
        <time>2026-02-15T18:09:00Z</time>
      </trkpt>
      <trkpt lat="66.10735" lon="16.32439">
        <time>2026-02-16T06:09:00Z</time>
      </trkpt>
      <trkpt lat="66.11453" lon="16.34126">
        <time>2026-02-16T08:09:00Z</time>
      </trkpt>
      <trkpt lat="66.18848" lon="16.37711">
        <time>2026-02-16T10:09:00Z</time>
      </trkpt>
      <trkpt lat="66.2102" lon="16.37679">
        <time>2026-02-16T12:09:00Z</time>
      </trkpt>
      <trkpt lat="66.26869" lon="16.41136">
        <time>2026-02-16T14:09:00Z</time>
      </trkpt>
      <trkpt lat="66.28485" lon="16.61175">
        <time>2026-02-16T16:09:00Z</time>
      </trkpt>
      <trkpt lat="66.27785" lon="16.65252">
        <time>2026-02-16T18:09:00Z</time>
      </trkpt>
      <trkpt lat="66.27777" lon="16.65237">
        <time>2026-02-17T08:01:00Z</time>
      </trkpt>
      <trkpt lat="66.3127" lon="16.69909">
        <time>2026-02-17T10:01:00Z</time>
      </trkpt>
      <trkpt lat="66.34043" lon="16.7991">
        <time>2026-02-17T12:01:00Z</time>
      </trkpt>
      <trkpt lat="66.35108" lon="16.83423">
        <time>2026-02-17T14:01:00Z</time>
      </trkpt>
      <trkpt lat="66.38376" lon="16.95956">
        <time>2026-02-17T16:01:00Z</time>
      </trkpt>
      <trkpt lat="66.38994" lon="16.96428">
        <time>2026-02-17T18:55:00Z</time>
      </trkpt>
      <trkpt lat="66.36822" lon="16.99241">
        <time>2026-02-17T20:55:00Z</time>
      </trkpt>
      <trkpt lat="66.368" lon="16.99252">
        <time>2026-02-17T22:55:00Z</time>
      </trkpt>
      <trkpt lat="66.36837" lon="16.9928">
        <time>2026-02-18T02:55:00Z</time>
      </trkpt>
      <trkpt lat="66.36835" lon="16.99327">
        <time>2026-02-18T06:55:00Z</time>
      </trkpt>
      <trkpt lat="66.38524" lon="16.99168">
        <time>2026-02-19T09:38:00Z</time>
      </trkpt>
      <trkpt lat="66.40994" lon="17.16315">
        <time>2026-02-19T11:38:00Z</time>
      </trkpt>
      <trkpt lat="66.43233" lon="17.19678">
        <time>2026-02-19T13:38:00Z</time>
      </trkpt>
      <trkpt lat="66.48253" lon="17.23527">
        <time>2026-02-19T15:38:00Z</time>
      </trkpt>
      <trkpt lat="66.49312" lon="17.23227">
        <time>2026-02-20T07:48:00Z</time>
      </trkpt>
      <trkpt lat="66.52926" lon="17.24222">
        <time>2026-02-20T09:48:00Z</time>
      </trkpt>
      <trkpt lat="66.56306" lon="17.2325">
        <time>2026-02-20T11:48:00Z</time>
      </trkpt>
      <trkpt lat="66.56144" lon="17.29743">
        <time>2026-02-20T13:48:00Z</time>
      </trkpt>
      <trkpt lat="66.55959" lon="17.38981">
        <time>2026-02-20T15:48:00Z</time>
      </trkpt>
      <trkpt lat="66.57918" lon="17.39884">
        <time>2026-02-20T17:48:00Z</time>
      </trkpt>
      <trkpt lat="66.57918" lon="17.39878">
        <time>2026-02-20T19:48:00Z</time>
      </trkpt>
      <trkpt lat="66.5792" lon="17.39873">
        <time>2026-02-20T19:55:00Z</time>
      </trkpt>
      <trkpt lat="66.57925" lon="17.39871">
        <time>2026-02-21T07:49:00Z</time>
      </trkpt>
      <trkpt lat="66.62539" lon="17.38077">
        <time>2026-02-21T09:49:00Z</time>
      </trkpt>
      <trkpt lat="66.66252" lon="17.41882">
        <time>2026-02-21T11:49:00Z</time>
      </trkpt>
      <trkpt lat="66.70544" lon="17.39423">
        <time>2026-02-21T13:49:00Z</time>
      </trkpt>
      <trkpt lat="66.75024" lon="17.4444">
        <time>2026-02-21T15:49:00Z</time>
      </trkpt>
      <trkpt lat="66.75389" lon="17.4539">
        <time>2026-02-21T16:04:00Z</time>
      </trkpt>
      <trkpt lat="66.75376" lon="17.45347">
        <time>2026-02-22T08:32:00Z</time>
      </trkpt>
      <trkpt lat="66.78948" lon="17.54604">
        <time>2026-02-22T10:32:00Z</time>
      </trkpt>
      <trkpt lat="66.81966" lon="17.56338">
        <time>2026-02-22T12:32:00Z</time>
      </trkpt>
      <trkpt lat="66.85707" lon="17.59593">
        <time>2026-02-22T14:32:00Z</time>
      </trkpt>
      <trkpt lat="66.89748" lon="17.66674">
        <time>2026-02-22T16:32:00Z</time>
      </trkpt>
      <trkpt lat="66.92564" lon="17.71981">
        <time>2026-02-22T18:32:00Z</time>
      </trkpt>
      <trkpt lat="66.95031" lon="17.7236">
        <time>2026-02-24T08:04:00Z</time>
      </trkpt>
      <trkpt lat="66.98643" lon="17.7845">
        <time>2026-02-24T10:04:00Z</time>
      </trkpt>
      <trkpt lat="67.0106" lon="17.79154">
        <time>2026-02-24T12:04:00Z</time>
      </trkpt>
      <trkpt lat="67.03941" lon="17.94874">
        <time>2026-02-24T14:04:00Z</time>
      </trkpt>
      <trkpt lat="67.05205" lon="18.11248">
        <time>2026-02-24T16:04:00Z</time>
      </trkpt>
      <trkpt lat="67.05152" lon="18.11192">
        <time>2026-02-24T17:25:00Z</time>
      </trkpt>
      <trkpt lat="67.0519" lon="18.11272">
        <time>2026-02-25T07:14:00Z</time>
      </trkpt>
      <trkpt lat="67.06568" lon="18.25397">
        <time>2026-02-25T09:14:00Z</time>
      </trkpt>
      <trkpt lat="67.11464" lon="18.2873">
        <time>2026-02-25T11:14:00Z</time>
      </trkpt>
      <trkpt lat="67.14221" lon="18.31367">
        <time>2026-02-25T13:14:00Z</time>
      </trkpt>
      <trkpt lat="67.16742" lon="18.36821">
        <time>2026-02-25T15:14:00Z</time>
      </trkpt>
      <trkpt lat="67.23211" lon="18.44085">
        <time>2026-02-25T17:15:00Z</time>
      </trkpt>
      <trkpt lat="67.23268" lon="18.44224">
        <time>2026-02-25T19:15:00Z</time>
      </trkpt>
      <trkpt lat="67.2315" lon="18.44302">
        <time>2026-02-26T09:27:00Z</time>
      </trkpt>
      <trkpt lat="67.28896" lon="18.47278">
        <time>2026-02-26T11:27:00Z</time>
      </trkpt>
      <trkpt lat="67.3272" lon="18.50453">
        <time>2026-02-26T13:27:00Z</time>
      </trkpt>
      <trkpt lat="67.42172" lon="18.45679">
        <time>2026-02-27T10:31:00Z</time>
      </trkpt>
      <trkpt lat="67.48203" lon="18.35667">
        <time>2026-02-27T13:19:00Z</time>
      </trkpt>
      <trkpt lat="67.53374" lon="18.20728">
        <time>2026-02-27T15:19:00Z</time>
      </trkpt>
      <trkpt lat="67.58174" lon="18.10072">
        <time>2026-02-27T17:02:00Z</time>
      </trkpt>
      <trkpt lat="67.58216" lon="18.10152">
        <time>2026-02-28T06:54:00Z</time>
      </trkpt>
      <trkpt lat="67.59421" lon="18.10712">
        <time>2026-02-28T08:54:00Z</time>
      </trkpt>
      <trkpt lat="67.615" lon="18.10561">
        <time>2026-02-28T10:54:00Z</time>
      </trkpt>
      <trkpt lat="67.65788" lon="18.11087">
        <time>2026-02-28T12:54:00Z</time>
      </trkpt>
      <trkpt lat="67.69428" lon="18.1549">
        <time>2026-02-28T14:54:00Z</time>
      </trkpt>
      <trkpt lat="67.6945" lon="18.15576">
        <time>2026-03-01T07:16:00Z</time>
      </trkpt>
      <trkpt lat="67.69848" lon="18.16853">
        <time>2026-03-01T09:16:00Z</time>
      </trkpt>
      <trkpt lat="67.73694" lon="18.27118">
        <time>2026-03-01T11:16:00Z</time>
      </trkpt>
      <trkpt lat="67.74997" lon="18.30015">
        <time>2026-03-01T13:16:00Z</time>
      </trkpt>
      <trkpt lat="67.7926" lon="18.29489">
        <time>2026-03-01T15:16:00Z</time>
      </trkpt>
      <trkpt lat="67.83497" lon="18.31869">
        <time>2026-03-01T17:16:00Z</time>
      </trkpt>
      <trkpt lat="67.85116" lon="18.31592">
        <time>2026-03-01T19:16:00Z</time>
      </trkpt>
      <trkpt lat="67.85118" lon="18.31566">
        <time>2026-03-01T20:40:00Z</time>
      </trkpt>
      <trkpt lat="67.85125" lon="18.31526">
        <time>2026-03-02T07:00:00Z</time>
      </trkpt>
      <trkpt lat="67.9038" lon="18.31536">
        <time>2026-03-02T09:00:00Z</time>
      </trkpt>
      <trkpt lat="67.94596" lon="18.28292">
        <time>2026-03-02T11:00:00Z</time>
      </trkpt>
      <trkpt lat="67.96794" lon="18.27037">
        <time>2026-03-02T13:00:00Z</time>
      </trkpt>
      <trkpt lat="68.01192" lon="18.24054">
        <time>2026-03-02T15:00:00Z</time>
      </trkpt>
      <trkpt lat="68.0517" lon="18.24179">
        <time>2026-03-02T17:00:00Z</time>
      </trkpt>
      <trkpt lat="68.10013" lon="18.31558">
        <time>2026-03-02T19:00:00Z</time>
      </trkpt>
      <trkpt lat="68.12718" lon="18.40137">
        <time>2026-03-02T21:00:00Z</time>
      </trkpt>
      <trkpt lat="68.13678" lon="18.41452">
        <time>2026-03-02T22:02:00Z</time>
      </trkpt>
      <trkpt lat="68.13661" lon="18.41512">
        <time>2026-03-03T09:59:00Z</time>
      </trkpt>
      <trkpt lat="68.18574" lon="18.48005">
        <time>2026-03-03T11:59:00Z</time>
      </trkpt>
      <trkpt lat="68.19449" lon="18.50621">
        <time>2026-03-03T13:59:00Z</time>
      </trkpt>
      <trkpt lat="68.24294" lon="18.60378">
        <time>2026-03-03T15:59:00Z</time>
      </trkpt>
      <trkpt lat="68.28602" lon="18.58991">
        <time>2026-03-03T17:59:00Z</time>
      </trkpt>
      <trkpt lat="68.28668" lon="18.59045">
        <time>2026-03-03T18:25:00Z</time>
      </trkpt>
      <trkpt lat="68.28642" lon="18.59384">
        <time>2026-03-04T10:11:00Z</time>
      </trkpt>
      <trkpt lat="68.31505" lon="18.73046">
        <time>2026-03-04T12:11:00Z</time>
      </trkpt>
      <trkpt lat="68.35582" lon="18.77035">
        <time>2026-03-04T14:11:00Z</time>
      </trkpt>
      <trkpt lat="68.35294" lon="18.83927">
        <time>2026-03-06T07:37:00Z</time>
      </trkpt>
      <trkpt lat="68.35432" lon="18.84387">
        <time>2026-03-06T08:07:00Z</time>
      </trkpt>
      <trkpt lat="68.36268" lon="18.86532">
        <time>2026-03-06T08:37:00Z</time>
      </trkpt>
      <trkpt lat="68.36752" lon="18.91337">
        <time>2026-03-06T09:07:00Z</time>
      </trkpt>
      <trkpt lat="68.3641" lon="18.88305">
        <time>2026-03-06T09:37:00Z</time>
      </trkpt>
      <trkpt lat="68.35487" lon="18.84584">
        <time>2026-03-06T10:07:00Z</time>
      </trkpt>
      <trkpt lat="68.35876" lon="18.78449">
        <time>2026-03-07T09:08:00Z</time>
      </trkpt>
      <trkpt lat="68.36539" lon="18.81462">
        <time>2026-03-07T09:38:00Z</time>
      </trkpt>
      <trkpt lat="68.36536" lon="18.81455">
        <time>2026-03-07T09:38:00Z</time>
      </trkpt>
      <trkpt lat="68.37227" lon="18.85906">
        <time>2026-03-07T10:08:00Z</time>
      </trkpt>
      <trkpt lat="68.37388" lon="18.90813">
        <time>2026-03-07T10:38:00Z</time>
      </trkpt>
      <trkpt lat="68.37416" lon="18.94909">
        <time>2026-03-07T11:08:00Z</time>
      </trkpt>
      <trkpt lat="68.3741" lon="18.99692">
        <time>2026-03-07T11:38:00Z</time>
      </trkpt>
      <trkpt lat="68.37397" lon="19.00473">
        <time>2026-03-07T12:08:00Z</time>
      </trkpt>
      <trkpt lat="68.37397" lon="19.00473">
        <time>2026-03-07T12:08:00Z</time>
      </trkpt>
      <trkpt lat="68.37396" lon="19.00478">
        <time>2026-03-07T12:38:00Z</time>
      </trkpt>
      <trkpt lat="68.37413" lon="19.02611">
        <time>2026-03-07T13:08:00Z</time>
      </trkpt>
      <trkpt lat="68.37339" lon="19.06821">
        <time>2026-03-07T13:35:00Z</time>
      </trkpt>
      <trkpt lat="68.37324" lon="19.07269">
        <time>2026-03-07T13:38:00Z</time>
      </trkpt>
      <trkpt lat="68.36784" lon="19.12387">
        <time>2026-03-07T14:08:00Z</time>
      </trkpt>
      <trkpt lat="68.35796" lon="19.17547">
        <time>2026-03-07T14:38:00Z</time>
      </trkpt>
      <trkpt lat="68.35796" lon="19.17545">
        <time>2026-03-07T14:38:00Z</time>
      </trkpt>
      <trkpt lat="68.35052" lon="19.22403">
        <time>2026-03-07T15:08:00Z</time>
      </trkpt>
      <trkpt lat="68.34349" lon="19.25954">
        <time>2026-03-07T15:38:00Z</time>
      </trkpt>
      <trkpt lat="68.33888" lon="19.283">
        <time>2026-03-07T16:08:00Z</time>
      </trkpt>
      <trkpt lat="68.33888" lon="19.283">
        <time>2026-03-07T16:08:00Z</time>
      </trkpt>
      <trkpt lat="68.33261" lon="19.33617">
        <time>2026-03-07T16:38:00Z</time>
      </trkpt>
      <trkpt lat="68.3279" lon="19.38426">
        <time>2026-03-07T17:08:00Z</time>
      </trkpt>
      <trkpt lat="68.3279" lon="19.38421">
        <time>2026-03-07T17:08:00Z</time>
      </trkpt>
      <trkpt lat="68.32702" lon="19.44908">
        <time>2026-03-07T17:38:00Z</time>
      </trkpt>
      <trkpt lat="68.31836" lon="19.48515">
        <time>2026-03-07T18:05:00Z</time>
      </trkpt>
      <trkpt lat="68.31848" lon="19.48498">
        <time>2026-03-07T18:05:00Z</time>
      </trkpt>
      <trkpt lat="68.31825" lon="19.48554">
        <time>2026-03-08T08:15:00Z</time>
      </trkpt>
      <trkpt lat="68.31843" lon="19.48719">
        <time>2026-03-08T08:15:00Z</time>
      </trkpt>
      <trkpt lat="68.30978" lon="19.51819">
        <time>2026-03-08T08:45:00Z</time>
      </trkpt>
      <trkpt lat="68.30066" lon="19.55972">
        <time>2026-03-08T09:15:00Z</time>
      </trkpt>
      <trkpt lat="68.30031" lon="19.59883">
        <time>2026-03-08T09:45:00Z</time>
      </trkpt>
      <trkpt lat="68.30008" lon="19.64711">
        <time>2026-03-08T10:15:00Z</time>
      </trkpt>
      <trkpt lat="68.30108" lon="19.70254">
        <time>2026-03-08T10:45:00Z</time>
      </trkpt>
      <trkpt lat="68.30273" lon="19.73097">
        <time>2026-03-08T11:08:00Z</time>
      </trkpt>
      <trkpt lat="68.30374" lon="19.74165">
        <time>2026-03-08T11:15:00Z</time>
      </trkpt>
      <trkpt lat="68.30996" lon="19.78433">
        <time>2026-03-08T11:45:00Z</time>
      </trkpt>
      <trkpt lat="68.31637" lon="19.81609">
        <time>2026-03-08T12:15:00Z</time>
      </trkpt>
      <trkpt lat="68.31969" lon="19.84379">
        <time>2026-03-08T14:03:00Z</time>
      </trkpt>
      <trkpt lat="68.31589" lon="19.85512">
        <time>2026-03-08T14:15:00Z</time>
      </trkpt>
      <trkpt lat="68.31888" lon="19.94091">
        <time>2026-03-08T16:15:00Z</time>
      </trkpt>
      <trkpt lat="68.31888" lon="19.94093">
        <time>2026-03-08T16:15:00Z</time>
      </trkpt>
      <trkpt lat="68.31935" lon="19.94166">
        <time>2026-03-08T17:02:00Z</time>
      </trkpt>
      <trkpt lat="68.31877" lon="19.94475">
        <time>2026-03-09T07:52:00Z</time>
      </trkpt>
      <trkpt lat="68.31891" lon="19.941">
        <time>2026-03-09T07:53:00Z</time>
      </trkpt>
      <trkpt lat="68.33776" lon="19.96207">
        <time>2026-03-09T08:39:00Z</time>
      </trkpt>
      <trkpt lat="68.36585" lon="20.03678">
        <time>2026-03-09T09:52:00Z</time>
      </trkpt>
      <trkpt lat="68.39641" lon="20.06217">
        <time>2026-03-09T11:24:00Z</time>
      </trkpt>
      <trkpt lat="68.40756" lon="20.07594">
        <time>2026-03-09T11:52:00Z</time>
      </trkpt>
      <trkpt lat="68.42213" lon="20.12995">
        <time>2026-03-09T13:52:00Z</time>
      </trkpt>
      <trkpt lat="68.42486" lon="20.15665">
        <time>2026-03-09T14:24:00Z</time>
      </trkpt>
      <trkpt lat="68.45309" lon="20.20362">
        <time>2026-03-09T15:52:00Z</time>
      </trkpt>
      <trkpt lat="68.46526" lon="20.21817">
        <time>2026-03-09T16:20:00Z</time>
      </trkpt>
      <trkpt lat="68.47559" lon="20.22945">
        <time>2026-03-09T16:47:00Z</time>
      </trkpt>
      <trkpt lat="68.4755" lon="20.23005">
        <time>2026-03-10T07:37:00Z</time>
      </trkpt>
      <trkpt lat="68.52236" lon="20.29432">
        <time>2026-03-10T09:37:00Z</time>
      </trkpt>
      <trkpt lat="68.56344" lon="20.33833">
        <time>2026-03-10T11:37:00Z</time>
      </trkpt>
      <trkpt lat="68.59958" lon="20.41852">
        <time>2026-03-10T13:37:00Z</time>
      </trkpt>
      <trkpt lat="68.65022" lon="20.44334">
        <time>2026-03-10T15:37:00Z</time>
      </trkpt>
      <trkpt lat="68.70507" lon="20.51589">
        <time>2026-03-10T17:22:00Z</time>
      </trkpt>
      <trkpt lat="68.70468" lon="20.51608">
        <time>2026-03-11T07:39:00Z</time>
      </trkpt>
      <trkpt lat="68.74547" lon="20.59852">
        <time>2026-03-11T09:39:00Z</time>
      </trkpt>
      <trkpt lat="68.77321" lon="20.66481">
        <time>2026-03-11T11:39:00Z</time>
      </trkpt>
      <trkpt lat="68.80843" lon="20.73128">
        <time>2026-03-11T13:39:00Z</time>
      </trkpt>
      <trkpt lat="68.85514" lon="20.71697">
        <time>2026-03-11T15:10:00Z</time>
      </trkpt>
      <trkpt lat="68.85509" lon="20.71703">
        <time>2026-03-12T07:38:00Z</time>
      </trkpt>
      <trkpt lat="68.87535" lon="20.56827">
        <time>2026-03-12T09:38:00Z</time>
      </trkpt>
      <trkpt lat="68.8972" lon="20.45218">
        <time>2026-03-12T11:38:00Z</time>
      </trkpt>
      <trkpt lat="68.93277" lon="20.37764">
        <time>2026-03-12T13:38:00Z</time>
      </trkpt>
      <trkpt lat="68.97333" lon="20.36848">
        <time>2026-03-12T15:13:00Z</time>
      </trkpt>
      <trkpt lat="68.97348" lon="20.36897">
        <time>2026-03-13T07:01:00Z</time>
      </trkpt>
      <trkpt lat="68.98986" lon="20.44311">
        <time>2026-03-13T09:01:00Z</time>
      </trkpt>
      <trkpt lat="69.03291" lon="20.51634">
        <time>2026-03-13T11:01:00Z</time>
      </trkpt>
      <trkpt lat="69.0548" lon="20.56112">
        <time>2026-03-13T12:42:00Z</time>
      </trkpt>
    </trkseg>
  </trk>
</gpx>
