<?xml version="1.0" encoding="UTF-8"?>
<gpx xmlns="http://www.topografix.com/GPX/1/1" version="1.1" creator="VitaBandet">
  <metadata>
    <name>Olas Vita Band 2</name>
  </metadata>
  <trk>
    <name>Olas Vita Band 2</name>
    <trkseg>
      <trkpt lat="62.09988" lon="12.31376">
        <time>2025-03-04T10:08:00Z</time>
      </trkpt>
      <trkpt lat="62.0992" lon="12.3126">
        <time>2025-03-04T10:09:00Z</time>
      </trkpt>
      <trkpt lat="62.1577" lon="12.37457">
        <time>2025-03-04T14:18:00Z</time>
      </trkpt>
      <trkpt lat="62.25955" lon="12.37039">
        <time>2025-03-04T18:18:00Z</time>
      </trkpt>
      <trkpt lat="62.31687" lon="12.45021">
        <time>2025-03-04T21:01:00Z</time>
      </trkpt>
      <trkpt lat="62.31659" lon="12.45023">
        <time>2025-03-04T21:02:00Z</time>
      </trkpt>
      <trkpt lat="62.31692" lon="12.45051">
        <time>2025-03-05T09:40:00Z</time>
      </trkpt>
      <trkpt lat="62.31646" lon="12.44914">
        <time>2025-03-05T09:40:00Z</time>
      </trkpt>
      <trkpt lat="62.38762" lon="12.28808">
        <time>2025-03-05T13:27:00Z</time>
      </trkpt>
      <trkpt lat="62.38788" lon="12.28831">
        <time>2025-03-05T14:47:00Z</time>
      </trkpt>
      <trkpt lat="62.38773" lon="12.28846">
        <time>2025-03-06T07:48:00Z</time>
      </trkpt>
      <trkpt lat="62.38783" lon="12.28812">
        <time>2025-03-06T07:48:00Z</time>
      </trkpt>
      <trkpt lat="62.46752" lon="12.28421">
        <time>2025-03-06T11:48:00Z</time>
      </trkpt>
      <trkpt lat="62.52623" lon="12.29335">
        <time>2025-03-06T15:48:00Z</time>
      </trkpt>
      <trkpt lat="62.54116" lon="12.30631">
        <time>2025-03-06T17:57:00Z</time>
      </trkpt>
      <trkpt lat="62.54111" lon="12.30638">
        <time>2025-03-06T18:09:00Z</time>
      </trkpt>
      <trkpt lat="62.54114" lon="12.30631">
        <time>2025-03-07T08:59:00Z</time>
      </trkpt>
      <trkpt lat="62.5412" lon="12.30642">
        <time>2025-03-07T09:00:00Z</time>
      </trkpt>
      <trkpt lat="62.59779" lon="12.32964">
        <time>2025-03-07T12:59:00Z</time>
      </trkpt>
      <trkpt lat="62.68501" lon="12.33088">
        <time>2025-03-07T16:59:00Z</time>
      </trkpt>
      <trkpt lat="62.72152" lon="12.32734">
        <time>2025-03-07T20:28:00Z</time>
      </trkpt>
      <trkpt lat="62.7221" lon="12.32689">
        <time>2025-03-07T20:38:00Z</time>
      </trkpt>
      <trkpt lat="62.72211" lon="12.32683">
        <time>2025-03-07T20:39:00Z</time>
      </trkpt>
      <trkpt lat="62.72257" lon="12.32638">
        <time>2025-03-07T20:40:00Z</time>
      </trkpt>
      <trkpt lat="62.72183" lon="12.3276">
        <time>2025-03-08T07:57:00Z</time>
      </trkpt>
      <trkpt lat="62.72165" lon="12.32741">
        <time>2025-03-08T07:58:00Z</time>
      </trkpt>
      <trkpt lat="62.798" lon="12.40691">
        <time>2025-03-08T11:57:00Z</time>
      </trkpt>
      <trkpt lat="62.87209" lon="12.49864">
        <time>2025-03-08T15:57:00Z</time>
      </trkpt>
      <trkpt lat="62.91708" lon="12.50591">
        <time>2025-03-08T17:57:00Z</time>
      </trkpt>
      <trkpt lat="62.91701" lon="12.50572">
        <time>2025-03-08T19:44:00Z</time>
      </trkpt>
      <trkpt lat="62.91697" lon="12.50561">
        <time>2025-03-09T10:32:00Z</time>
      </trkpt>
      <trkpt lat="63.00328" lon="12.34155">
        <time>2025-03-09T14:32:00Z</time>
      </trkpt>
      <trkpt lat="63.09941" lon="12.26647">
        <time>2025-03-09T18:32:00Z</time>
      </trkpt>
      <trkpt lat="63.18194" lon="12.1777">
        <time>2025-03-09T22:32:00Z</time>
      </trkpt>
      <trkpt lat="63.18566" lon="12.17491">
        <time>2025-03-09T22:48:00Z</time>
      </trkpt>
      <trkpt lat="63.18548" lon="12.17495">
        <time>2025-03-09T22:55:00Z</time>
      </trkpt>
      <trkpt lat="63.18569" lon="12.17493">
        <time>2025-03-10T08:58:00Z</time>
      </trkpt>
      <trkpt lat="63.282" lon="12.11564">
        <time>2025-03-10T12:58:00Z</time>
      </trkpt>
      <trkpt lat="63.31554" lon="12.10575">
        <time>2025-03-10T14:50:00Z</time>
      </trkpt>
      <trkpt lat="63.31589" lon="12.10633">
        <time>2025-03-11T09:54:00Z</time>
      </trkpt>
      <trkpt lat="63.31579" lon="12.10624">
        <time>2025-03-11T09:54:00Z</time>
      </trkpt>
      <trkpt lat="63.37293" lon="12.2649">
        <time>2025-03-11T13:54:00Z</time>
      </trkpt>
      <trkpt lat="63.43762" lon="12.23808">
        <time>2025-03-11T17:54:00Z</time>
      </trkpt>
      <trkpt lat="63.50977" lon="12.2396">
        <time>2025-03-11T20:13:00Z</time>
      </trkpt>
      <trkpt lat="63.51008" lon="12.23984">
        <time>2025-03-11T20:53:00Z</time>
      </trkpt>
      <trkpt lat="63.50981" lon="12.23958">
        <time>2025-03-11T20:53:00Z</time>
      </trkpt>
      <trkpt lat="63.50974" lon="12.23999">
        <time>2025-03-12T08:45:00Z</time>
      </trkpt>
      <trkpt lat="63.50969" lon="12.23997">
        <time>2025-03-12T08:46:00Z</time>
      </trkpt>
      <trkpt lat="63.59637" lon="12.32906">
        <time>2025-03-12T12:45:00Z</time>
      </trkpt>
      <trkpt lat="63.6462" lon="12.51928">
        <time>2025-03-12T16:45:00Z</time>
      </trkpt>
      <trkpt lat="63.71108" lon="12.62934">
        <time>2025-03-12T20:45:00Z</time>
      </trkpt>
      <trkpt lat="63.7115" lon="12.63065">
        <time>2025-03-12T21:01:00Z</time>
      </trkpt>
      <trkpt lat="63.7108" lon="12.63078">
        <time>2025-03-13T08:41:00Z</time>
      </trkpt>
      <trkpt lat="63.71074" lon="12.63097">
        <time>2025-03-13T08:41:00Z</time>
      </trkpt>
      <trkpt lat="63.70888" lon="12.79945">
        <time>2025-03-13T12:41:00Z</time>
      </trkpt>
      <trkpt lat="63.70147" lon="12.95676">
        <time>2025-03-13T16:41:00Z</time>
      </trkpt>
      <trkpt lat="63.70194" lon="12.95468">
        <time>2025-03-13T16:57:00Z</time>
      </trkpt>
      <trkpt lat="63.70183" lon="12.95459">
        <time>2025-03-13T17:05:00Z</time>
      </trkpt>
      <trkpt lat="63.70194" lon="12.95487">
        <time>2025-03-13T17:06:00Z</time>
      </trkpt>
      <trkpt lat="63.70186" lon="12.95479">
        <time>2025-03-13T17:07:00Z</time>
      </trkpt>
      <trkpt lat="63.70192" lon="12.95552">
        <time>2025-03-14T08:51:00Z</time>
      </trkpt>
      <trkpt lat="63.70182" lon="12.95519">
        <time>2025-03-14T08:51:00Z</time>
      </trkpt>
      <trkpt lat="63.71027" lon="12.99036">
        <time>2025-03-14T09:21:00Z</time>
      </trkpt>
      <trkpt lat="63.71375" lon="13.04399">
        <time>2025-03-14T09:51:00Z</time>
      </trkpt>
      <trkpt lat="63.71266" lon="13.09048">
        <time>2025-03-14T10:21:00Z</time>
      </trkpt>
      <trkpt lat="63.71619" lon="13.1337">
        <time>2025-03-14T10:51:00Z</time>
      </trkpt>
      <trkpt lat="63.71793" lon="13.18565">
        <time>2025-03-14T11:21:00Z</time>
      </trkpt>
      <trkpt lat="63.71257" lon="13.23314">
        <time>2025-03-14T11:51:00Z</time>
      </trkpt>
      <trkpt lat="63.69834" lon="13.28058">
        <time>2025-03-14T12:21:00Z</time>
      </trkpt>
      <trkpt lat="63.68301" lon="13.31549">
        <time>2025-03-14T12:51:00Z</time>
      </trkpt>
      <trkpt lat="63.68063" lon="13.33152">
        <time>2025-03-14T13:21:00Z</time>
      </trkpt>
      <trkpt lat="63.68099" lon="13.33191">
        <time>2025-03-14T13:51:00Z</time>
      </trkpt>
      <trkpt lat="63.68535" lon="13.36465">
        <time>2025-03-14T14:21:00Z</time>
      </trkpt>
      <trkpt lat="63.68836" lon="13.39675">
        <time>2025-03-14T14:51:00Z</time>
      </trkpt>
      <trkpt lat="63.68819" lon="13.43231">
        <time>2025-03-14T15:21:00Z</time>
      </trkpt>
      <trkpt lat="63.69365" lon="13.45044">
        <time>2025-03-14T15:51:00Z</time>
      </trkpt>
      <trkpt lat="63.69051" lon="13.48453">
        <time>2025-03-14T16:21:00Z</time>
      </trkpt>
      <trkpt lat="63.68834" lon="13.51316">
        <time>2025-03-14T16:51:00Z</time>
      </trkpt>
      <trkpt lat="63.69337" lon="13.55176">
        <time>2025-03-14T17:21:00Z</time>
      </trkpt>
      <trkpt lat="63.69393" lon="13.59912">
        <time>2025-03-14T17:51:00Z</time>
      </trkpt>
      <trkpt lat="63.6957" lon="13.62598">
        <time>2025-03-14T18:09:00Z</time>
      </trkpt>
      <trkpt lat="63.69636" lon="13.62581">
        <time>2025-03-14T18:21:00Z</time>
      </trkpt>
      <trkpt lat="63.69642" lon="13.62603">
        <time>2025-03-14T18:22:00Z</time>
      </trkpt>
      <trkpt lat="63.69652" lon="13.62665">
        <time>2025-03-15T08:42:00Z</time>
      </trkpt>
      <trkpt lat="63.75127" lon="13.68046">
        <time>2025-03-15T12:42:00Z</time>
      </trkpt>
      <trkpt lat="63.78048" lon="13.82133">
        <time>2025-03-15T16:09:00Z</time>
      </trkpt>
      <trkpt lat="63.7806" lon="13.82127">
        <time>2025-03-17T09:01:00Z</time>
      </trkpt>
      <trkpt lat="63.7806" lon="13.82127">
        <time>2025-03-17T09:02:00Z</time>
      </trkpt>
      <trkpt lat="63.86869" lon="13.86929">
        <time>2025-03-17T13:02:00Z</time>
      </trkpt>
      <trkpt lat="63.96166" lon="13.95006">
        <time>2025-03-17T17:02:00Z</time>
      </trkpt>
      <trkpt lat="64.01639" lon="14.0087">
        <time>2025-03-17T19:51:00Z</time>
      </trkpt>
      <trkpt lat="64.01649" lon="14.00883">
        <time>2025-03-17T20:04:00Z</time>
      </trkpt>
      <trkpt lat="64.01621" lon="14.00868">
        <time>2025-03-17T20:04:00Z</time>
      </trkpt>
      <trkpt lat="64.01607" lon="14.00857">
        <time>2025-03-17T20:05:00Z</time>
      </trkpt>
      <trkpt lat="64.01606" lon="14.00896">
        <time>2025-03-18T08:45:00Z</time>
      </trkpt>
      <trkpt lat="64.01604" lon="14.00896">
        <time>2025-03-18T08:45:00Z</time>
      </trkpt>
      <trkpt lat="64.06476" lon="14.12395">
        <time>2025-03-18T12:45:00Z</time>
      </trkpt>
      <trkpt lat="64.06599" lon="14.14419">
        <time>2025-03-18T13:37:00Z</time>
      </trkpt>
      <trkpt lat="64.0662" lon="14.14414">
        <time>2025-03-18T13:48:00Z</time>
      </trkpt>
      <trkpt lat="64.06601" lon="14.14491">
        <time>2025-03-19T08:57:00Z</time>
      </trkpt>
      <trkpt lat="64.12024" lon="14.20914">
        <time>2025-03-19T12:57:00Z</time>
      </trkpt>
      <trkpt lat="64.19727" lon="14.26036">
        <time>2025-03-19T16:57:00Z</time>
      </trkpt>
      <trkpt lat="64.22609" lon="14.31467">
        <time>2025-03-19T18:37:00Z</time>
      </trkpt>
      <trkpt lat="64.22605" lon="14.31473">
        <time>2025-03-19T19:47:00Z</time>
      </trkpt>
      <trkpt lat="64.22603" lon="14.31473">
        <time>2025-03-20T09:35:00Z</time>
      </trkpt>
      <trkpt lat="64.27302" lon="14.44208">
        <time>2025-03-20T13:35:00Z</time>
      </trkpt>
      <trkpt lat="64.34911" lon="14.38535">
        <time>2025-03-20T17:35:00Z</time>
      </trkpt>
      <trkpt lat="64.34889" lon="14.38267">
        <time>2025-03-20T17:46:00Z</time>
      </trkpt>
      <trkpt lat="64.34865" lon="14.38329">
        <time>2025-03-20T17:56:00Z</time>
      </trkpt>
      <trkpt lat="64.34895" lon="14.38316">
        <time>2025-03-21T09:08:00Z</time>
      </trkpt>
      <trkpt lat="64.44071" lon="14.19225">
        <time>2025-03-21T13:08:00Z</time>
      </trkpt>
      <trkpt lat="64.5066" lon="14.1476">
        <time>2025-03-21T16:19:00Z</time>
      </trkpt>
      <trkpt lat="64.50391" lon="14.14393">
        <time>2025-03-21T16:43:00Z</time>
      </trkpt>
      <trkpt lat="64.50634" lon="14.14064">
        <time>2025-03-22T09:12:00Z</time>
      </trkpt>
      <trkpt lat="64.57063" lon="14.12974">
        <time>2025-03-22T13:14:00Z</time>
      </trkpt>
      <trkpt lat="64.66185" lon="14.14582">
        <time>2025-03-22T17:14:00Z</time>
      </trkpt>
      <trkpt lat="64.67848" lon="14.20684">
        <time>2025-03-22T18:29:00Z</time>
      </trkpt>
      <trkpt lat="64.67815" lon="14.20676">
        <time>2025-03-22T18:42:00Z</time>
      </trkpt>
      <trkpt lat="64.67828" lon="14.2074">
        <time>2025-03-23T08:36:00Z</time>
      </trkpt>
      <trkpt lat="64.67827" lon="14.20742">
        <time>2025-03-23T08:36:00Z</time>
      </trkpt>
      <trkpt lat="64.8021" lon="14.20678">
        <time>2025-03-23T12:36:00Z</time>
      </trkpt>
      <trkpt lat="64.85387" lon="14.33829">
        <time>2025-03-23T16:36:00Z</time>
      </trkpt>
      <trkpt lat="64.88291" lon="14.39887">
        <time>2025-03-23T18:31:00Z</time>
      </trkpt>
      <trkpt lat="64.88284" lon="14.39876">
        <time>2025-03-23T18:32:00Z</time>
      </trkpt>
      <trkpt lat="64.88175" lon="14.40193">
        <time>2025-03-24T07:12:00Z</time>
      </trkpt>
      <trkpt lat="64.88265" lon="14.39919">
        <time>2025-03-24T07:12:00Z</time>
      </trkpt>
      <trkpt lat="64.93047" lon="14.57692">
        <time>2025-03-24T11:12:00Z</time>
      </trkpt>
      <trkpt lat="64.9963" lon="14.72352">
        <time>2025-03-24T15:12:00Z</time>
      </trkpt>
      <trkpt lat="65.06328" lon="14.80905">
        <time>2025-03-24T17:45:00Z</time>
      </trkpt>
      <trkpt lat="65.06063" lon="14.79643">
        <time>2025-03-24T17:58:00Z</time>
      </trkpt>
      <trkpt lat="65.06356" lon="14.81023">
        <time>2025-03-26T09:29:00Z</time>
      </trkpt>
      <trkpt lat="65.09724" lon="15.10257">
        <time>2025-03-26T13:29:00Z</time>
      </trkpt>
      <trkpt lat="65.23374" lon="14.99399">
        <time>2025-03-26T17:29:00Z</time>
      </trkpt>
      <trkpt lat="65.25315" lon="14.93067">
        <time>2025-03-26T18:25:00Z</time>
      </trkpt>
      <trkpt lat="65.25325" lon="14.93024">
        <time>2025-03-26T18:27:00Z</time>
      </trkpt>
      <trkpt lat="65.25344" lon="14.93263">
        <time>2025-03-27T08:50:00Z</time>
      </trkpt>
      <trkpt lat="65.25344" lon="14.93263">
        <time>2025-03-27T08:50:00Z</time>
      </trkpt>
      <trkpt lat="65.33703" lon="15.09051">
        <time>2025-03-27T12:50:00Z</time>
      </trkpt>
      <trkpt lat="65.41263" lon="15.03187">
        <time>2025-03-27T16:50:00Z</time>
      </trkpt>
      <trkpt lat="65.43849" lon="15.23805">
        <time>2025-03-27T19:44:00Z</time>
      </trkpt>
      <trkpt lat="65.43804" lon="15.23743">
        <time>2025-03-27T20:04:00Z</time>
      </trkpt>
      <trkpt lat="65.4383" lon="15.23795">
        <time>2025-03-28T08:59:00Z</time>
      </trkpt>
      <trkpt lat="65.43829" lon="15.2379">
        <time>2025-03-28T08:59:00Z</time>
      </trkpt>
      <trkpt lat="65.555" lon="15.29975">
        <time>2025-03-28T12:59:00Z</time>
      </trkpt>
      <trkpt lat="65.64974" lon="15.13635">
        <time>2025-03-28T16:59:00Z</time>
      </trkpt>
      <trkpt lat="65.70723" lon="15.08309">
        <time>2025-03-28T20:09:00Z</time>
      </trkpt>
      <trkpt lat="65.70709" lon="15.08229">
        <time>2025-03-28T20:09:00Z</time>
      </trkpt>
      <trkpt lat="65.70722" lon="15.08277">
        <time>2025-03-29T07:09:00Z</time>
      </trkpt>
      <trkpt lat="65.70722" lon="15.08279">
        <time>2025-03-29T07:09:00Z</time>
      </trkpt>
      <trkpt lat="65.80417" lon="15.07656">
        <time>2025-03-29T11:09:00Z</time>
      </trkpt>
      <trkpt lat="65.8174" lon="15.09143">
        <time>2025-03-29T12:05:00Z</time>
      </trkpt>
      <trkpt lat="65.81761" lon="15.09098">
        <time>2025-03-30T10:33:00Z</time>
      </trkpt>
      <trkpt lat="65.86759" lon="15.11392">
        <time>2025-03-30T14:33:00Z</time>
      </trkpt>
      <trkpt lat="65.87276" lon="15.32588">
        <time>2025-03-30T18:33:00Z</time>
      </trkpt>
      <trkpt lat="65.89151" lon="15.39759">
        <time>2025-03-30T20:25:00Z</time>
      </trkpt>
      <trkpt lat="65.8915" lon="15.39787">
        <time>2025-03-30T20:26:00Z</time>
      </trkpt>
      <trkpt lat="66.00415" lon="15.53361">
        <time>2025-03-31T13:30:00Z</time>
      </trkpt>
      <trkpt lat="65.96955" lon="15.74836">
        <time>2025-03-31T17:30:00Z</time>
      </trkpt>
      <trkpt lat="65.97217" lon="15.76469">
        <time>2025-03-31T17:44:00Z</time>
      </trkpt>
      <trkpt lat="65.97238" lon="15.76469">
        <time>2025-04-01T08:39:00Z</time>
      </trkpt>
      <trkpt lat="65.97236" lon="15.76424">
        <time>2025-04-01T08:39:00Z</time>
      </trkpt>
      <trkpt lat="65.96267" lon="16.10623">
        <time>2025-04-01T12:39:00Z</time>
      </trkpt>
      <trkpt lat="65.95771" lon="16.20921">
        <time>2025-04-01T13:38:00Z</time>
      </trkpt>
      <trkpt lat="65.95788" lon="16.21363">
        <time>2025-04-02T10:00:00Z</time>
      </trkpt>
      <trkpt lat="65.95797" lon="16.21388">
        <time>2025-04-02T10:00:00Z</time>
      </trkpt>
      <trkpt lat="66.03936" lon="16.25169">
        <time>2025-04-02T14:00:00Z</time>
      </trkpt>
      <trkpt lat="66.10601" lon="16.32089">
        <time>2025-04-02T16:40:00Z</time>
      </trkpt>
      <trkpt lat="66.13926" lon="16.35847">
        <time>2025-04-02T17:40:00Z</time>
      </trkpt>
      <trkpt lat="66.16244" lon="16.35336">
        <time>2025-04-02T18:40:00Z</time>
      </trkpt>
      <trkpt lat="66.18854" lon="16.37649">
        <time>2025-04-02T19:40:00Z</time>
      </trkpt>
      <trkpt lat="66.20989" lon="16.37703">
        <time>2025-04-02T20:28:00Z</time>
      </trkpt>
      <trkpt lat="66.20985" lon="16.37707">
        <time>2025-04-02T20:29:00Z</time>
      </trkpt>
      <trkpt lat="66.20989" lon="16.37744">
        <time>2025-04-04T08:16:00Z</time>
      </trkpt>
      <trkpt lat="66.28607" lon="16.55304">
        <time>2025-04-04T12:16:00Z</time>
      </trkpt>
      <trkpt lat="66.30303" lon="16.67947">
        <time>2025-04-04T16:16:00Z</time>
      </trkpt>
      <trkpt lat="66.35103" lon="16.83416">
        <time>2025-04-04T19:49:00Z</time>
      </trkpt>
      <trkpt lat="66.35107" lon="16.83418">
        <time>2025-04-04T19:49:00Z</time>
      </trkpt>
      <trkpt lat="66.35103" lon="16.83408">
        <time>2025-04-05T08:44:00Z</time>
      </trkpt>
      <trkpt lat="66.35103" lon="16.83408">
        <time>2025-04-05T08:45:00Z</time>
      </trkpt>
      <trkpt lat="66.38914" lon="17.01001">
        <time>2025-04-05T12:45:00Z</time>
      </trkpt>
      <trkpt lat="66.43256" lon="17.20107">
        <time>2025-04-05T16:45:00Z</time>
      </trkpt>
      <trkpt lat="66.54245" lon="17.2316">
        <time>2025-04-05T20:45:00Z</time>
      </trkpt>
      <trkpt lat="66.55512" lon="17.23012">
        <time>2025-04-05T21:17:00Z</time>
      </trkpt>
      <trkpt lat="66.55486" lon="17.23012">
        <time>2025-04-05T21:20:00Z</time>
      </trkpt>
      <trkpt lat="66.55458" lon="17.2304">
        <time>2025-04-06T09:02:00Z</time>
      </trkpt>
      <trkpt lat="66.59919" lon="17.39567">
        <time>2025-04-06T13:02:00Z</time>
      </trkpt>
      <trkpt lat="66.68749" lon="17.42137">
        <time>2025-04-06T17:02:00Z</time>
      </trkpt>
      <trkpt lat="66.74896" lon="17.43918">
        <time>2025-04-06T20:37:00Z</time>
      </trkpt>
      <trkpt lat="66.74892" lon="17.43914">
        <time>2025-04-06T20:37:00Z</time>
      </trkpt>
      <trkpt lat="66.74891" lon="17.43908">
        <time>2025-04-07T08:03:00Z</time>
      </trkpt>
      <trkpt lat="66.80559" lon="17.54263">
        <time>2025-04-07T12:03:00Z</time>
      </trkpt>
      <trkpt lat="66.89532" lon="17.665">
        <time>2025-04-07T16:03:00Z</time>
      </trkpt>
      <trkpt lat="66.95374" lon="17.71993">
        <time>2025-04-07T18:39:00Z</time>
      </trkpt>
      <trkpt lat="66.95377" lon="17.71998">
        <time>2025-04-07T18:39:00Z</time>
      </trkpt>
      <trkpt lat="66.95419" lon="17.72047">
        <time>2025-04-09T09:07:00Z</time>
      </trkpt>
      <trkpt lat="66.95382" lon="17.72034">
        <time>2025-04-09T09:07:00Z</time>
      </trkpt>
      <trkpt lat="67.03354" lon="17.93069">
        <time>2025-04-09T13:07:00Z</time>
      </trkpt>
      <trkpt lat="67.05715" lon="18.17512">
        <time>2025-04-09T17:07:00Z</time>
      </trkpt>
      <trkpt lat="67.13745" lon="18.31309">
        <time>2025-04-09T21:07:00Z</time>
      </trkpt>
      <trkpt lat="67.14873" lon="18.30646">
        <time>2025-04-09T21:55:00Z</time>
      </trkpt>
      <trkpt lat="67.14878" lon="18.3062">
        <time>2025-04-09T21:55:00Z</time>
      </trkpt>
      <trkpt lat="67.14891" lon="18.30627">
        <time>2025-04-10T10:23:00Z</time>
      </trkpt>
      <trkpt lat="67.14888" lon="18.3062">
        <time>2025-04-10T10:23:00Z</time>
      </trkpt>
      <trkpt lat="67.16199" lon="18.345">
        <time>2025-04-10T14:23:00Z</time>
      </trkpt>
      <trkpt lat="67.23107" lon="18.4413">
        <time>2025-04-10T17:51:00Z</time>
      </trkpt>
      <trkpt lat="67.23214" lon="18.44091">
        <time>2025-04-11T08:08:00Z</time>
      </trkpt>
      <trkpt lat="67.23211" lon="18.44091">
        <time>2025-04-11T08:09:00Z</time>
      </trkpt>
      <trkpt lat="67.33065" lon="18.50975">
        <time>2025-04-11T12:09:00Z</time>
      </trkpt>
      <trkpt lat="67.39419" lon="18.52026">
        <time>2025-04-11T15:54:00Z</time>
      </trkpt>
      <trkpt lat="67.39417" lon="18.52067">
        <time>2025-04-11T15:54:00Z</time>
      </trkpt>
      <trkpt lat="67.3941" lon="18.52011">
        <time>2025-04-12T09:46:00Z</time>
      </trkpt>
      <trkpt lat="67.39412" lon="18.52039">
        <time>2025-04-12T09:46:00Z</time>
      </trkpt>
      <trkpt lat="67.47684" lon="18.36092">
        <time>2025-04-12T13:46:00Z</time>
      </trkpt>
      <trkpt lat="67.4823" lon="18.35652">
        <time>2025-04-12T16:02:00Z</time>
      </trkpt>
      <trkpt lat="67.48264" lon="18.35506">
        <time>2025-04-12T16:04:00Z</time>
      </trkpt>
      <trkpt lat="67.48201" lon="18.35622">
        <time>2025-04-13T09:02:00Z</time>
      </trkpt>
      <trkpt lat="67.48201" lon="18.35626">
        <time>2025-04-13T09:02:00Z</time>
      </trkpt>
      <trkpt lat="67.56715" lon="18.42407">
        <time>2025-04-13T13:02:00Z</time>
      </trkpt>
      <trkpt lat="67.64927" lon="18.29182">
        <time>2025-04-13T17:02:00Z</time>
      </trkpt>
      <trkpt lat="67.69365" lon="18.15816">
        <time>2025-04-13T18:46:00Z</time>
      </trkpt>
      <trkpt lat="67.69442" lon="18.15767">
        <time>2025-04-13T18:47:00Z</time>
      </trkpt>
      <trkpt lat="67.69487" lon="18.15578">
        <time>2025-04-14T08:25:00Z</time>
      </trkpt>
      <trkpt lat="67.695" lon="18.15538">
        <time>2025-04-14T08:25:00Z</time>
      </trkpt>
      <trkpt lat="67.73622" lon="18.26402">
        <time>2025-04-14T12:25:00Z</time>
      </trkpt>
      <trkpt lat="67.81773" lon="18.30099">
        <time>2025-04-14T16:25:00Z</time>
      </trkpt>
      <trkpt lat="67.85083" lon="18.31588">
        <time>2025-04-14T17:48:00Z</time>
      </trkpt>
      <trkpt lat="67.85084" lon="18.31594">
        <time>2025-04-14T17:49:00Z</time>
      </trkpt>
      <trkpt lat="67.85124" lon="18.31584">
        <time>2025-04-15T09:19:00Z</time>
      </trkpt>
      <trkpt lat="67.85127" lon="18.3159">
        <time>2025-04-15T09:19:00Z</time>
      </trkpt>
      <trkpt lat="67.94605" lon="18.28236">
        <time>2025-04-15T13:19:00Z</time>
      </trkpt>
      <trkpt lat="68.01814" lon="18.2443">
        <time>2025-04-15T17:19:00Z</time>
      </trkpt>
      <trkpt lat="68.05173" lon="18.24194">
        <time>2025-04-15T18:55:00Z</time>
      </trkpt>
      <trkpt lat="68.05162" lon="18.2417">
        <time>2025-04-16T08:02:00Z</time>
      </trkpt>
      <trkpt lat="68.15901" lon="18.44872">
        <time>2025-04-16T12:02:00Z</time>
      </trkpt>
      <trkpt lat="68.28251" lon="18.58522">
        <time>2025-04-16T16:02:00Z</time>
      </trkpt>
      <trkpt lat="68.28604" lon="18.58998">
        <time>2025-04-16T16:25:00Z</time>
      </trkpt>
      <trkpt lat="68.28629" lon="18.59124">
        <time>2025-04-17T07:41:00Z</time>
      </trkpt>
      <trkpt lat="68.35837" lon="18.78361">
        <time>2025-04-17T11:28:00Z</time>
      </trkpt>
      <trkpt lat="68.35837" lon="18.78361">
        <time>2025-04-17T11:28:00Z</time>
      </trkpt>
      <trkpt lat="68.35842" lon="18.78383">
        <time>2025-04-17T11:29:00Z</time>
      </trkpt>
      <trkpt lat="68.35842" lon="18.78383">
        <time>2025-04-17T11:29:00Z</time>
      </trkpt>
      <trkpt lat="68.3583" lon="18.78456">
        <time>2025-04-19T07:46:00Z</time>
      </trkpt>
      <trkpt lat="68.42964" lon="18.84844">
        <time>2025-04-19T10:09:00Z</time>
      </trkpt>
      <trkpt lat="68.46348" lon="18.82436">
        <time>2025-04-19T12:09:00Z</time>
      </trkpt>
      <trkpt lat="68.47789" lon="18.82421">
        <time>2025-04-19T14:09:00Z</time>
      </trkpt>
      <trkpt lat="68.47939" lon="18.82655">
        <time>2025-04-19T16:09:00Z</time>
      </trkpt>
      <trkpt lat="68.4815" lon="18.83423">
        <time>2025-04-19T18:09:00Z</time>
      </trkpt>
      <trkpt lat="68.52013" lon="18.77806">
        <time>2025-04-19T20:09:00Z</time>
      </trkpt>
      <trkpt lat="68.56318" lon="18.80475">
        <time>2025-04-19T22:09:00Z</time>
      </trkpt>
      <trkpt lat="68.62001" lon="18.88457">
        <time>2025-04-20T00:09:00Z</time>
      </trkpt>
      <trkpt lat="68.66292" lon="18.88856">
        <time>2025-04-20T02:09:00Z</time>
      </trkpt>
      <trkpt lat="68.66332" lon="18.89067">
        <time>2025-04-20T02:14:00Z</time>
      </trkpt>
      <trkpt lat="68.66334" lon="18.89056">
        <time>2025-04-20T02:14:00Z</time>
      </trkpt>
      <trkpt lat="68.66336" lon="18.89043">
        <time>2025-04-20T10:33:00Z</time>
      </trkpt>
      <trkpt lat="68.66478" lon="19.13612">
        <time>2025-04-20T14:33:00Z</time>
      </trkpt>
      <trkpt lat="68.67449" lon="19.34623">
        <time>2025-04-20T18:33:00Z</time>
      </trkpt>
      <trkpt lat="68.67145" lon="19.48612">
        <time>2025-04-20T20:19:00Z</time>
      </trkpt>
      <trkpt lat="68.67235" lon="19.48579">
        <time>2025-04-21T08:00:00Z</time>
      </trkpt>
      <trkpt lat="68.6476" lon="19.62256">
        <time>2025-04-21T10:00:00Z</time>
      </trkpt>
      <trkpt lat="68.62344" lon="19.74185">
        <time>2025-04-21T12:00:00Z</time>
      </trkpt>
      <trkpt lat="68.62498" lon="19.86845">
        <time>2025-04-21T14:00:00Z</time>
      </trkpt>
      <trkpt lat="68.65434" lon="19.8569">
        <time>2025-04-21T16:00:00Z</time>
      </trkpt>
      <trkpt lat="68.67435" lon="19.82515">
        <time>2025-04-21T16:58:00Z</time>
      </trkpt>
      <trkpt lat="68.67443" lon="19.82455">
        <time>2025-04-21T16:58:00Z</time>
      </trkpt>
      <trkpt lat="68.67576" lon="19.82122">
        <time>2025-04-22T07:15:00Z</time>
      </trkpt>
      <trkpt lat="68.67565" lon="19.82141">
        <time>2025-04-22T07:16:00Z</time>
      </trkpt>
      <trkpt lat="68.70861" lon="19.79219">
        <time>2025-04-22T09:16:00Z</time>
      </trkpt>
      <trkpt lat="68.72499" lon="19.86072">
        <time>2025-04-22T11:16:00Z</time>
      </trkpt>
      <trkpt lat="68.74934" lon="19.90847">
        <time>2025-04-22T13:16:00Z</time>
      </trkpt>
      <trkpt lat="68.77615" lon="19.98477">
        <time>2025-04-22T15:16:00Z</time>
      </trkpt>
      <trkpt lat="68.81873" lon="20.10854">
        <time>2025-04-22T17:16:00Z</time>
      </trkpt>
      <trkpt lat="68.81887" lon="20.1094">
        <time>2025-04-22T17:18:00Z</time>
      </trkpt>
      <trkpt lat="68.81908" lon="20.10968">
        <time>2025-04-23T06:45:00Z</time>
      </trkpt>
      <trkpt lat="68.80588" lon="20.28724">
        <time>2025-04-23T08:45:00Z</time>
      </trkpt>
      <trkpt lat="68.86061" lon="20.26851">
        <time>2025-04-23T10:45:00Z</time>
      </trkpt>
      <trkpt lat="68.91627" lon="20.25228">
        <time>2025-04-23T12:45:00Z</time>
      </trkpt>
      <trkpt lat="68.94486" lon="20.33633">
        <time>2025-04-23T14:45:00Z</time>
      </trkpt>
      <trkpt lat="68.98395" lon="20.33479">
        <time>2025-04-23T16:45:00Z</time>
      </trkpt>
      <trkpt lat="69.0353" lon="20.27048">
        <time>2025-04-23T18:45:00Z</time>
      </trkpt>
      <trkpt lat="69.05283" lon="20.25374">
        <time>2025-04-23T19:29:00Z</time>
      </trkpt>
      <trkpt lat="69.05296" lon="20.25387">
        <time>2025-04-24T06:04:00Z</time>
      </trkpt>
      <trkpt lat="69.05294" lon="20.25389">
        <time>2025-04-24T06:04:00Z</time>
      </trkpt>
      <trkpt lat="69.05549" lon="20.27293">
        <time>2025-04-24T06:34:00Z</time>
      </trkpt>
      <trkpt lat="69.06018" lon="20.31142">
        <time>2025-04-24T07:04:00Z</time>
      </trkpt>
      <trkpt lat="69.0612" lon="20.34916">
        <time>2025-04-24T07:34:00Z</time>
      </trkpt>
      <trkpt lat="69.05834" lon="20.37586">
        <time>2025-04-24T08:04:00Z</time>
      </trkpt>
      <trkpt lat="69.06231" lon="20.41832">
        <time>2025-04-24T08:34:00Z</time>
      </trkpt>
      <trkpt lat="69.06316" lon="20.45491">
        <time>2025-04-24T09:04:00Z</time>
      </trkpt>
      <trkpt lat="69.06465" lon="20.48469">
        <time>2025-04-24T09:30:00Z</time>
      </trkpt>
      <trkpt lat="69.06327" lon="20.51619">
        <time>2025-04-24T09:50:00Z</time>
      </trkpt>
      <trkpt lat="69.06199" lon="20.53346">
        <time>2025-04-24T10:00:00Z</time>
      </trkpt>
      <trkpt lat="69.06" lon="20.54846">
        <time>2025-04-24T10:10:00Z</time>
      </trkpt>
      <trkpt lat="69.05998" lon="20.54851">
        <time>2025-04-24T10:16:00Z</time>
      </trkpt>
      <trkpt lat="69.05999" lon="20.54836">
        <time>2025-04-24T10:20:00Z</time>
      </trkpt>
      <trkpt lat="69.05999" lon="20.55138">
        <time>2025-04-24T10:40:00Z</time>
      </trkpt>
      <trkpt lat="69.05" lon="20.58616">
        <time>2025-04-24T11:10:00Z</time>
      </trkpt>
      <trkpt lat="69.04638" lon="20.62981">
        <time>2025-04-24T11:40:00Z</time>
      </trkpt>
      <trkpt lat="69.04631" lon="20.68796">
        <time>2025-04-24T12:10:00Z</time>
      </trkpt>
      <trkpt lat="69.04497" lon="20.73562">
        <time>2025-04-24T12:40:00Z</time>
      </trkpt>
      <trkpt lat="69.045" lon="20.73888">
        <time>2025-04-24T12:41:00Z</time>
      </trkpt>
    </trkseg>
  </trk>
</gpx>
