<?xml version="1.0" encoding="utf-8"?>
<gpx xmlns="http://www.topografix.com/GPX/1/1" version="1.1" creator="VitaBandet">
  <metadata>
    <name>Abisko to Paltsa - traditional - Kall pa tur</name>
    <desc>Kall pa tur traditional SE finish from Abisko until rejoin with 2027.GPX at STF Paltastugan. ~147 km. Does not visit Lappjord/Altevass/Gaskas (Norway DNT).</desc>
  </metadata>
  <wpt lat="68.35000000" lon="18.83000004">
    <name>Abisko</name>
  </wpt>
  <wpt lat="68.97460325" lon="20.36861236">
    <name>Paltastugan (rejoin)</name>
  </wpt>
  <trk>
    <name>Abisko-Paltsa traditional Kall pa tur</name>
    <trkseg>
      <trkpt lat="68.36533000" lon="18.81299000"/>
      <trkpt lat="68.37108000" lon="18.82889000"/>
      <trkpt lat="68.37156000" lon="18.85359000"/>
      <trkpt lat="68.37205000" lon="18.87798000"/>
      <trkpt lat="68.37242000" lon="18.90247000"/>
      <trkpt lat="68.37268000" lon="18.92644000"/>
      <trkpt lat="68.37280000" lon="18.95051000"/>
      <trkpt lat="68.37278000" lon="18.97495000"/>
      <trkpt lat="68.37251000" lon="18.99995000"/>
      <trkpt lat="68.37196000" lon="19.02467000"/>
      <trkpt lat="68.37139000" lon="19.04937000"/>
      <trkpt lat="68.37091000" lon="19.06881000"/>
      <trkpt lat="68.37060000" lon="19.07248000"/>
      <trkpt lat="68.36803000" lon="19.09213000"/>
      <trkpt lat="68.36359000" lon="19.11494000"/>
      <trkpt lat="68.35927000" lon="19.13904000"/>
      <trkpt lat="68.35588000" lon="19.16030000"/>
      <trkpt lat="68.35211000" lon="19.18421000"/>
      <trkpt lat="68.34809000" lon="19.20798000"/>
      <trkpt lat="68.34729000" lon="19.21264000"/>
      <trkpt lat="68.34336000" lon="19.23693000"/>
      <trkpt lat="68.34011000" lon="19.25723000"/>
      <trkpt lat="68.33625000" lon="19.28171000"/>
      <trkpt lat="68.33230000" lon="19.30430000"/>
      <trkpt lat="68.33231000" lon="19.30426000"/>
      <trkpt lat="68.33115000" lon="19.31061000"/>
      <trkpt lat="68.32725000" lon="19.33297000"/>
      <trkpt lat="68.32352000" lon="19.35540000"/>
      <trkpt lat="68.32015000" lon="19.37700000"/>
      <trkpt lat="68.31720000" lon="19.39850000"/>
      <trkpt lat="68.31430000" lon="19.42028000"/>
      <trkpt lat="68.31149000" lon="19.44166000"/>
      <trkpt lat="68.30844000" lon="19.46313000"/>
      <trkpt lat="68.30586000" lon="19.48541000"/>
      <trkpt lat="68.30366000" lon="19.50755000"/>
      <trkpt lat="68.30186000" lon="19.53034000"/>
      <trkpt lat="68.30085000" lon="19.55315000"/>
      <trkpt lat="68.30075000" lon="19.55566000"/>
      <trkpt lat="68.30088000" lon="19.56673000"/>
      <trkpt lat="68.30087000" lon="19.59390000"/>
      <trkpt lat="68.30168000" lon="19.62008000"/>
      <trkpt lat="68.30262000" lon="19.64537000"/>
      <trkpt lat="68.30364000" lon="19.67130000"/>
      <trkpt lat="68.30432000" lon="19.69983000"/>
      <trkpt lat="68.30502000" lon="19.72897000"/>
      <trkpt lat="68.30613000" lon="19.74824000"/>
      <trkpt lat="68.30982000" lon="19.77612000"/>
      <trkpt lat="68.31299000" lon="19.79506000"/>
      <trkpt lat="68.31399000" lon="19.82090000"/>
      <trkpt lat="68.31317000" lon="19.84487000"/>
      <trkpt lat="68.30645000" lon="19.85549000"/>
      <trkpt lat="68.29882000" lon="19.86542000"/>
      <trkpt lat="68.29330000" lon="19.88053000"/>
      <trkpt lat="68.29223000" lon="19.89244000"/>
      <trkpt lat="68.29520000" lon="19.89780000"/>
      <trkpt lat="68.30060000" lon="19.91585000"/>
      <trkpt lat="68.30312000" lon="19.92282000"/>
      <trkpt lat="68.30308000" lon="19.92267000"/>
      <trkpt lat="68.30321000" lon="19.92276000"/>
      <trkpt lat="68.30863000" lon="19.93606000"/>
      <trkpt lat="68.31713000" lon="19.93804000"/>
      <trkpt lat="68.32265000" lon="19.94673000"/>
      <trkpt lat="68.32750000" lon="19.95213000"/>
      <trkpt lat="68.33223000" lon="19.95627000"/>
      <trkpt lat="68.33712000" lon="19.96183000"/>
      <trkpt lat="68.34186000" lon="19.96387000"/>
      <trkpt lat="68.34716000" lon="19.97119000"/>
      <trkpt lat="68.34898000" lon="19.97366000"/>
      <trkpt lat="68.35321000" lon="19.98739000"/>
      <trkpt lat="68.35778000" lon="20.00981000"/>
      <trkpt lat="68.36007000" lon="20.02013000"/>
      <trkpt lat="68.36502000" lon="20.03015000"/>
      <trkpt lat="68.36824000" lon="20.04470000"/>
      <trkpt lat="68.37140000" lon="20.05655000"/>
      <trkpt lat="68.37281000" lon="20.06554000"/>
      <trkpt lat="68.37447000" lon="20.07474000"/>
      <trkpt lat="68.38081000" lon="20.07639000"/>
      <trkpt lat="68.38702000" lon="20.07073000"/>
      <trkpt lat="68.39280000" lon="20.06232000"/>
      <trkpt lat="68.39822000" lon="20.06378000"/>
      <trkpt lat="68.40346000" lon="20.06923000"/>
      <trkpt lat="68.40847000" lon="20.07717000"/>
      <trkpt lat="68.41087000" lon="20.07948000"/>
      <trkpt lat="68.41094000" lon="20.07944000"/>
      <trkpt lat="68.41322000" lon="20.08200000"/>
      <trkpt lat="68.41721000" lon="20.09513000"/>
      <trkpt lat="68.42053000" lon="20.11813000"/>
      <trkpt lat="68.42228000" lon="20.14208000"/>
      <trkpt lat="68.42572000" lon="20.15705000"/>
      <trkpt lat="68.43736000" lon="20.18280000"/>
      <trkpt lat="68.44789000" lon="20.19759000"/>
      <trkpt lat="68.45577000" lon="20.20694000"/>
      <trkpt lat="68.46302000" lon="20.21568000"/>
      <trkpt lat="68.47071000" lon="20.22415000"/>
      <trkpt lat="68.47526000" lon="20.22990000"/>
      <trkpt lat="68.47527000" lon="20.22988000"/>
      <trkpt lat="68.47541000" lon="20.23012000"/>
      <trkpt lat="68.47553000" lon="20.23003000"/>
      <trkpt lat="68.47582000" lon="20.22984000"/>
      <trkpt lat="68.48010000" lon="20.23574000"/>
      <trkpt lat="68.48489000" lon="20.24874000"/>
      <trkpt lat="68.49081000" lon="20.26763000"/>
      <trkpt lat="68.49659000" lon="20.28117000"/>
      <trkpt lat="68.50315000" lon="20.29129000"/>
      <trkpt lat="68.50986000" lon="20.29144000"/>
      <trkpt lat="68.51581000" lon="20.29505000"/>
      <trkpt lat="68.52253000" lon="20.29432000"/>
      <trkpt lat="68.52860000" lon="20.29348000"/>
      <trkpt lat="68.53246000" lon="20.29301000"/>
      <trkpt lat="68.53750000" lon="20.29252000"/>
      <trkpt lat="68.54307000" lon="20.29498000"/>
      <trkpt lat="68.54933000" lon="20.30434000"/>
      <trkpt lat="68.55071000" lon="20.31211000"/>
      <trkpt lat="68.55638000" lon="20.32251000"/>
      <trkpt lat="68.56214000" lon="20.33670000"/>
      <trkpt lat="68.56520000" lon="20.34301000"/>
      <trkpt lat="68.57147000" lon="20.35706000"/>
      <trkpt lat="68.57549000" lon="20.36434000"/>
      <trkpt lat="68.57705000" lon="20.37062000"/>
      <trkpt lat="68.58056000" lon="20.38504000"/>
      <trkpt lat="68.58494000" lon="20.39697000"/>
      <trkpt lat="68.58918000" lon="20.40354000"/>
      <trkpt lat="68.59432000" lon="20.41371000"/>
      <trkpt lat="68.59551000" lon="20.41631000"/>
      <trkpt lat="68.59772000" lon="20.41828000"/>
      <trkpt lat="68.60224000" lon="20.41650000"/>
      <trkpt lat="68.60635000" lon="20.41264000"/>
      <trkpt lat="68.61043000" lon="20.41418000"/>
      <trkpt lat="68.61631000" lon="20.42088000"/>
      <trkpt lat="68.62129000" lon="20.42251000"/>
      <trkpt lat="68.62812000" lon="20.42924000"/>
      <trkpt lat="68.63359000" lon="20.43274000"/>
      <trkpt lat="68.63981000" lon="20.43414000"/>
      <trkpt lat="68.64405000" lon="20.43605000"/>
      <trkpt lat="68.65056000" lon="20.44384000"/>
      <trkpt lat="68.65480000" lon="20.44929000"/>
      <trkpt lat="68.66059000" lon="20.45643000"/>
      <trkpt lat="68.66603000" lon="20.46261000"/>
      <trkpt lat="68.66634000" lon="20.46345000"/>
      <trkpt lat="68.66619000" lon="20.46334000"/>
      <trkpt lat="68.67369000" lon="20.46935000"/>
      <trkpt lat="68.68110000" lon="20.47888000"/>
      <trkpt lat="68.68815000" lon="20.49074000"/>
      <trkpt lat="68.69612000" lon="20.50066000"/>
      <trkpt lat="68.70315000" lon="20.51162000"/>
      <trkpt lat="68.71044000" lon="20.51692000"/>
      <trkpt lat="68.71769000" lon="20.51248000"/>
      <trkpt lat="68.72401000" lon="20.52400000"/>
      <trkpt lat="68.72666000" lon="20.53898000"/>
      <trkpt lat="68.73097000" lon="20.55876000"/>
      <trkpt lat="68.73670000" lon="20.57250000"/>
      <trkpt lat="68.73985000" lon="20.58904000"/>
      <trkpt lat="68.74663000" lon="20.60067000"/>
      <trkpt lat="68.74836000" lon="20.61346000"/>
      <trkpt lat="68.75396000" lon="20.62211000"/>
      <trkpt lat="68.75974000" lon="20.62616000"/>
      <trkpt lat="68.76385000" lon="20.63751000"/>
      <trkpt lat="68.76542000" lon="20.64225000"/>
      <trkpt lat="68.76864000" lon="20.65159000"/>
      <trkpt lat="68.77127000" lon="20.65828000"/>
      <trkpt lat="68.77609000" lon="20.67652000"/>
      <trkpt lat="68.78115000" lon="20.69504000"/>
      <trkpt lat="68.78533000" lon="20.70525000"/>
      <trkpt lat="68.78975000" lon="20.71794000"/>
      <trkpt lat="68.79221000" lon="20.72382000"/>
      <trkpt lat="68.79603000" lon="20.73010000"/>
      <trkpt lat="68.80289000" lon="20.73991000"/>
      <trkpt lat="68.80829000" lon="20.73965000"/>
      <trkpt lat="68.81505000" lon="20.73811000"/>
      <trkpt lat="68.82106000" lon="20.73783000"/>
      <trkpt lat="68.82731000" lon="20.74165000"/>
      <trkpt lat="68.83192000" lon="20.73731000"/>
      <trkpt lat="68.83571000" lon="20.73536000"/>
      <trkpt lat="68.84062000" lon="20.73605000"/>
      <trkpt lat="68.85212000" lon="20.72879000"/>
      <trkpt lat="68.85489000" lon="20.71761000"/>
      <trkpt lat="68.85489000" lon="20.71759000"/>
      <trkpt lat="68.85491000" lon="20.71682000"/>
      <trkpt lat="68.85505000" lon="20.71650000"/>
      <trkpt lat="68.85499000" lon="20.71676000"/>
      <trkpt lat="68.85737000" lon="20.70144000"/>
      <trkpt lat="68.85863000" lon="20.68603000"/>
      <trkpt lat="68.86024000" lon="20.66751000"/>
      <trkpt lat="68.86221000" lon="20.65249000"/>
      <trkpt lat="68.86394000" lon="20.63734000"/>
      <trkpt lat="68.86579000" lon="20.62505000"/>
      <trkpt lat="68.86807000" lon="20.60975000"/>
      <trkpt lat="68.87171000" lon="20.59198000"/>
      <trkpt lat="68.87441000" lon="20.57550000"/>
      <trkpt lat="68.87742000" lon="20.55786000"/>
      <trkpt lat="68.87775000" lon="20.55492000"/>
      <trkpt lat="68.87701000" lon="20.53943000"/>
      <trkpt lat="68.87629000" lon="20.52967000"/>
      <trkpt lat="68.87699000" lon="20.51164000"/>
      <trkpt lat="68.87992000" lon="20.49677000"/>
      <trkpt lat="68.88324000" lon="20.47958000"/>
      <trkpt lat="68.88806000" lon="20.46963000"/>
      <trkpt lat="68.89434000" lon="20.45800000"/>
      <trkpt lat="68.89998000" lon="20.44173000"/>
      <trkpt lat="68.90183000" lon="20.43392000"/>
      <trkpt lat="68.90807000" lon="20.41907000"/>
      <trkpt lat="68.91506000" lon="20.40506000"/>
      <trkpt lat="68.92021000" lon="20.39041000"/>
      <trkpt lat="68.92595000" lon="20.38238000"/>
      <trkpt lat="68.93215000" lon="20.37777000"/>
      <trkpt lat="68.93335000" lon="20.37764000"/>
      <trkpt lat="68.93751000" lon="20.37607000"/>
      <trkpt lat="68.94335000" lon="20.36773000"/>
      <trkpt lat="68.94764000" lon="20.35906000"/>
      <trkpt lat="68.95440000" lon="20.35873000"/>
      <trkpt lat="68.96646000" lon="20.35436000"/>
      <trkpt lat="68.97268000" lon="20.35955000"/>
      <trkpt lat="68.97415000" lon="20.36876000"/>
    </trkseg>
  </trk>
</gpx>
