<?xml version="1.0" encoding="UTF-8"?>
<gpx xmlns="http://www.topografix.com/GPX/1/1" version="1.1" creator="VitaBandet">
  <metadata>
    <name>Abisko→finish · Noah Lund Bovin (traditional)</name>
  </metadata>
  <wpt lat="68.36176" lon="18.81749">
    <name>Abisko</name>
  </wpt>
  <wpt lat="69.05778" lon="20.54091">
    <name>Treriksröset</name>
  </wpt>
  <wpt lat="69.05778" lon="20.54091">
    <name>Pältsa</name>
  </wpt>
  <trk>
    <name>Abisko→finish · Noah Lund Bovin (traditional)</name>
    <trkseg>
      <trkpt lat="68.36176" lon="18.81749">
        <time>2026-04-10T08:11:00Z</time>
      </trkpt>
      <trkpt lat="68.36288" lon="18.83912">
        <time>2026-04-10T08:21:00Z</time>
      </trkpt>
      <trkpt lat="68.36403" lon="18.85569">
        <time>2026-04-10T08:31:00Z</time>
      </trkpt>
      <trkpt lat="68.36539" lon="18.87629">
        <time>2026-04-10T08:41:00Z</time>
      </trkpt>
      <trkpt lat="68.36758" lon="18.89279">
        <time>2026-04-10T08:51:00Z</time>
      </trkpt>
      <trkpt lat="68.3698" lon="18.91285">
        <time>2026-04-10T09:01:00Z</time>
      </trkpt>
      <trkpt lat="68.37062" lon="18.92727">
        <time>2026-04-10T09:11:00Z</time>
      </trkpt>
      <trkpt lat="68.37053" lon="18.94579">
        <time>2026-04-10T09:21:00Z</time>
      </trkpt>
      <trkpt lat="68.37073" lon="18.96678">
        <time>2026-04-10T09:31:00Z</time>
      </trkpt>
      <trkpt lat="68.37087" lon="18.98695">
        <time>2026-04-10T09:41:00Z</time>
      </trkpt>
      <trkpt lat="68.37088" lon="18.99471">
        <time>2026-04-10T09:51:00Z</time>
      </trkpt>
      <trkpt lat="68.37069" lon="19.01521">
        <time>2026-04-10T10:01:00Z</time>
      </trkpt>
      <trkpt lat="68.37029" lon="19.03606">
        <time>2026-04-10T10:11:00Z</time>
      </trkpt>
      <trkpt lat="68.37021" lon="19.05701">
        <time>2026-04-10T10:21:00Z</time>
      </trkpt>
      <trkpt lat="68.37002" lon="19.07831">
        <time>2026-04-10T10:31:00Z</time>
      </trkpt>
      <trkpt lat="68.36899" lon="19.08915">
        <time>2026-04-10T10:41:00Z</time>
      </trkpt>
      <trkpt lat="68.36709" lon="19.10305">
        <time>2026-04-10T10:51:00Z</time>
      </trkpt>
      <trkpt lat="68.36431" lon="19.12125">
        <time>2026-04-10T11:01:00Z</time>
      </trkpt>
      <trkpt lat="68.36121" lon="19.14103">
        <time>2026-04-10T11:11:00Z</time>
      </trkpt>
      <trkpt lat="68.35801" lon="19.16103">
        <time>2026-04-10T11:21:00Z</time>
      </trkpt>
      <trkpt lat="68.35563" lon="19.17631">
        <time>2026-04-10T11:31:00Z</time>
      </trkpt>
      <trkpt lat="68.35279" lon="19.19601">
        <time>2026-04-10T11:41:00Z</time>
      </trkpt>
      <trkpt lat="68.3497" lon="19.21515">
        <time>2026-04-10T11:51:00Z</time>
      </trkpt>
      <trkpt lat="68.34874" lon="19.22075">
        <time>2026-04-10T12:01:00Z</time>
      </trkpt>
      <trkpt lat="68.34592" lon="19.24015">
        <time>2026-04-10T12:11:00Z</time>
      </trkpt>
      <trkpt lat="68.34346" lon="19.25993">
        <time>2026-04-10T12:21:00Z</time>
      </trkpt>
      <trkpt lat="68.34081" lon="19.27965">
        <time>2026-04-10T12:31:00Z</time>
      </trkpt>
      <trkpt lat="68.33845" lon="19.29684">
        <time>2026-04-10T12:41:00Z</time>
      </trkpt>
      <trkpt lat="68.33593" lon="19.31364">
        <time>2026-04-10T12:51:00Z</time>
      </trkpt>
      <trkpt lat="68.33393" lon="19.32669">
        <time>2026-04-10T13:01:00Z</time>
      </trkpt>
      <trkpt lat="68.33116" lon="19.34585">
        <time>2026-04-10T13:11:00Z</time>
      </trkpt>
      <trkpt lat="68.32841" lon="19.36417">
        <time>2026-04-10T13:21:00Z</time>
      </trkpt>
      <trkpt lat="68.32569" lon="19.38293">
        <time>2026-04-10T13:31:00Z</time>
      </trkpt>
      <trkpt lat="68.3234" lon="19.39788">
        <time>2026-04-10T13:41:00Z</time>
      </trkpt>
      <trkpt lat="68.32342" lon="19.39784">
        <time>2026-04-10T13:51:00Z</time>
      </trkpt>
      <trkpt lat="68.32197" lon="19.40569">
        <time>2026-04-10T14:11:00Z</time>
      </trkpt>
      <trkpt lat="68.31928" lon="19.42039">
        <time>2026-04-10T14:21:00Z</time>
      </trkpt>
      <trkpt lat="68.31654" lon="19.43887">
        <time>2026-04-10T14:31:00Z</time>
      </trkpt>
      <trkpt lat="68.31412" lon="19.45631">
        <time>2026-04-10T14:41:00Z</time>
      </trkpt>
      <trkpt lat="68.31265" lon="19.46695">
        <time>2026-04-10T14:51:00Z</time>
      </trkpt>
      <trkpt lat="68.31" lon="19.48554">
        <time>2026-04-10T15:01:00Z</time>
      </trkpt>
      <trkpt lat="68.30783" lon="19.49983">
        <time>2026-04-10T15:11:00Z</time>
      </trkpt>
      <trkpt lat="68.3056" lon="19.51626">
        <time>2026-04-10T15:21:00Z</time>
      </trkpt>
      <trkpt lat="68.30341" lon="19.53397">
        <time>2026-04-10T15:31:00Z</time>
      </trkpt>
      <trkpt lat="68.30144" lon="19.5515">
        <time>2026-04-10T15:41:00Z</time>
      </trkpt>
      <trkpt lat="68.30089" lon="19.56459">
        <time>2026-04-10T15:51:00Z</time>
      </trkpt>
      <trkpt lat="68.30076" lon="19.58396">
        <time>2026-04-10T16:01:00Z</time>
      </trkpt>
      <trkpt lat="68.30095" lon="19.60463">
        <time>2026-04-10T16:11:00Z</time>
      </trkpt>
      <trkpt lat="68.3012" lon="19.61804">
        <time>2026-04-10T16:21:00Z</time>
      </trkpt>
      <trkpt lat="68.3017" lon="19.63872">
        <time>2026-04-10T16:31:00Z</time>
      </trkpt>
      <trkpt lat="68.30214" lon="19.65477">
        <time>2026-04-10T16:41:00Z</time>
      </trkpt>
      <trkpt lat="68.30213" lon="19.65471">
        <time>2026-04-10T16:51:00Z</time>
      </trkpt>
      <trkpt lat="68.3026" lon="19.67142">
        <time>2026-04-10T17:01:00Z</time>
      </trkpt>
      <trkpt lat="68.30289" lon="19.68368">
        <time>2026-04-10T17:11:00Z</time>
      </trkpt>
      <trkpt lat="68.30335" lon="19.70327">
        <time>2026-04-10T17:21:00Z</time>
      </trkpt>
      <trkpt lat="68.30414" lon="19.72333">
        <time>2026-04-10T17:31:00Z</time>
      </trkpt>
      <trkpt lat="68.30497" lon="19.74116">
        <time>2026-04-10T17:41:00Z</time>
      </trkpt>
      <trkpt lat="68.30645" lon="19.75985">
        <time>2026-04-10T17:51:00Z</time>
      </trkpt>
      <trkpt lat="68.30942" lon="19.77839">
        <time>2026-04-10T18:01:00Z</time>
      </trkpt>
      <trkpt lat="68.31332" lon="19.79521">
        <time>2026-04-10T18:11:00Z</time>
      </trkpt>
      <trkpt lat="68.31422" lon="19.81457">
        <time>2026-04-10T18:21:00Z</time>
      </trkpt>
      <trkpt lat="68.31454" lon="19.81972">
        <time>2026-04-10T18:31:00Z</time>
      </trkpt>
      <trkpt lat="68.31454" lon="19.81989">
        <time>2026-04-10T18:41:00Z</time>
      </trkpt>
      <trkpt lat="68.31455" lon="19.81995">
        <time>2026-04-10T19:23:00Z</time>
      </trkpt>
      <trkpt lat="68.31448" lon="19.81946">
        <time>2026-04-11T08:16:00Z</time>
      </trkpt>
      <trkpt lat="68.31463" lon="19.83622">
        <time>2026-04-11T08:26:00Z</time>
      </trkpt>
      <trkpt lat="68.31039" lon="19.84939">
        <time>2026-04-11T08:36:00Z</time>
      </trkpt>
      <trkpt lat="68.30468" lon="19.85478">
        <time>2026-04-11T08:46:00Z</time>
      </trkpt>
      <trkpt lat="68.29905" lon="19.86491">
        <time>2026-04-11T08:56:00Z</time>
      </trkpt>
      <trkpt lat="68.29906" lon="19.86491">
        <time>2026-04-11T09:06:00Z</time>
      </trkpt>
      <trkpt lat="68.29544" lon="19.87587">
        <time>2026-04-11T09:16:00Z</time>
      </trkpt>
      <trkpt lat="68.29253" lon="19.88542">
        <time>2026-04-11T09:26:00Z</time>
      </trkpt>
      <trkpt lat="68.29438" lon="19.89385">
        <time>2026-04-11T09:36:00Z</time>
      </trkpt>
      <trkpt lat="68.29771" lon="19.90576">
        <time>2026-04-11T09:46:00Z</time>
      </trkpt>
      <trkpt lat="68.29965" lon="19.91184">
        <time>2026-04-11T09:56:00Z</time>
      </trkpt>
      <trkpt lat="68.30292" lon="19.92098">
        <time>2026-04-11T10:06:00Z</time>
      </trkpt>
      <trkpt lat="68.30661" lon="19.93357">
        <time>2026-04-11T10:16:00Z</time>
      </trkpt>
      <trkpt lat="68.31102" lon="19.93572">
        <time>2026-04-11T10:26:00Z</time>
      </trkpt>
      <trkpt lat="68.31776" lon="19.93782">
        <time>2026-04-11T10:36:00Z</time>
      </trkpt>
      <trkpt lat="68.32223" lon="19.94632">
        <time>2026-04-11T10:46:00Z</time>
      </trkpt>
      <trkpt lat="68.3256" lon="19.95057">
        <time>2026-04-11T10:56:00Z</time>
      </trkpt>
      <trkpt lat="68.32942" lon="19.95224">
        <time>2026-04-11T11:06:00Z</time>
      </trkpt>
      <trkpt lat="68.3333" lon="19.95786">
        <time>2026-04-11T11:16:00Z</time>
      </trkpt>
      <trkpt lat="68.33619" lon="19.96117">
        <time>2026-04-11T11:26:00Z</time>
      </trkpt>
      <trkpt lat="68.34079" lon="19.96301">
        <time>2026-04-11T11:36:00Z</time>
      </trkpt>
      <trkpt lat="68.34416" lon="19.96578">
        <time>2026-04-11T11:46:00Z</time>
      </trkpt>
      <trkpt lat="68.34885" lon="19.9737">
        <time>2026-04-11T11:56:00Z</time>
      </trkpt>
      <trkpt lat="68.35322" lon="19.98782">
        <time>2026-04-11T12:06:00Z</time>
      </trkpt>
      <trkpt lat="68.35625" lon="20.00301">
        <time>2026-04-11T12:16:00Z</time>
      </trkpt>
      <trkpt lat="68.35928" lon="20.01462">
        <time>2026-04-11T12:26:00Z</time>
      </trkpt>
      <trkpt lat="68.36118" lon="20.02346">
        <time>2026-04-11T12:36:00Z</time>
      </trkpt>
      <trkpt lat="68.36513" lon="20.03181">
        <time>2026-04-11T12:46:00Z</time>
      </trkpt>
      <trkpt lat="68.36808" lon="20.04363">
        <time>2026-04-11T12:56:00Z</time>
      </trkpt>
      <trkpt lat="68.36822" lon="20.04638">
        <time>2026-04-11T13:06:00Z</time>
      </trkpt>
      <trkpt lat="68.36936" lon="20.05082">
        <time>2026-04-11T13:16:00Z</time>
      </trkpt>
      <trkpt lat="68.3726" lon="20.0615">
        <time>2026-04-11T13:26:00Z</time>
      </trkpt>
      <trkpt lat="68.37399" lon="20.07382">
        <time>2026-04-11T13:36:00Z</time>
      </trkpt>
      <trkpt lat="68.37948" lon="20.07762">
        <time>2026-04-11T13:46:00Z</time>
      </trkpt>
      <trkpt lat="68.38504" lon="20.07238">
        <time>2026-04-11T13:56:00Z</time>
      </trkpt>
      <trkpt lat="68.38988" lon="20.0668">
        <time>2026-04-11T14:06:00Z</time>
      </trkpt>
      <trkpt lat="68.39368" lon="20.06219">
        <time>2026-04-11T14:16:00Z</time>
      </trkpt>
      <trkpt lat="68.39692" lon="20.06266">
        <time>2026-04-11T14:26:00Z</time>
      </trkpt>
      <trkpt lat="68.4011" lon="20.06815">
        <time>2026-04-11T14:36:00Z</time>
      </trkpt>
      <trkpt lat="68.40602" lon="20.073">
        <time>2026-04-11T14:46:00Z</time>
      </trkpt>
      <trkpt lat="68.41032" lon="20.07869">
        <time>2026-04-11T14:56:00Z</time>
      </trkpt>
      <trkpt lat="68.41425" lon="20.08406">
        <time>2026-04-11T15:06:00Z</time>
      </trkpt>
      <trkpt lat="68.41695" lon="20.09386">
        <time>2026-04-11T15:16:00Z</time>
      </trkpt>
      <trkpt lat="68.41982" lon="20.10845">
        <time>2026-04-11T15:26:00Z</time>
      </trkpt>
      <trkpt lat="68.4213" lon="20.12534">
        <time>2026-04-11T15:36:00Z</time>
      </trkpt>
      <trkpt lat="68.42231" lon="20.13924">
        <time>2026-04-11T15:46:00Z</time>
      </trkpt>
      <trkpt lat="68.42497" lon="20.15311">
        <time>2026-04-11T15:56:00Z</time>
      </trkpt>
      <trkpt lat="68.42674" lon="20.1586">
        <time>2026-04-11T16:06:00Z</time>
      </trkpt>
      <trkpt lat="68.43323" lon="20.17124">
        <time>2026-04-11T16:16:00Z</time>
      </trkpt>
      <trkpt lat="68.43923" lon="20.18752">
        <time>2026-04-11T16:26:00Z</time>
      </trkpt>
      <trkpt lat="68.44267" lon="20.19246">
        <time>2026-04-11T16:31:00Z</time>
      </trkpt>
      <trkpt lat="68.44278" lon="20.19255">
        <time>2026-04-12T07:54:00Z</time>
      </trkpt>
      <trkpt lat="68.44787" lon="20.19733">
        <time>2026-04-12T08:04:00Z</time>
      </trkpt>
      <trkpt lat="68.45552" lon="20.20645">
        <time>2026-04-12T08:14:00Z</time>
      </trkpt>
      <trkpt lat="68.46321" lon="20.21563">
        <time>2026-04-12T08:24:00Z</time>
      </trkpt>
      <trkpt lat="68.47184" lon="20.22574">
        <time>2026-04-12T08:34:00Z</time>
      </trkpt>
      <trkpt lat="68.47851" lon="20.23243">
        <time>2026-04-12T08:44:00Z</time>
      </trkpt>
      <trkpt lat="68.48397" lon="20.24585">
        <time>2026-04-12T08:54:00Z</time>
      </trkpt>
      <trkpt lat="68.48908" lon="20.25863">
        <time>2026-04-12T09:04:00Z</time>
      </trkpt>
      <trkpt lat="68.49472" lon="20.27795">
        <time>2026-04-12T09:14:00Z</time>
      </trkpt>
      <trkpt lat="68.50049" lon="20.28625">
        <time>2026-04-12T09:24:00Z</time>
      </trkpt>
      <trkpt lat="68.50755" lon="20.2935">
        <time>2026-04-12T09:34:00Z</time>
      </trkpt>
      <trkpt lat="68.51406" lon="20.29331">
        <time>2026-04-12T09:44:00Z</time>
      </trkpt>
      <trkpt lat="68.52141" lon="20.29423">
        <time>2026-04-12T09:54:00Z</time>
      </trkpt>
      <trkpt lat="68.52559" lon="20.29378">
        <time>2026-04-12T10:04:00Z</time>
      </trkpt>
      <trkpt lat="68.53231" lon="20.29295">
        <time>2026-04-12T10:14:00Z</time>
      </trkpt>
      <trkpt lat="68.53932" lon="20.2926">
        <time>2026-04-12T10:24:00Z</time>
      </trkpt>
      <trkpt lat="68.54675" lon="20.29874">
        <time>2026-04-12T10:34:00Z</time>
      </trkpt>
      <trkpt lat="68.55113" lon="20.31468">
        <time>2026-04-12T10:44:00Z</time>
      </trkpt>
      <trkpt lat="68.55735" lon="20.32359">
        <time>2026-04-12T10:54:00Z</time>
      </trkpt>
      <trkpt lat="68.55978" lon="20.33052">
        <time>2026-04-12T11:04:00Z</time>
      </trkpt>
      <trkpt lat="68.56389" lon="20.33964">
        <time>2026-04-12T11:14:00Z</time>
      </trkpt>
      <trkpt lat="68.56948" lon="20.35461">
        <time>2026-04-12T11:24:00Z</time>
      </trkpt>
      <trkpt lat="68.57189" lon="20.3561">
        <time>2026-04-12T11:34:00Z</time>
      </trkpt>
      <trkpt lat="68.57375" lon="20.35983">
        <time>2026-04-12T11:44:00Z</time>
      </trkpt>
      <trkpt lat="68.57823" lon="20.37545">
        <time>2026-04-12T11:54:00Z</time>
      </trkpt>
      <trkpt lat="68.58216" lon="20.39051">
        <time>2026-04-12T12:04:00Z</time>
      </trkpt>
      <trkpt lat="68.58788" lon="20.40167">
        <time>2026-04-12T12:14:00Z</time>
      </trkpt>
      <trkpt lat="68.59192" lon="20.40856">
        <time>2026-04-12T12:24:00Z</time>
      </trkpt>
      <trkpt lat="68.59675" lon="20.41819">
        <time>2026-04-12T12:34:00Z</time>
      </trkpt>
      <trkpt lat="68.60179" lon="20.41706">
        <time>2026-04-12T12:44:00Z</time>
      </trkpt>
      <trkpt lat="68.60598" lon="20.41242">
        <time>2026-04-12T12:54:00Z</time>
      </trkpt>
      <trkpt lat="68.61072" lon="20.41435">
        <time>2026-04-12T13:04:00Z</time>
      </trkpt>
      <trkpt lat="68.61357" lon="20.41888">
        <time>2026-04-12T13:14:00Z</time>
      </trkpt>
      <trkpt lat="68.62041" lon="20.42173">
        <time>2026-04-12T13:24:00Z</time>
      </trkpt>
      <trkpt lat="68.62827" lon="20.42937">
        <time>2026-04-12T13:34:00Z</time>
      </trkpt>
      <trkpt lat="68.63598" lon="20.43356">
        <time>2026-04-12T13:44:00Z</time>
      </trkpt>
      <trkpt lat="68.64419" lon="20.4362">
        <time>2026-04-12T13:54:00Z</time>
      </trkpt>
      <trkpt lat="68.65192" lon="20.44553">
        <time>2026-04-12T14:04:00Z</time>
      </trkpt>
      <trkpt lat="68.65881" lon="20.45418">
        <time>2026-04-12T14:14:00Z</time>
      </trkpt>
      <trkpt lat="68.66182" lon="20.4578">
        <time>2026-04-12T14:24:00Z</time>
      </trkpt>
      <trkpt lat="68.66404" lon="20.46053">
        <time>2026-04-12T14:34:00Z</time>
      </trkpt>
      <trkpt lat="68.67139" lon="20.46858">
        <time>2026-04-12T14:44:00Z</time>
      </trkpt>
      <trkpt lat="68.67298" lon="20.47115">
        <time>2026-04-12T14:54:00Z</time>
      </trkpt>
      <trkpt lat="68.67296" lon="20.47094">
        <time>2026-04-12T15:04:00Z</time>
      </trkpt>
      <trkpt lat="68.67307" lon="20.47111">
        <time>2026-04-12T15:21:00Z</time>
      </trkpt>
      <trkpt lat="68.67327" lon="20.47134">
        <time>2026-04-13T07:41:00Z</time>
      </trkpt>
      <trkpt lat="68.68066" lon="20.4784">
        <time>2026-04-13T07:51:00Z</time>
      </trkpt>
      <trkpt lat="68.68761" lon="20.49001">
        <time>2026-04-13T08:01:00Z</time>
      </trkpt>
      <trkpt lat="68.6962" lon="20.5007">
        <time>2026-04-13T08:11:00Z</time>
      </trkpt>
      <trkpt lat="68.70365" lon="20.51289">
        <time>2026-04-13T08:21:00Z</time>
      </trkpt>
      <trkpt lat="68.71032" lon="20.51694">
        <time>2026-04-13T08:31:00Z</time>
      </trkpt>
      <trkpt lat="68.71877" lon="20.51211">
        <time>2026-04-13T08:41:00Z</time>
      </trkpt>
      <trkpt lat="68.72618" lon="20.51128">
        <time>2026-04-13T08:51:00Z</time>
      </trkpt>
      <trkpt lat="68.7345" lon="20.50926">
        <time>2026-04-13T09:01:00Z</time>
      </trkpt>
      <trkpt lat="68.74176" lon="20.50804">
        <time>2026-04-13T09:11:00Z</time>
      </trkpt>
      <trkpt lat="68.75027" lon="20.50945">
        <time>2026-04-13T09:21:00Z</time>
      </trkpt>
      <trkpt lat="68.75703" lon="20.50917">
        <time>2026-04-13T09:31:00Z</time>
      </trkpt>
      <trkpt lat="68.76342" lon="20.50881">
        <time>2026-04-13T09:41:00Z</time>
      </trkpt>
      <trkpt lat="68.7675" lon="20.51211">
        <time>2026-04-13T09:51:00Z</time>
      </trkpt>
      <trkpt lat="68.77337" lon="20.51231">
        <time>2026-04-13T10:01:00Z</time>
      </trkpt>
      <trkpt lat="68.77798" lon="20.51078">
        <time>2026-04-13T10:11:00Z</time>
      </trkpt>
      <trkpt lat="68.78469" lon="20.5093">
        <time>2026-04-13T10:21:00Z</time>
      </trkpt>
      <trkpt lat="68.7896" lon="20.51008">
        <time>2026-04-13T10:31:00Z</time>
      </trkpt>
      <trkpt lat="68.79534" lon="20.51053">
        <time>2026-04-13T10:41:00Z</time>
      </trkpt>
      <trkpt lat="68.80165" lon="20.50411">
        <time>2026-04-13T10:51:00Z</time>
      </trkpt>
      <trkpt lat="68.80735" lon="20.49993">
        <time>2026-04-13T11:01:00Z</time>
      </trkpt>
      <trkpt lat="68.81294" lon="20.49795">
        <time>2026-04-13T11:11:00Z</time>
      </trkpt>
      <trkpt lat="68.81981" lon="20.49555">
        <time>2026-04-13T11:21:00Z</time>
      </trkpt>
      <trkpt lat="68.82631" lon="20.49364">
        <time>2026-04-13T11:31:00Z</time>
      </trkpt>
      <trkpt lat="68.83327" lon="20.49647">
        <time>2026-04-13T11:41:00Z</time>
      </trkpt>
      <trkpt lat="68.84159" lon="20.50295">
        <time>2026-04-13T11:51:00Z</time>
      </trkpt>
      <trkpt lat="68.85035" lon="20.50499">
        <time>2026-04-13T12:01:00Z</time>
      </trkpt>
      <trkpt lat="68.85821" lon="20.50467">
        <time>2026-04-13T12:11:00Z</time>
      </trkpt>
      <trkpt lat="68.86451" lon="20.50823">
        <time>2026-04-13T12:21:00Z</time>
      </trkpt>
      <trkpt lat="68.8731" lon="20.49926">
        <time>2026-04-13T12:31:00Z</time>
      </trkpt>
      <trkpt lat="68.88009" lon="20.48982">
        <time>2026-04-13T12:41:00Z</time>
      </trkpt>
      <trkpt lat="68.88201" lon="20.48667">
        <time>2026-04-13T12:51:00Z</time>
      </trkpt>
      <trkpt lat="68.8877" lon="20.46999">
        <time>2026-04-13T13:01:00Z</time>
      </trkpt>
      <trkpt lat="68.89356" lon="20.45926">
        <time>2026-04-13T13:11:00Z</time>
      </trkpt>
      <trkpt lat="68.89912" lon="20.44487">
        <time>2026-04-13T13:21:00Z</time>
      </trkpt>
      <trkpt lat="68.90286" lon="20.43053">
        <time>2026-04-13T13:31:00Z</time>
      </trkpt>
      <trkpt lat="68.90857" lon="20.41834">
        <time>2026-04-13T13:41:00Z</time>
      </trkpt>
      <trkpt lat="68.91421" lon="20.40665">
        <time>2026-04-13T13:51:00Z</time>
      </trkpt>
      <trkpt lat="68.92055" lon="20.3941">
        <time>2026-04-13T14:01:00Z</time>
      </trkpt>
      <trkpt lat="68.92804" lon="20.38253">
        <time>2026-04-13T14:11:00Z</time>
      </trkpt>
      <trkpt lat="68.93486" lon="20.37742">
        <time>2026-04-13T14:21:00Z</time>
      </trkpt>
      <trkpt lat="68.94172" lon="20.37116">
        <time>2026-04-13T14:31:00Z</time>
      </trkpt>
      <trkpt lat="68.94556" lon="20.36358">
        <time>2026-04-13T14:41:00Z</time>
      </trkpt>
      <trkpt lat="68.95064" lon="20.35788">
        <time>2026-04-13T14:51:00Z</time>
      </trkpt>
      <trkpt lat="68.95998" lon="20.35974">
        <time>2026-04-13T15:01:00Z</time>
      </trkpt>
      <trkpt lat="68.96706" lon="20.35374">
        <time>2026-04-13T15:11:00Z</time>
      </trkpt>
      <trkpt lat="68.97244" lon="20.35858">
        <time>2026-04-13T15:21:00Z</time>
      </trkpt>
      <trkpt lat="68.97437" lon="20.36878">
        <time>2026-04-13T15:31:00Z</time>
      </trkpt>
      <trkpt lat="68.97418" lon="20.36899">
        <time>2026-04-13T15:41:00Z</time>
      </trkpt>
      <trkpt lat="68.97563" lon="20.36916">
        <time>2026-04-13T16:11:00Z</time>
      </trkpt>
      <trkpt lat="68.98046" lon="20.36976">
        <time>2026-04-13T16:21:00Z</time>
      </trkpt>
      <trkpt lat="68.98036" lon="20.36985">
        <time>2026-04-13T16:23:00Z</time>
      </trkpt>
      <trkpt lat="68.98051" lon="20.36979">
        <time>2026-04-14T07:18:00Z</time>
      </trkpt>
      <trkpt lat="68.98035" lon="20.37296">
        <time>2026-04-14T07:28:00Z</time>
      </trkpt>
      <trkpt lat="68.98067" lon="20.38888">
        <time>2026-04-14T07:38:00Z</time>
      </trkpt>
      <trkpt lat="68.98114" lon="20.39777">
        <time>2026-04-14T07:48:00Z</time>
      </trkpt>
      <trkpt lat="68.98178" lon="20.41122">
        <time>2026-04-14T07:58:00Z</time>
      </trkpt>
      <trkpt lat="68.98216" lon="20.41746">
        <time>2026-04-14T08:08:00Z</time>
      </trkpt>
      <trkpt lat="68.98368" lon="20.42607">
        <time>2026-04-14T08:18:00Z</time>
      </trkpt>
      <trkpt lat="68.98891" lon="20.44186">
        <time>2026-04-14T08:28:00Z</time>
      </trkpt>
      <trkpt lat="68.99233" lon="20.44871">
        <time>2026-04-14T08:38:00Z</time>
      </trkpt>
      <trkpt lat="68.99599" lon="20.46426">
        <time>2026-04-14T08:48:00Z</time>
      </trkpt>
      <trkpt lat="69.00167" lon="20.47145">
        <time>2026-04-14T08:58:00Z</time>
      </trkpt>
      <trkpt lat="69.00307" lon="20.47456">
        <time>2026-04-14T09:08:00Z</time>
      </trkpt>
      <trkpt lat="69.00658" lon="20.48383">
        <time>2026-04-14T09:18:00Z</time>
      </trkpt>
      <trkpt lat="69.01202" lon="20.49158">
        <time>2026-04-14T09:28:00Z</time>
      </trkpt>
      <trkpt lat="69.01786" lon="20.4989">
        <time>2026-04-14T09:38:00Z</time>
      </trkpt>
      <trkpt lat="69.02361" lon="20.51138">
        <time>2026-04-14T09:48:00Z</time>
      </trkpt>
      <trkpt lat="69.02765" lon="20.51924">
        <time>2026-04-14T09:58:00Z</time>
      </trkpt>
      <trkpt lat="69.04352" lon="20.51422">
        <time>2026-04-14T10:08:00Z</time>
      </trkpt>
      <trkpt lat="69.04982" lon="20.52505">
        <time>2026-04-14T10:18:00Z</time>
      </trkpt>
      <trkpt lat="69.05431" lon="20.52804">
        <time>2026-04-14T10:28:00Z</time>
      </trkpt>
      <trkpt lat="69.05778" lon="20.54091">
        <time>2026-04-14T10:38:00Z</time>
      </trkpt>
    </trkseg>
  </trk>
</gpx>
