<?xml version="1.0" encoding="UTF-8"?>
<gpx xmlns="http://www.topografix.com/GPX/1/1" version="1.1" creator="VitaBandet">
  <metadata>
    <name>Abisko→finish · Karl Hulten (traditional)</name>
  </metadata>
  <wpt lat="68.35064" lon="18.83142">
    <name>Abisko</name>
  </wpt>
  <wpt lat="69.05989" lon="20.5487">
    <name>Treriksröset</name>
  </wpt>
  <wpt lat="69.05989" lon="20.5487">
    <name>Pältsa</name>
  </wpt>
  <trk>
    <name>Abisko→finish · Karl Hulten (traditional)</name>
    <trkseg>
      <trkpt lat="68.35064" lon="18.83142">
        <time>2026-03-28T15:33:00Z</time>
      </trkpt>
      <trkpt lat="68.35202" lon="18.83839">
        <time>2026-03-28T15:53:00Z</time>
      </trkpt>
      <trkpt lat="68.35755" lon="18.84799">
        <time>2026-03-28T16:03:00Z</time>
      </trkpt>
      <trkpt lat="68.35961" lon="18.85865">
        <time>2026-03-28T16:13:00Z</time>
      </trkpt>
      <trkpt lat="68.35978" lon="18.85908">
        <time>2026-03-28T16:23:00Z</time>
      </trkpt>
      <trkpt lat="68.36384" lon="18.87092">
        <time>2026-03-28T17:13:00Z</time>
      </trkpt>
      <trkpt lat="68.36682" lon="18.89378">
        <time>2026-03-28T17:23:00Z</time>
      </trkpt>
      <trkpt lat="68.36587" lon="18.91609">
        <time>2026-03-28T17:33:00Z</time>
      </trkpt>
      <trkpt lat="68.36414" lon="18.93753">
        <time>2026-03-28T17:43:00Z</time>
      </trkpt>
      <trkpt lat="68.36618" lon="18.95828">
        <time>2026-03-28T17:53:00Z</time>
      </trkpt>
      <trkpt lat="68.36596" lon="18.95826">
        <time>2026-03-29T06:18:00Z</time>
      </trkpt>
      <trkpt lat="68.36744" lon="18.96909">
        <time>2026-03-29T06:28:00Z</time>
      </trkpt>
      <trkpt lat="68.36829" lon="18.98699">
        <time>2026-03-29T06:38:00Z</time>
      </trkpt>
      <trkpt lat="68.36892" lon="19.00782">
        <time>2026-03-29T06:48:00Z</time>
      </trkpt>
      <trkpt lat="68.36954" lon="19.02714">
        <time>2026-03-29T06:58:00Z</time>
      </trkpt>
      <trkpt lat="68.3698" lon="19.04241">
        <time>2026-03-29T07:08:00Z</time>
      </trkpt>
      <trkpt lat="68.36998" lon="19.05372">
        <time>2026-03-29T07:18:00Z</time>
      </trkpt>
      <trkpt lat="68.36992" lon="19.07372">
        <time>2026-03-29T07:28:00Z</time>
      </trkpt>
      <trkpt lat="68.36836" lon="19.08986">
        <time>2026-03-29T07:38:00Z</time>
      </trkpt>
      <trkpt lat="68.36598" lon="19.10829">
        <time>2026-03-29T07:48:00Z</time>
      </trkpt>
      <trkpt lat="68.36315" lon="19.12927">
        <time>2026-03-29T07:58:00Z</time>
      </trkpt>
      <trkpt lat="68.36222" lon="19.13625">
        <time>2026-03-29T08:08:00Z</time>
      </trkpt>
      <trkpt lat="68.36144" lon="19.14185">
        <time>2026-03-29T08:18:00Z</time>
      </trkpt>
      <trkpt lat="68.35891" lon="19.1603">
        <time>2026-03-29T08:28:00Z</time>
      </trkpt>
      <trkpt lat="68.35623" lon="19.18013">
        <time>2026-03-29T08:38:00Z</time>
      </trkpt>
      <trkpt lat="68.35374" lon="19.19751">
        <time>2026-03-29T08:48:00Z</time>
      </trkpt>
      <trkpt lat="68.3511" lon="19.21626">
        <time>2026-03-29T08:58:00Z</time>
      </trkpt>
      <trkpt lat="68.3491" lon="19.2315">
        <time>2026-03-29T09:08:00Z</time>
      </trkpt>
      <trkpt lat="68.34666" lon="19.2501">
        <time>2026-03-29T09:18:00Z</time>
      </trkpt>
      <trkpt lat="68.34574" lon="19.2616">
        <time>2026-03-29T09:28:00Z</time>
      </trkpt>
      <trkpt lat="68.34573" lon="19.26158">
        <time>2026-03-29T09:38:00Z</time>
      </trkpt>
      <trkpt lat="68.3441" lon="19.2712">
        <time>2026-03-29T09:48:00Z</time>
      </trkpt>
      <trkpt lat="68.34157" lon="19.29141">
        <time>2026-03-29T09:58:00Z</time>
      </trkpt>
      <trkpt lat="68.33946" lon="19.30827">
        <time>2026-03-29T10:08:00Z</time>
      </trkpt>
      <trkpt lat="68.33711" lon="19.32656">
        <time>2026-03-29T10:18:00Z</time>
      </trkpt>
      <trkpt lat="68.33453" lon="19.34518">
        <time>2026-03-29T10:28:00Z</time>
      </trkpt>
      <trkpt lat="68.33182" lon="19.36299">
        <time>2026-03-29T10:38:00Z</time>
      </trkpt>
      <trkpt lat="68.33137" lon="19.3661">
        <time>2026-03-29T10:48:00Z</time>
      </trkpt>
      <trkpt lat="68.33136" lon="19.36608">
        <time>2026-03-29T10:58:00Z</time>
      </trkpt>
      <trkpt lat="68.32991" lon="19.37561">
        <time>2026-03-29T11:08:00Z</time>
      </trkpt>
      <trkpt lat="68.32759" lon="19.39147">
        <time>2026-03-29T11:18:00Z</time>
      </trkpt>
      <trkpt lat="68.32494" lon="19.40953">
        <time>2026-03-29T11:28:00Z</time>
      </trkpt>
      <trkpt lat="68.32222" lon="19.42745">
        <time>2026-03-29T11:38:00Z</time>
      </trkpt>
      <trkpt lat="68.31973" lon="19.44357">
        <time>2026-03-29T11:48:00Z</time>
      </trkpt>
      <trkpt lat="68.31894" lon="19.44824">
        <time>2026-03-29T11:58:00Z</time>
      </trkpt>
      <trkpt lat="68.31896" lon="19.44824">
        <time>2026-03-29T12:08:00Z</time>
      </trkpt>
      <trkpt lat="68.3165" lon="19.46429">
        <time>2026-03-29T12:18:00Z</time>
      </trkpt>
      <trkpt lat="68.31346" lon="19.4841">
        <time>2026-03-29T12:28:00Z</time>
      </trkpt>
      <trkpt lat="68.31112" lon="19.49998">
        <time>2026-03-29T12:38:00Z</time>
      </trkpt>
      <trkpt lat="68.30847" lon="19.5206">
        <time>2026-03-29T12:48:00Z</time>
      </trkpt>
      <trkpt lat="68.30432" lon="19.54034">
        <time>2026-03-29T12:58:00Z</time>
      </trkpt>
      <trkpt lat="68.30341" lon="19.54907">
        <time>2026-03-29T13:08:00Z</time>
      </trkpt>
      <trkpt lat="68.30345" lon="19.54916">
        <time>2026-03-29T13:18:00Z</time>
      </trkpt>
      <trkpt lat="68.30116" lon="19.5566">
        <time>2026-03-29T14:28:00Z</time>
      </trkpt>
      <trkpt lat="68.30144" lon="19.58029">
        <time>2026-03-29T14:38:00Z</time>
      </trkpt>
      <trkpt lat="68.30149" lon="19.60064">
        <time>2026-03-29T14:48:00Z</time>
      </trkpt>
      <trkpt lat="68.30274" lon="19.62555">
        <time>2026-03-29T14:58:00Z</time>
      </trkpt>
      <trkpt lat="68.3029" lon="19.64997">
        <time>2026-03-29T15:08:00Z</time>
      </trkpt>
      <trkpt lat="68.30348" lon="19.67237">
        <time>2026-03-29T15:18:00Z</time>
      </trkpt>
      <trkpt lat="68.30347" lon="19.67265">
        <time>2026-03-29T15:28:00Z</time>
      </trkpt>
      <trkpt lat="68.30383" lon="19.6861">
        <time>2026-03-29T15:38:00Z</time>
      </trkpt>
      <trkpt lat="68.30436" lon="19.70546">
        <time>2026-03-29T15:48:00Z</time>
      </trkpt>
      <trkpt lat="68.305" lon="19.73346">
        <time>2026-03-29T15:58:00Z</time>
      </trkpt>
      <trkpt lat="68.30641" lon="19.75674">
        <time>2026-03-29T16:08:00Z</time>
      </trkpt>
      <trkpt lat="68.30757" lon="19.77434">
        <time>2026-03-29T16:18:00Z</time>
      </trkpt>
      <trkpt lat="68.30863" lon="19.79189">
        <time>2026-03-29T16:28:00Z</time>
      </trkpt>
      <trkpt lat="68.30865" lon="19.7918">
        <time>2026-03-29T16:38:00Z</time>
      </trkpt>
      <trkpt lat="68.30914" lon="19.81549">
        <time>2026-03-29T16:58:00Z</time>
      </trkpt>
      <trkpt lat="68.308" lon="19.83742">
        <time>2026-03-29T17:08:00Z</time>
      </trkpt>
      <trkpt lat="68.30716" lon="19.84115">
        <time>2026-03-29T17:18:00Z</time>
      </trkpt>
      <trkpt lat="68.30227" lon="19.85437">
        <time>2026-03-29T17:28:00Z</time>
      </trkpt>
      <trkpt lat="68.29823" lon="19.86671">
        <time>2026-03-29T17:38:00Z</time>
      </trkpt>
      <trkpt lat="68.29389" lon="19.87916">
        <time>2026-03-29T17:48:00Z</time>
      </trkpt>
      <trkpt lat="68.29172" lon="19.89147">
        <time>2026-03-29T17:58:00Z</time>
      </trkpt>
      <trkpt lat="68.29453" lon="19.89456">
        <time>2026-03-29T18:08:00Z</time>
      </trkpt>
      <trkpt lat="68.29557" lon="19.89928">
        <time>2026-03-29T18:18:00Z</time>
      </trkpt>
      <trkpt lat="68.2969" lon="19.90377">
        <time>2026-03-30T07:09:00Z</time>
      </trkpt>
      <trkpt lat="68.30101" lon="19.91735">
        <time>2026-03-30T07:19:00Z</time>
      </trkpt>
      <trkpt lat="68.30665" lon="19.93389">
        <time>2026-03-30T07:29:00Z</time>
      </trkpt>
      <trkpt lat="68.31436" lon="19.93782">
        <time>2026-03-30T07:39:00Z</time>
      </trkpt>
      <trkpt lat="68.32022" lon="19.94331">
        <time>2026-03-30T07:49:00Z</time>
      </trkpt>
      <trkpt lat="68.32365" lon="19.94909">
        <time>2026-03-30T07:59:00Z</time>
      </trkpt>
      <trkpt lat="68.3285" lon="19.95235">
        <time>2026-03-30T08:09:00Z</time>
      </trkpt>
      <trkpt lat="68.32894" lon="19.9523">
        <time>2026-03-30T08:19:00Z</time>
      </trkpt>
      <trkpt lat="68.33174" lon="19.956">
        <time>2026-03-30T08:29:00Z</time>
      </trkpt>
      <trkpt lat="68.3361" lon="19.96121">
        <time>2026-03-30T08:39:00Z</time>
      </trkpt>
      <trkpt lat="68.34059" lon="19.96316">
        <time>2026-03-30T08:49:00Z</time>
      </trkpt>
      <trkpt lat="68.34404" lon="19.96574">
        <time>2026-03-30T08:59:00Z</time>
      </trkpt>
      <trkpt lat="68.34937" lon="19.97402">
        <time>2026-03-30T09:09:00Z</time>
      </trkpt>
      <trkpt lat="68.35393" lon="19.99325">
        <time>2026-03-30T09:19:00Z</time>
      </trkpt>
      <trkpt lat="68.35393" lon="19.99322">
        <time>2026-03-30T09:29:00Z</time>
      </trkpt>
      <trkpt lat="68.35817" lon="20.01219">
        <time>2026-03-30T09:39:00Z</time>
      </trkpt>
      <trkpt lat="68.36181" lon="20.02483">
        <time>2026-03-30T09:49:00Z</time>
      </trkpt>
      <trkpt lat="68.36662" lon="20.03844">
        <time>2026-03-30T09:59:00Z</time>
      </trkpt>
      <trkpt lat="68.36798" lon="20.04809">
        <time>2026-03-30T10:09:00Z</time>
      </trkpt>
      <trkpt lat="68.36799" lon="20.04794">
        <time>2026-03-30T10:19:00Z</time>
      </trkpt>
      <trkpt lat="68.37256" lon="20.06137">
        <time>2026-03-30T10:29:00Z</time>
      </trkpt>
      <trkpt lat="68.3736" lon="20.07318">
        <time>2026-03-30T10:39:00Z</time>
      </trkpt>
      <trkpt lat="68.3736" lon="20.07322">
        <time>2026-03-30T10:49:00Z</time>
      </trkpt>
      <trkpt lat="68.37857" lon="20.0779">
        <time>2026-03-30T10:59:00Z</time>
      </trkpt>
      <trkpt lat="68.38536" lon="20.07212">
        <time>2026-03-30T11:09:00Z</time>
      </trkpt>
      <trkpt lat="68.39004" lon="20.0664">
        <time>2026-03-30T11:19:00Z</time>
      </trkpt>
      <trkpt lat="68.39051" lon="20.06562">
        <time>2026-03-30T11:29:00Z</time>
      </trkpt>
      <trkpt lat="68.39669" lon="20.06249">
        <time>2026-03-30T11:39:00Z</time>
      </trkpt>
      <trkpt lat="68.40061" lon="20.06732">
        <time>2026-03-30T11:49:00Z</time>
      </trkpt>
      <trkpt lat="68.4057" lon="20.07266">
        <time>2026-03-30T11:59:00Z</time>
      </trkpt>
      <trkpt lat="68.41044" lon="20.07963">
        <time>2026-03-30T12:09:00Z</time>
      </trkpt>
      <trkpt lat="68.41337" lon="20.08202">
        <time>2026-03-30T12:19:00Z</time>
      </trkpt>
      <trkpt lat="68.41417" lon="20.08343">
        <time>2026-03-30T12:29:00Z</time>
      </trkpt>
      <trkpt lat="68.41757" lon="20.09633">
        <time>2026-03-30T12:39:00Z</time>
      </trkpt>
      <trkpt lat="68.41998" lon="20.11225">
        <time>2026-03-30T12:49:00Z</time>
      </trkpt>
      <trkpt lat="68.42216" lon="20.13115">
        <time>2026-03-30T12:59:00Z</time>
      </trkpt>
      <trkpt lat="68.42232" lon="20.14639">
        <time>2026-03-30T13:09:00Z</time>
      </trkpt>
      <trkpt lat="68.4263" lon="20.15793">
        <time>2026-03-30T13:19:00Z</time>
      </trkpt>
      <trkpt lat="68.43499" lon="20.17581">
        <time>2026-03-30T13:29:00Z</time>
      </trkpt>
      <trkpt lat="68.44337" lon="20.19216">
        <time>2026-03-30T13:39:00Z</time>
      </trkpt>
      <trkpt lat="68.44753" lon="20.19703">
        <time>2026-03-30T13:49:00Z</time>
      </trkpt>
      <trkpt lat="68.4553" lon="20.20634">
        <time>2026-03-30T13:59:00Z</time>
      </trkpt>
      <trkpt lat="68.46251" lon="20.21493">
        <time>2026-03-30T14:09:00Z</time>
      </trkpt>
      <trkpt lat="68.47122" lon="20.22492">
        <time>2026-03-30T14:19:00Z</time>
      </trkpt>
      <trkpt lat="68.4755" lon="20.22992">
        <time>2026-03-30T14:29:00Z</time>
      </trkpt>
      <trkpt lat="68.47556" lon="20.22984">
        <time>2026-03-30T14:39:00Z</time>
      </trkpt>
      <trkpt lat="68.47941" lon="20.234">
        <time>2026-03-30T15:39:00Z</time>
      </trkpt>
      <trkpt lat="68.48487" lon="20.2487">
        <time>2026-03-30T15:49:00Z</time>
      </trkpt>
      <trkpt lat="68.49027" lon="20.26381">
        <time>2026-03-30T15:59:00Z</time>
      </trkpt>
      <trkpt lat="68.4962" lon="20.28056">
        <time>2026-03-30T16:09:00Z</time>
      </trkpt>
      <trkpt lat="68.50313" lon="20.29127">
        <time>2026-03-30T16:19:00Z</time>
      </trkpt>
      <trkpt lat="68.5089" lon="20.29157">
        <time>2026-03-30T16:29:00Z</time>
      </trkpt>
      <trkpt lat="68.51455" lon="20.29383">
        <time>2026-03-30T16:39:00Z</time>
      </trkpt>
      <trkpt lat="68.52378" lon="20.29413">
        <time>2026-03-30T16:49:00Z</time>
      </trkpt>
      <trkpt lat="68.53182" lon="20.29307">
        <time>2026-03-30T16:59:00Z</time>
      </trkpt>
      <trkpt lat="68.53994" lon="20.29305">
        <time>2026-03-30T17:09:00Z</time>
      </trkpt>
      <trkpt lat="68.54793" lon="20.30134">
        <time>2026-03-30T17:19:00Z</time>
      </trkpt>
      <trkpt lat="68.54928" lon="20.30419">
        <time>2026-03-30T17:29:00Z</time>
      </trkpt>
      <trkpt lat="68.5538" lon="20.31992">
        <time>2026-03-30T17:39:00Z</time>
      </trkpt>
      <trkpt lat="68.56027" lon="20.33223">
        <time>2026-03-30T17:49:00Z</time>
      </trkpt>
      <trkpt lat="68.56571" lon="20.34427">
        <time>2026-03-30T17:59:00Z</time>
      </trkpt>
      <trkpt lat="68.57171" lon="20.35595">
        <time>2026-03-30T18:09:00Z</time>
      </trkpt>
      <trkpt lat="68.57167" lon="20.35562">
        <time>2026-03-30T18:19:00Z</time>
      </trkpt>
      <trkpt lat="68.57167" lon="20.35567">
        <time>2026-03-30T19:24:00Z</time>
      </trkpt>
      <trkpt lat="68.57168" lon="20.35562">
        <time>2026-03-30T19:34:00Z</time>
      </trkpt>
      <trkpt lat="68.57167" lon="20.35564">
        <time>2026-03-31T07:47:00Z</time>
      </trkpt>
      <trkpt lat="68.57171" lon="20.35582">
        <time>2026-03-31T07:57:00Z</time>
      </trkpt>
      <trkpt lat="68.57439" lon="20.36135">
        <time>2026-03-31T08:07:00Z</time>
      </trkpt>
      <trkpt lat="68.57848" lon="20.3765">
        <time>2026-03-31T08:17:00Z</time>
      </trkpt>
      <trkpt lat="68.58239" lon="20.39101">
        <time>2026-03-31T08:27:00Z</time>
      </trkpt>
      <trkpt lat="68.58649" lon="20.39978">
        <time>2026-03-31T08:37:00Z</time>
      </trkpt>
      <trkpt lat="68.59187" lon="20.40839">
        <time>2026-03-31T08:47:00Z</time>
      </trkpt>
      <trkpt lat="68.5981" lon="20.41822">
        <time>2026-03-31T08:57:00Z</time>
      </trkpt>
      <trkpt lat="68.60371" lon="20.41403">
        <time>2026-03-31T09:07:00Z</time>
      </trkpt>
      <trkpt lat="68.60825" lon="20.41201">
        <time>2026-03-31T09:17:00Z</time>
      </trkpt>
      <trkpt lat="68.61163" lon="20.4159">
        <time>2026-03-31T09:27:00Z</time>
      </trkpt>
      <trkpt lat="68.61636" lon="20.42066">
        <time>2026-03-31T09:37:00Z</time>
      </trkpt>
      <trkpt lat="68.61634" lon="20.42066">
        <time>2026-03-31T09:47:00Z</time>
      </trkpt>
      <trkpt lat="68.62371" lon="20.4248">
        <time>2026-03-31T10:07:00Z</time>
      </trkpt>
      <trkpt lat="68.63104" lon="20.43109">
        <time>2026-03-31T10:17:00Z</time>
      </trkpt>
      <trkpt lat="68.63726" lon="20.43382">
        <time>2026-03-31T10:27:00Z</time>
      </trkpt>
      <trkpt lat="68.64552" lon="20.43768">
        <time>2026-03-31T10:37:00Z</time>
      </trkpt>
      <trkpt lat="68.65178" lon="20.44525">
        <time>2026-03-31T10:47:00Z</time>
      </trkpt>
      <trkpt lat="68.65823" lon="20.45345">
        <time>2026-03-31T10:57:00Z</time>
      </trkpt>
      <trkpt lat="68.66497" lon="20.4615">
        <time>2026-03-31T11:07:00Z</time>
      </trkpt>
      <trkpt lat="68.66682" lon="20.4633">
        <time>2026-03-31T11:17:00Z</time>
      </trkpt>
      <trkpt lat="68.6668" lon="20.46338">
        <time>2026-03-31T11:27:00Z</time>
      </trkpt>
      <trkpt lat="68.66995" lon="20.46637">
        <time>2026-03-31T11:37:00Z</time>
      </trkpt>
      <trkpt lat="68.67746" lon="20.47396">
        <time>2026-03-31T11:47:00Z</time>
      </trkpt>
      <trkpt lat="68.68438" lon="20.48465">
        <time>2026-03-31T11:57:00Z</time>
      </trkpt>
      <trkpt lat="68.69171" lon="20.49583">
        <time>2026-03-31T12:07:00Z</time>
      </trkpt>
      <trkpt lat="68.69943" lon="20.5045">
        <time>2026-03-31T12:17:00Z</time>
      </trkpt>
      <trkpt lat="68.7027" lon="20.51031">
        <time>2026-03-31T12:27:00Z</time>
      </trkpt>
      <trkpt lat="68.70513" lon="20.51649">
        <time>2026-03-31T12:37:00Z</time>
      </trkpt>
      <trkpt lat="68.70512" lon="20.51649">
        <time>2026-03-31T12:47:00Z</time>
      </trkpt>
      <trkpt lat="68.70838" lon="20.51853">
        <time>2026-03-31T13:07:00Z</time>
      </trkpt>
      <trkpt lat="68.71618" lon="20.51299">
        <time>2026-03-31T13:17:00Z</time>
      </trkpt>
      <trkpt lat="68.72207" lon="20.51905">
        <time>2026-03-31T13:27:00Z</time>
      </trkpt>
      <trkpt lat="68.72632" lon="20.53748">
        <time>2026-03-31T13:37:00Z</time>
      </trkpt>
      <trkpt lat="68.73066" lon="20.55724">
        <time>2026-03-31T13:47:00Z</time>
      </trkpt>
      <trkpt lat="68.73505" lon="20.56715">
        <time>2026-03-31T13:57:00Z</time>
      </trkpt>
      <trkpt lat="68.73914" lon="20.58061">
        <time>2026-03-31T14:07:00Z</time>
      </trkpt>
      <trkpt lat="68.74352" lon="20.59636">
        <time>2026-03-31T14:17:00Z</time>
      </trkpt>
      <trkpt lat="68.74756" lon="20.60839">
        <time>2026-03-31T14:27:00Z</time>
      </trkpt>
      <trkpt lat="68.74863" lon="20.61498">
        <time>2026-03-31T14:37:00Z</time>
      </trkpt>
      <trkpt lat="68.74859" lon="20.61503">
        <time>2026-03-31T14:47:00Z</time>
      </trkpt>
      <trkpt lat="68.75036" lon="20.62018">
        <time>2026-03-31T14:57:00Z</time>
      </trkpt>
      <trkpt lat="68.75724" lon="20.62333">
        <time>2026-03-31T15:07:00Z</time>
      </trkpt>
      <trkpt lat="68.76171" lon="20.63097">
        <time>2026-03-31T15:17:00Z</time>
      </trkpt>
      <trkpt lat="68.76535" lon="20.64189">
        <time>2026-03-31T15:27:00Z</time>
      </trkpt>
      <trkpt lat="68.76873" lon="20.65172">
        <time>2026-03-31T15:37:00Z</time>
      </trkpt>
      <trkpt lat="68.77062" lon="20.65663">
        <time>2026-03-31T15:47:00Z</time>
      </trkpt>
      <trkpt lat="68.77461" lon="20.67071">
        <time>2026-03-31T15:57:00Z</time>
      </trkpt>
      <trkpt lat="68.77909" lon="20.68809">
        <time>2026-03-31T16:07:00Z</time>
      </trkpt>
      <trkpt lat="68.78368" lon="20.70165">
        <time>2026-03-31T16:17:00Z</time>
      </trkpt>
      <trkpt lat="68.78458" lon="20.7041">
        <time>2026-03-31T16:27:00Z</time>
      </trkpt>
      <trkpt lat="68.78459" lon="20.70414">
        <time>2026-03-31T16:37:00Z</time>
      </trkpt>
      <trkpt lat="68.78751" lon="20.71201">
        <time>2026-03-31T16:47:00Z</time>
      </trkpt>
      <trkpt lat="68.79121" lon="20.7215">
        <time>2026-03-31T16:57:00Z</time>
      </trkpt>
      <trkpt lat="68.79515" lon="20.72862">
        <time>2026-03-31T17:07:00Z</time>
      </trkpt>
      <trkpt lat="68.80209" lon="20.73948">
        <time>2026-03-31T17:17:00Z</time>
      </trkpt>
      <trkpt lat="68.80802" lon="20.73987">
        <time>2026-03-31T17:27:00Z</time>
      </trkpt>
      <trkpt lat="68.81454" lon="20.73849">
        <time>2026-03-31T17:37:00Z</time>
      </trkpt>
      <trkpt lat="68.82062" lon="20.73725">
        <time>2026-03-31T17:47:00Z</time>
      </trkpt>
      <trkpt lat="68.82062" lon="20.73716">
        <time>2026-03-31T17:57:00Z</time>
      </trkpt>
      <trkpt lat="68.82534" lon="20.73894">
        <time>2026-03-31T18:07:00Z</time>
      </trkpt>
      <trkpt lat="68.83242" lon="20.7368">
        <time>2026-03-31T18:17:00Z</time>
      </trkpt>
      <trkpt lat="68.83819" lon="20.73581">
        <time>2026-03-31T18:27:00Z</time>
      </trkpt>
      <trkpt lat="68.84524" lon="20.73671">
        <time>2026-03-31T18:37:00Z</time>
      </trkpt>
      <trkpt lat="68.85491" lon="20.71693">
        <time>2026-03-31T18:47:00Z</time>
      </trkpt>
      <trkpt lat="68.85494" lon="20.71691">
        <time>2026-03-31T18:57:00Z</time>
      </trkpt>
      <trkpt lat="68.85498" lon="20.71703">
        <time>2026-03-31T19:46:00Z</time>
      </trkpt>
      <trkpt lat="68.85496" lon="20.71701">
        <time>2026-03-31T19:46:00Z</time>
      </trkpt>
      <trkpt lat="68.85654" lon="20.70822">
        <time>2026-03-31T19:56:00Z</time>
      </trkpt>
      <trkpt lat="68.8592" lon="20.69989">
        <time>2026-03-31T20:06:00Z</time>
      </trkpt>
      <trkpt lat="68.86386" lon="20.68019">
        <time>2026-03-31T20:16:00Z</time>
      </trkpt>
      <trkpt lat="68.863" lon="20.66195">
        <time>2026-03-31T20:26:00Z</time>
      </trkpt>
      <trkpt lat="68.86315" lon="20.64275">
        <time>2026-03-31T20:36:00Z</time>
      </trkpt>
      <trkpt lat="68.86436" lon="20.63434">
        <time>2026-03-31T20:46:00Z</time>
      </trkpt>
      <trkpt lat="68.86707" lon="20.61601">
        <time>2026-03-31T20:56:00Z</time>
      </trkpt>
      <trkpt lat="68.87082" lon="20.59509">
        <time>2026-03-31T21:06:00Z</time>
      </trkpt>
      <trkpt lat="68.87422" lon="20.57687">
        <time>2026-03-31T21:16:00Z</time>
      </trkpt>
      <trkpt lat="68.87714" lon="20.55911">
        <time>2026-03-31T21:26:00Z</time>
      </trkpt>
      <trkpt lat="68.87714" lon="20.55911">
        <time>2026-03-31T21:36:00Z</time>
      </trkpt>
      <trkpt lat="68.87835" lon="20.54608">
        <time>2026-03-31T21:46:00Z</time>
      </trkpt>
      <trkpt lat="68.87621" lon="20.52752">
        <time>2026-03-31T21:56:00Z</time>
      </trkpt>
      <trkpt lat="68.87716" lon="20.51057">
        <time>2026-03-31T22:06:00Z</time>
      </trkpt>
      <trkpt lat="68.88025" lon="20.49546">
        <time>2026-03-31T22:16:00Z</time>
      </trkpt>
      <trkpt lat="68.88293" lon="20.48091">
        <time>2026-03-31T22:26:00Z</time>
      </trkpt>
      <trkpt lat="68.88763" lon="20.46986">
        <time>2026-03-31T22:36:00Z</time>
      </trkpt>
      <trkpt lat="68.88803" lon="20.46941">
        <time>2026-03-31T22:46:00Z</time>
      </trkpt>
      <trkpt lat="68.89409" lon="20.45823">
        <time>2026-03-31T23:06:00Z</time>
      </trkpt>
      <trkpt lat="68.89998" lon="20.44186">
        <time>2026-03-31T23:16:00Z</time>
      </trkpt>
      <trkpt lat="68.90597" lon="20.42337">
        <time>2026-03-31T23:26:00Z</time>
      </trkpt>
      <trkpt lat="68.91348" lon="20.40832">
        <time>2026-03-31T23:36:00Z</time>
      </trkpt>
      <trkpt lat="68.92175" lon="20.39317">
        <time>2026-03-31T23:46:00Z</time>
      </trkpt>
      <trkpt lat="68.92716" lon="20.38408">
        <time>2026-03-31T23:56:00Z</time>
      </trkpt>
      <trkpt lat="68.92746" lon="20.38354">
        <time>2026-04-01T00:06:00Z</time>
      </trkpt>
      <trkpt lat="68.9338" lon="20.3776">
        <time>2026-04-01T00:16:00Z</time>
      </trkpt>
      <trkpt lat="68.93983" lon="20.37427">
        <time>2026-04-01T00:26:00Z</time>
      </trkpt>
      <trkpt lat="68.94293" lon="20.36899">
        <time>2026-04-01T00:36:00Z</time>
      </trkpt>
      <trkpt lat="68.94518" lon="20.36453">
        <time>2026-04-01T00:46:00Z</time>
      </trkpt>
      <trkpt lat="68.94842" lon="20.35856">
        <time>2026-04-01T00:56:00Z</time>
      </trkpt>
      <trkpt lat="68.95587" lon="20.35912">
        <time>2026-04-01T01:06:00Z</time>
      </trkpt>
      <trkpt lat="68.96755" lon="20.35343">
        <time>2026-04-01T01:16:00Z</time>
      </trkpt>
      <trkpt lat="68.97302" lon="20.36142">
        <time>2026-04-01T01:26:00Z</time>
      </trkpt>
      <trkpt lat="68.97413" lon="20.36839">
        <time>2026-04-01T01:36:00Z</time>
      </trkpt>
      <trkpt lat="68.97427" lon="20.36848">
        <time>2026-04-02T09:18:00Z</time>
      </trkpt>
      <trkpt lat="68.97602" lon="20.36925">
        <time>2026-04-02T09:28:00Z</time>
      </trkpt>
      <trkpt lat="68.97915" lon="20.37197">
        <time>2026-04-02T09:38:00Z</time>
      </trkpt>
      <trkpt lat="68.97983" lon="20.37835">
        <time>2026-04-02T09:48:00Z</time>
      </trkpt>
      <trkpt lat="68.98093" lon="20.39056">
        <time>2026-04-02T09:58:00Z</time>
      </trkpt>
      <trkpt lat="68.98099" lon="20.40395">
        <time>2026-04-02T10:08:00Z</time>
      </trkpt>
      <trkpt lat="68.98213" lon="20.41268">
        <time>2026-04-02T10:18:00Z</time>
      </trkpt>
      <trkpt lat="68.98315" lon="20.42379">
        <time>2026-04-02T10:28:00Z</time>
      </trkpt>
      <trkpt lat="68.98736" lon="20.43826">
        <time>2026-04-02T10:38:00Z</time>
      </trkpt>
      <trkpt lat="68.99002" lon="20.44328">
        <time>2026-04-02T10:48:00Z</time>
      </trkpt>
      <trkpt lat="68.99399" lon="20.45306">
        <time>2026-04-02T10:58:00Z</time>
      </trkpt>
      <trkpt lat="69.00101" lon="20.46941">
        <time>2026-04-02T11:08:00Z</time>
      </trkpt>
      <trkpt lat="69.00384" lon="20.47819">
        <time>2026-04-02T11:18:00Z</time>
      </trkpt>
      <trkpt lat="69.00875" lon="20.48733">
        <time>2026-04-02T11:28:00Z</time>
      </trkpt>
      <trkpt lat="69.00963" lon="20.48864">
        <time>2026-04-02T11:38:00Z</time>
      </trkpt>
      <trkpt lat="69.01646" lon="20.49598">
        <time>2026-04-02T11:48:00Z</time>
      </trkpt>
      <trkpt lat="69.02456" lon="20.51347">
        <time>2026-04-02T11:58:00Z</time>
      </trkpt>
      <trkpt lat="69.03253" lon="20.51656">
        <time>2026-04-02T12:08:00Z</time>
      </trkpt>
      <trkpt lat="69.04404" lon="20.51488">
        <time>2026-04-02T12:18:00Z</time>
      </trkpt>
      <trkpt lat="69.0512" lon="20.52698">
        <time>2026-04-02T12:28:00Z</time>
      </trkpt>
      <trkpt lat="69.05528" lon="20.53149">
        <time>2026-04-02T12:38:00Z</time>
      </trkpt>
      <trkpt lat="69.05814" lon="20.54241">
        <time>2026-04-02T12:48:00Z</time>
      </trkpt>
      <trkpt lat="69.05995" lon="20.54866">
        <time>2026-04-02T12:58:00Z</time>
      </trkpt>
      <trkpt lat="69.05989" lon="20.5487">
        <time>2026-04-02T13:07:00Z</time>
      </trkpt>
    </trkseg>
  </trk>
</gpx>
